[{"house_number": "1596", "road": "Honey Wilkinson Road", "city": "Macclenny", "state": "Florida", "postcode": "32063", "lat": 30.203562413901228, "long": -82.0676977631528}, {"house_number": "1737", "road": "Oscar Road", "city": "Macclenny", "state": "Florida", "postcode": "32063", "lat": 30.203079679678787, "long": -82.06952539850656}, {"house_number": "1737", "road": "Oscar Road", "city": "Macclenny", "state": "Florida", "postcode": "32063", "lat": 30.203079679678787, "long": -82.06952539850656}, {"house_number": "162", "road": "South 2nd Street", "city": "Macclenny", "state": "Florida", "postcode": "32063", "lat": 30.281570628025705, "long": -82.11717979572553}, {"house_number": "464", "road": "East Shuey Avenue", "city": "Macclenny", "state": "Florida", "postcode": "32063", "lat": 30.28477254661065, "long": -82.11712692537043}, {"house_number": "44", "road": "North 1st Street", "city": "Macclenny", "state": "Florida", "postcode": "32063", "lat": 30.284153480296418, "long": -82.11625358660727}, {"house_number": "445", "road": "East Macclenny Avenue", "city": "Macclenny", "state": "Florida", "postcode": "32063", "lat": 30.283294044503826, "long": -82.11679942102519}, {"house_number": "360", "road": "East McIver Avenue", "city": "Macclenny", "state": "Florida", "postcode": "32063", "lat": 30.28118115563417, "long": -82.11784984969164}, {"house_number": "247", "road": "South 2nd Street", "city": "Macclenny", "state": "Florida", "postcode": "32063", "lat": 30.28068456592642, "long": -82.11699370362497}, {"house_number": "351", "road": "East Michigan Avenue", "city": "Macclenny", "state": "Florida", "postcode": "32063", "lat": 30.279933543911625, "long": -82.11757441988617}, {"house_number": "332", "road": "South 2nd Street", "city": "Macclenny", "state": "Florida", "postcode": "32063", "lat": 30.279436065242177, "long": -82.11671870131883}, {"house_number": "253", "road": "South 1st Street", "city": "Macclenny", "state": "Florida", "postcode": "32063", "lat": 30.2809210673026, "long": -82.11554220679098}, {"house_number": "431", "road": "East Michigan Avenue", "city": "Macclenny", "state": "Florida", "postcode": "32063", "lat": 30.28017615781355, "long": -82.11612686420779}, {"house_number": "321", "road": "South 1st Street", "city": "Macclenny", "state": "Florida", "postcode": "32063", "lat": 30.279676065311484, "long": -82.1152617033942}, {"house_number": "361", "road": "East Minnesota Avenue", "city": "Macclenny", "state": "Florida", "postcode": "32063", "lat": 30.27868404367231, "long": -82.11730241825582}, {"house_number": "449", "road": "East Minnesota Avenue", "city": "Macclenny", "state": "Florida", "postcode": "32063", "lat": 30.278934545598286, "long": -82.11585392283627}, {"house_number": "480", "road": "South 1st Street", "city": "Macclenny", "state": "Florida", "postcode": "32063", "lat": 30.2783969056428, "long": -82.11497664842005}, {"house_number": "50", "road": "East Boulevard North", "city": "Macclenny", "state": "Florida", "postcode": "32063", "lat": 30.28426198240895, "long": -82.11473008203491}, {"house_number": "553", "road": "East Macclenny Avenue", "city": "Macclenny", "state": "Florida", "postcode": "32063", "lat": 30.283536547572407, "long": -82.11534292776281}, {"house_number": "503", "road": "East Florida Avenue", "city": "Macclenny", "state": "Florida", "postcode": "32063", "lat": 30.282080854653948, "long": -82.11577248223999}, {"house_number": "781", "road": "East Macclenny Avenue", "city": "Macclenny", "state": "Florida", "postcode": "32063", "lat": 30.283945546309752, "long": -82.1129189238467}, {"house_number": "781", "road": "East Macclenny Avenue", "city": "Macclenny", "state": "Florida", "postcode": "32063", "lat": 30.283945546309752, "long": -82.1129189238467}, {"house_number": "567", "road": "East McIver Avenue", "city": "Macclenny", "state": "Florida", "postcode": "32063", "lat": 30.281676656053488, "long": -82.11494185248446}, {"house_number": "246", "road": "East Boulevard", "city": "Macclenny", "state": "Florida", "postcode": "32063", "lat": 30.281174067508115, "long": -82.11405220746038}, {"house_number": "333", "road": "East Boulevard", "city": "Macclenny", "state": "Florida", "postcode": "32063", "lat": 30.279919567390674, "long": -82.11376220874972}, {"house_number": "576", "road": "East Minnesota Avenue", "city": "Macclenny", "state": "Florida", "postcode": "32063", "lat": 30.279177548074117, "long": -82.11437142730053}, {"house_number": "480", "road": "East Boulevard", "city": "Macclenny", "state": "Florida", "postcode": "32063", "lat": 30.278642307796705, "long": -82.11348291969698}, {"house_number": "433", "road": "South 3rd Street", "city": "Macclenny", "state": "Florida", "postcode": "32063", "lat": 30.277897291056835, "long": -82.11786172479599}, {"house_number": "270", "road": "South Boulevard East", "city": "Macclenny", "state": "Florida", "postcode": "32063", "lat": 30.277115046177286, "long": -82.11842842449448}, {"house_number": "448", "road": "South Boulevard East", "city": "Macclenny", "state": "Florida", "postcode": "32063", "lat": 30.27756098347277, "long": -82.11578641477948}, {"house_number": "569", "road": "Laverne Street", "city": "Macclenny", "state": "Florida", "postcode": "32063", "lat": 30.27626662744612, "long": -82.11498043830655}, {"house_number": "552", "road": "South Boulevard East", "city": "Macclenny", "state": "Florida", "postcode": "32063", "lat": 30.27778604321368, "long": -82.11453941961635}, {"house_number": "595", "road": "Crews Street", "city": "Macclenny", "state": "Florida", "postcode": "32063", "lat": 30.276469118463652, "long": -82.11392145318611}, {"house_number": "504", "road": "South Boulevard East", "city": "Macclenny", "state": "Florida", "postcode": "32063", "lat": 30.27768803808021, "long": -82.11506290760774}, {"house_number": "5975", "road": "Copper Drive", "city": "Macclenny", "state": "Florida", "postcode": "32063", "lat": 30.30249153085248, "long": -82.14112306580942}, {"house_number": "5975", "road": "Copper Drive", "city": "Macclenny", "state": "Florida", "postcode": "32063", "lat": 30.30249153085248, "long": -82.14112306580942}, {"house_number": "5975", "road": "Copper Drive", "city": "Macclenny", "state": "Florida", "postcode": "32063", "lat": 30.30249153085248, "long": -82.14112306580942}, {"house_number": "5345", "road": "Woodlawn Road", "city": "Macclenny", "state": "Florida", "postcode": "32063", "lat": 30.257882421742647, "long": -82.12988949835528}, {"house_number": "10050", "road": "County Road 127", "city": "Sanderson", "state": "Florida", "postcode": "32087", "lat": 30.273797870078017, "long": -82.26862865807668}, {"house_number": "6468", "road": "South County Road 125", "city": "Macclenny", "state": "Florida", "postcode": "32063", "lat": 30.2238009999562, "long": -82.16629300418657}, {"house_number": "9045", "road": "Ben Rowe Circle", "city": "Macclenny", "state": "Florida", "postcode": "32063", "lat": 30.251327014852603, "long": -82.14108511488196}, {"house_number": "13149", "road": "Five Churches Road", "city": "Sanderson", "state": "Florida", "postcode": "32087", "lat": 30.271230708751766, "long": -82.26065500936423}, {"house_number": "13149", "road": "Five Churches Road", "city": "Sanderson", "state": "Florida", "postcode": "32087", "lat": 30.271230708751766, "long": -82.26065500936423}, {"house_number": "14144", "road": "US Highway 90", "city": "Sanderson", "state": "Florida", "postcode": "32087", "lat": 30.25004499999999, "long": -82.27181799999998}, {"house_number": "14144", "road": "US Highway 90", "city": "Sanderson", "state": "Florida", "postcode": "32087", "lat": 30.25004499999999, "long": -82.27181799999998}, {"house_number": "15717", "road": "L E Wilkerson Road", "city": "Macclenny", "state": "Florida", "postcode": "32063", "lat": 30.357272699488718, "long": -82.08272812892442}, {"house_number": "15717", "road": "L E Wilkerson Road", "city": "Macclenny", "state": "Florida", "postcode": "32063", "lat": 30.357272699488718, "long": -82.08272812892442}, {"house_number": "15717", "road": "L E Wilkerson Road", "city": "Macclenny", "state": "Florida", "postcode": "32063", "lat": 30.357272699488718, "long": -82.08272812892442}, {"house_number": "15717", "road": "L E Wilkerson Road", "city": "Macclenny", "state": "Florida", "postcode": "32063", "lat": 30.357272699488718, "long": -82.08272812892442}, {"house_number": "15717", "road": "L E Wilkerson Road", "city": "Macclenny", "state": "Florida", "postcode": "32063", "lat": 30.357272699488718, "long": -82.08272812892442}, {"house_number": "15717", "road": "L E Wilkerson Road", "city": "Macclenny", "state": "Florida", "postcode": "32063", "lat": 30.357272699488718, "long": -82.08272812892442}, {"house_number": "15717", "road": "L E Wilkerson Road", "city": "Macclenny", "state": "Florida", "postcode": "32063", "lat": 30.357272699488718, "long": -82.08272812892442}, {"house_number": "15717", "road": "L E Wilkerson Road", "city": "Macclenny", "state": "Florida", "postcode": "32063", "lat": 30.357272699488718, "long": -82.08272812892442}, {"house_number": "15717", "road": "L E Wilkerson Road", "city": "Macclenny", "state": "Florida", "postcode": "32063", "lat": 30.357272699488718, "long": -82.08272812892442}, {"house_number": "15717", "road": "L E Wilkerson Road", "city": "Macclenny", "state": "Florida", "postcode": "32063", "lat": 30.357272699488718, "long": -82.08272812892442}, {"house_number": "5132", "road": "Lees Lane", "city": "Macclenny", "state": "Florida", "postcode": "32063", "lat": 30.306288087648486, "long": -82.12635077605884}, {"house_number": "4684", "road": "Shaves Bluff Road", "city": "Macclenny", "state": "Florida", "postcode": "32063", "lat": 30.362825143599984, "long": -82.11880743667504}, {"house_number": "4684", "road": "Shaves Bluff Road", "city": "Macclenny", "state": "Florida", "postcode": "32063", "lat": 30.362825143599984, "long": -82.11880743667504}, {"house_number": "4684", "road": "Shaves Bluff Road", "city": "Macclenny", "state": "Florida", "postcode": "32063", "lat": 30.362825143599984, "long": -82.11880743667504}, {"house_number": "34", "road": "North College Street", "city": "Macclenny", "state": "Florida", "postcode": "32063", "lat": 30.282867471187192, "long": -82.12151752774055}, {"house_number": "34", "road": "North College Street", "city": "Macclenny", "state": "Florida", "postcode": "32063", "lat": 30.282867471187192, "long": -82.12151752774055}, {"house_number": "20", "road": "East Macclenny Avenue", "city": "Macclenny", "state": "Florida", "postcode": "32063", "lat": 30.282452047141742, "long": -82.12185442704437}, {"house_number": "134", "road": "South 6th Street", "city": "Macclenny", "state": "Florida", "postcode": "32063", "lat": 30.28078256101623, "long": -82.1234006920386}, {"house_number": "146", "road": "West Mciver Avenue", "city": "Macclenny", "state": "Florida", "postcode": "32063", "lat": 30.280127999999998, "long": -82.1240195}, {"house_number": "227", "road": "South 6th Street", "city": "Macclenny", "state": "Florida", "postcode": "32063", "lat": 30.279629064233745, "long": -82.12316269840295}, {"house_number": "227", "road": "South 6th Street", "city": "Macclenny", "state": "Florida", "postcode": "32063", "lat": 30.279629064233745, "long": -82.12316269840295}, {"house_number": "360", "road": "South 7th Street", "city": "Macclenny", "state": "Florida", "postcode": "32063", "lat": 30.278141184712393, "long": -82.12431495767316}, {"house_number": "360", "road": "South 7th Street", "city": "Macclenny", "state": "Florida", "postcode": "32063", "lat": 30.278141184712393, "long": -82.12431495767316}, {"house_number": "148", "road": "West Michigan Avenue", "city": "Macclenny", "state": "Florida", "postcode": "32063", "lat": 30.27888649999999, "long": -82.12374049999998}, {"house_number": "331", "road": "South 6th Street", "city": "Macclenny", "state": "Florida", "postcode": "32063", "lat": 30.278381640939987, "long": -82.12290181562584}, {"house_number": "331", "road": "South 6th Street", "city": "Macclenny", "state": "Florida", "postcode": "32063", "lat": 30.278381640939987, "long": -82.12290181562584}, {"house_number": "275", "road": "South 5th Street", "city": "Macclenny", "state": "Florida", "postcode": "32063", "lat": 30.279881066578056, "long": -82.12173520669003}, {"house_number": "275", "road": "South 5th Street", "city": "Macclenny", "state": "Florida", "postcode": "32063", "lat": 30.279881066578056, "long": -82.12173520669003}, {"house_number": "275", "road": "South 5th Street", "city": "Macclenny", "state": "Florida", "postcode": "32063", "lat": 30.279881066578056, "long": -82.12173520669003}, {"house_number": "275", "road": "South 5th Street", "city": "Macclenny", "state": "Florida", "postcode": "32063", "lat": 30.279881066578056, "long": -82.12173520669003}, {"house_number": "275", "road": "South 5th Street", "city": "Macclenny", "state": "Florida", "postcode": "32063", "lat": 30.279881066578056, "long": -82.12173520669003}, {"house_number": "275", "road": "South 5th Street", "city": "Macclenny", "state": "Florida", "postcode": "32063", "lat": 30.279881066578056, "long": -82.12173520669003}, {"house_number": "275", "road": "South 5th Street", "city": "Macclenny", "state": "Florida", "postcode": "32063", "lat": 30.279881066578056, "long": -82.12173520669003}, {"house_number": "42", "road": "West Michigan Avenue", "city": "Macclenny", "state": "Florida", "postcode": "32063", "lat": 30.27914054291428, "long": -82.12231391812114}, {"house_number": "329", "road": "South 5th Street", "city": "Macclenny", "state": "Florida", "postcode": "32063", "lat": 30.278638407349007, "long": -82.12145861180672}, {"house_number": "329", "road": "South 5th Street", "city": "Macclenny", "state": "Florida", "postcode": "32063", "lat": 30.278638407349007, "long": -82.12145861180672}, {"house_number": "74", "road": "North 4th Street", "city": "Macclenny", "state": "Florida", "postcode": "32063", "lat": 30.283783565341885, "long": -82.1206387005824}, {"house_number": "121", "road": "Morris Avenue", "city": "Macclenny", "state": "Florida", "postcode": "32063", "lat": 30.28330954266225, "long": -82.12105991942333}, {"house_number": "11", "road": "North 4th Street", "city": "Macclenny", "state": "Florida", "postcode": "32063", "lat": 30.283040071190452, "long": -82.12048911315074}, {"house_number": "139", "road": "East Macclenny Avenue", "city": "Macclenny", "state": "Florida", "postcode": "32063", "lat": 30.28259904853287, "long": -82.12093342824882}, {"house_number": "231", "road": "East Shuey Avenue", "city": "Macclenny", "state": "Florida", "postcode": "32063", "lat": 30.28428304636406, "long": -82.12001192559326}, {"house_number": "149", "road": "South College Street", "city": "Macclenny", "state": "Florida", "postcode": "32063", "lat": 30.280897567375465, "long": -82.12108570897517}, {"house_number": "235", "road": "South College Street", "city": "Macclenny", "state": "Florida", "postcode": "32063", "lat": 30.280035066339767, "long": -82.12089120359443}, {"house_number": "132", "road": "East Florida Avenue", "city": "Macclenny", "state": "Florida", "postcode": "32063", "lat": 30.281245999999992, "long": -82.12063749999997}, {"house_number": "253", "road": "South 4th Street", "city": "Macclenny", "state": "Florida", "postcode": "32063", "lat": 30.280197063129354, "long": -82.1198786953793}, {"house_number": "351", "road": "South College Street", "city": "Macclenny", "state": "Florida", "postcode": "32063", "lat": 30.278787505705893, "long": -82.12061897342473}, {"house_number": "252", "road": "East McIver Avenue", "city": "Macclenny", "state": "Florida", "postcode": "32063", "lat": 30.280935982452096, "long": -82.11928691463814}, {"house_number": "256", "road": "South 3rd Street", "city": "Macclenny", "state": "Florida", "postcode": "32063", "lat": 30.28043156511403, "long": -82.1184302019055}, {"house_number": "256", "road": "South 3rd Street", "city": "Macclenny", "state": "Florida", "postcode": "32063", "lat": 30.28043156511403, "long": -82.1184302019055}, {"house_number": "130", "road": "East Michigan Avenue", "city": "Macclenny", "state": "Florida", "postcode": "32063", "lat": 30.27950055050423, "long": -82.1202534316184}, {"house_number": "330", "road": "South 4th Street", "city": "Macclenny", "state": "Florida", "postcode": "32063", "lat": 30.278942242810587, "long": -82.11960492856282}, {"house_number": "219", "road": "East Michigan Avenue", "city": "Macclenny", "state": "Florida", "postcode": "32063", "lat": 30.27969154786093, "long": -82.11902242787406}, {"house_number": "347", "road": "South 3rd Street", "city": "Macclenny", "state": "Florida", "postcode": "32063", "lat": 30.27918256501085, "long": -82.11815770118545}, {"house_number": "347", "road": "South 3rd Street", "city": "Macclenny", "state": "Florida", "postcode": "32063", "lat": 30.27918256501085, "long": -82.11815770118545}, {"house_number": "104", "road": "South College Street", "city": "Macclenny", "state": "Florida", "postcode": "32063", "lat": 30.281615068163294, "long": -82.12125120440416}, {"house_number": "445", "road": "South 7th Street", "city": "Macclenny", "state": "Florida", "postcode": "32063", "lat": 30.276840563893895, "long": -82.12403469719266}, {"house_number": "509", "road": "South 7th Street", "city": "Macclenny", "state": "Florida", "postcode": "32063", "lat": 30.27512247875314, "long": -82.12364031653149}, {"house_number": "153", "road": "South Boulevard West", "city": "Macclenny", "state": "Florida", "postcode": "32063", "lat": 30.276126046229354, "long": -82.12408341989659}, {"house_number": "152", "road": "West Minnesota Avenue", "city": "Macclenny", "state": "Florida", "postcode": "32063", "lat": 30.27763604650946, "long": -82.12347542643808}, {"house_number": "447", "road": "South 6th Street", "city": "Macclenny", "state": "Florida", "postcode": "32063", "lat": 30.277083582330427, "long": -82.12262911769959}, {"house_number": "447", "road": "South 6th Street", "city": "Macclenny", "state": "Florida", "postcode": "32063", "lat": 30.277083582330427, "long": -82.12262911769959}, {"house_number": "149", "road": "South Boulevard West", "city": "Macclenny", "state": "Florida", "postcode": "32063", "lat": 30.276287042332097, "long": -82.12318891626947}, {"house_number": "657", "road": "South 6th Street", "city": "Macclenny", "state": "Florida", "postcode": "32063", "lat": 30.273442458268793, "long": -82.1223499295891}, {"house_number": "54", "road": "West Minnesota Avenue", "city": "Macclenny", "state": "Florida", "postcode": "32063", "lat": 30.277879043731744, "long": -82.12204441938917}, {"house_number": "432", "road": "South 5th Street", "city": "Macclenny", "state": "Florida", "postcode": "32063", "lat": 30.277351208664022, "long": -82.12119703963764}, {"house_number": "432", "road": "South 5th Street", "city": "Macclenny", "state": "Florida", "postcode": "32063", "lat": 30.277351208664022, "long": -82.12119703963764}, {"house_number": "432", "road": "South 5th Street", "city": "Macclenny", "state": "Florida", "postcode": "32063", "lat": 30.277351208664022, "long": -82.12119703963764}, {"house_number": "432", "road": "South 5th Street", "city": "Macclenny", "state": "Florida", "postcode": "32063", "lat": 30.277351208664022, "long": -82.12119703963764}, {"house_number": "449", "road": "South College Street", "city": "Macclenny", "state": "Florida", "postcode": "32063", "lat": 30.277493567453575, "long": -82.12033120732532}, {"house_number": "589", "road": "South 5th Street", "city": "Macclenny", "state": "Florida", "postcode": "32063", "lat": 30.275505847716822, "long": -82.1210620795094}, {"house_number": "51", "road": "South Boulevard East", "city": "Macclenny", "state": "Florida", "postcode": "32063", "lat": 30.27676354757439, "long": -82.1206449280489}, {"house_number": "105", "road": "North 2nd Street", "city": "Macclenny", "state": "Florida", "postcode": "32063", "lat": 30.28528098016605, "long": -82.11797558681678}, {"house_number": "248", "road": "East Jonathan Street", "city": "Macclenny", "state": "Florida", "postcode": "32063", "lat": 30.274651358761076, "long": -82.11781689835033}, {"house_number": "310", "road": "East Florida Avenue", "city": "Macclenny", "state": "Florida", "postcode": "32063", "lat": 30.281708045346658, "long": -82.11795642279388}, {"house_number": "4887", "road": "Blue Hole Road", "city": "Macclenny", "state": "Florida", "postcode": "32063", "lat": 30.360802335596226, "long": -82.12186851607683}, {"house_number": "14725", "road": "North State Road 121", "city": "Macclenny", "state": "Florida", "postcode": "32063", "lat": 30.341698481111795, "long": -82.12550408485787}, {"house_number": "6182", "road": "County Road 23C", "city": "Macclenny", "state": "Florida", "postcode": "32063", "lat": 30.334031511134423, "long": -82.13925321722839}, {"house_number": "5955", "road": "Harry Rewis Road", "city": "Macclenny", "state": "Florida", "postcode": "32063", "lat": 30.325594955419255, "long": -82.13947593896593}, {"house_number": "5955", "road": "Harry Rewis Road", "city": "Macclenny", "state": "Florida", "postcode": "32063", "lat": 30.325594955419255, "long": -82.13947593896593}, {"house_number": "5838", "road": "Tim Crews Road", "city": "Macclenny", "state": "Florida", "postcode": "32063", "lat": 30.31543077729976, "long": -82.13852353751729}, {"house_number": "12846", "road": "Turner Cemetery Road", "city": "Sanderson", "state": "Florida", "postcode": "32087", "lat": 30.31293950897258, "long": -82.2507351744364}, {"house_number": "12577", "road": "North State Road 121", "city": "Macclenny", "state": "Florida", "postcode": "32063", "lat": 30.311046999999995, "long": -82.12516399999998}, {"house_number": "12720", "road": "North County Road 23A", "city": "Macclenny", "state": "Florida", "postcode": "32063", "lat": 30.30943049999999, "long": -82.13730799999999}]