[{"house_number": "10684", "road": "East Bushnell Road", "city": "Floral City", "state": "Florida", "postcode": "34436", "lat": 28.7351069686745, "long": -82.25751791799743}, {"house_number": "10569", "road": "East Bushnell Road", "city": "Floral City", "state": "Florida", "postcode": "34436", "lat": 28.736951384690343, "long": -82.26193737546042}, {"house_number": "6617", "road": "West Green Acres Street", "city": "Homosassa Springs", "state": "Florida", "postcode": "34446", "lat": 28.791114999999994, "long": -82.5434855}, {"house_number": "6725", "road": "West Oaklawn Street", "city": "Homosassa Springs", "state": "Florida", "postcode": "34446", "lat": 28.78743319915367, "long": -82.54562848861481}, {"house_number": "6663", "road": "West Oaklawn Street", "city": "Homosassa Springs", "state": "Florida", "postcode": "34446", "lat": 28.787436765970156, "long": -82.54461999732082}, {"house_number": "6874", "road": "South Cedar Terrace", "city": "Homosassa Springs", "state": "Florida", "postcode": "34448", "lat": 28.80428399999999, "long": -82.55671149999998}, {"house_number": "3913", "road": "South Cedar Terrace", "city": "Homosassa Springs", "state": "Florida", "postcode": "34448", "lat": 28.805184999999994, "long": -82.5567165}, {"house_number": "7365", "road": "West Grover Cleveland Boulevard", "city": "Homosassa Springs", "state": "Florida", "postcode": "34446", "lat": 28.803835499999995, "long": -82.5561495}, {"house_number": "4298", "road": "South Colony Terrace", "city": "Homosassa Springs", "state": "Florida", "postcode": "34446", "lat": 28.799750717497766, "long": -82.54387843982464}, {"house_number": "7167", "road": "West Grover Cleveland Boulevard", "city": "Homosassa Springs", "state": "Florida", "postcode": "34446", "lat": 28.803856999999986, "long": -82.55273899999999}, {"house_number": "6669", "road": "West Grover Cleveland Boulevard", "city": "Homosassa Springs", "state": "Florida", "postcode": "34446", "lat": 28.803919, "long": -82.54319149999998}, {"house_number": "6669", "road": "West Grover Cleveland Boulevard", "city": "Homosassa Springs", "state": "Florida", "postcode": "34446", "lat": 28.803919, "long": -82.54319149999998}, {"house_number": "6514", "road": "West Grover Cleveland Boulevard", "city": "Homosassa Springs", "state": "Florida", "postcode": "34446", "lat": 28.803929499999995, "long": -82.54189249999999}, {"house_number": "4077", "road": "South Colony Terrace", "city": "Homosassa Springs", "state": "Florida", "postcode": "34446", "lat": 28.80282243576296, "long": -82.54393151406394}, {"house_number": "6651", "road": "West Holiday Street", "city": "Homosassa Springs", "state": "Florida", "postcode": "34446", "lat": 28.798399999999997, "long": -82.5442545}, {"house_number": "4178", "road": "South Colony Terrace", "city": "Homosassa Springs", "state": "Florida", "postcode": "34446", "lat": 28.801257000000003, "long": -82.5439055}, {"house_number": "3028", "road": "South Westmoreland Drive", "city": "Homosassa Springs", "state": "Florida", "postcode": "34448", "lat": 28.818697999999998, "long": -82.55035849999999}, {"house_number": "2954", "road": "South Westmoreland Drive", "city": "Homosassa Springs", "state": "Florida", "postcode": "34448", "lat": 28.819259999999996, "long": -82.55035949999998}, {"house_number": "3162", "road": "South Lantana Way", "city": "Homosassa Springs", "state": "Florida", "postcode": "34448", "lat": 28.816219, "long": -82.56128299999997}, {"house_number": "3113", "road": "South Lantana Way", "city": "Homosassa Springs", "state": "Florida", "postcode": "34448", "lat": 28.816591499999994, "long": -82.56169999999997}, {"house_number": "7647", "road": "West Homosassa Trail", "city": "Homosassa Springs", "state": "Florida", "postcode": "34448", "lat": 28.816940999999993, "long": -82.56150649999998}, {"house_number": "7625", "road": "West Homosassa Trail", "city": "Homosassa Springs", "state": "Florida", "postcode": "34448", "lat": 28.817507894649573, "long": -82.5608898235501}, {"house_number": "249", "road": "Montgomery Avenue", "city": "Inverness", "state": "Florida", "postcode": "34450", "lat": 28.836564499999994, "long": -82.34474499999999}, {"house_number": "8047", "road": "West Highland Street", "city": "Homosassa Springs", "state": "Florida", "postcode": "34448", "lat": 28.849577058727903, "long": -82.56686588127626}, {"house_number": "7051", "road": "West Pasco Place", "city": "Homosassa Springs", "state": "Florida", "postcode": "34448", "lat": 28.824934100929003, "long": -82.54988332783181}, {"house_number": "1099", "road": "Main Street", "city": "Inverness", "state": "Florida", "postcode": "34450", "lat": 28.835978014342512, "long": -82.34374600939803}, {"house_number": "1201", "road": "Main Street", "city": "Inverness", "state": "Florida", "postcode": "34452", "lat": 28.83597799999999, "long": -82.34589249999999}, {"house_number": "1467", "road": "Main Street", "city": "Inverness", "state": "Florida", "postcode": "34450", "lat": 28.835975499999996, "long": -82.34752499999999}, {"house_number": "1201", "road": "South Montgomery Avenue", "city": "Inverness", "state": "Florida", "postcode": "34452", "lat": 28.834929999999996, "long": -82.34481949999999}, {"house_number": "1201", "road": "West Highland Boulevard", "city": "Inverness", "state": "Florida", "postcode": "34452", "lat": 28.832336499999993, "long": -82.344785}, {"house_number": "1201", "road": "South Montgomery Avenue", "city": "Inverness", "state": "Florida", "postcode": "34452", "lat": 28.834286999999993, "long": -82.34482349999999}, {"house_number": "118", "road": "South Park Avenue", "city": "Inverness", "state": "Florida", "postcode": "34452", "lat": 28.833927999999997, "long": -82.32892349999999}, {"house_number": "214", "road": "South Montgomery Avenue", "city": "Inverness", "state": "Florida", "postcode": "34452", "lat": 28.83335049999999, "long": -82.3448225}, {"house_number": "6651", "road": "West Ost-West Street", "city": "Homosassa Springs", "state": "Florida", "postcode": "34446", "lat": 28.772977528477842, "long": -82.54371241918444}, {"house_number": "5771", "road": "West Holiday Street", "city": "Homosassa Springs", "state": "Florida", "postcode": "34446", "lat": 28.798435631130065, "long": -82.52985063752665}, {"house_number": "8798", "road": "West Yulee Drive", "city": "Homosassa Springs", "state": "Florida", "postcode": "34448", "lat": 28.794706416975927, "long": -82.5788190805238}, {"house_number": "7348", "road": "South Baker Avenue", "city": "Floral City", "state": "Florida", "postcode": "34436", "lat": 28.75581698552559, "long": -82.28832994335646}, {"house_number": "6637", "road": "West Rosedale Drive", "city": "Homosassa Springs", "state": "Florida", "postcode": "34448", "lat": 28.81258158771233, "long": -82.54381137305441}, {"house_number": "5247", "road": "North Crystal Meadow Path", "city": "Homosassa Springs", "state": "Florida", "postcode": "34461", "lat": 28.865881750805656, "long": -82.52118179539076}, {"house_number": "1100", "road": "Bloomfield Drive", "city": "Inverness", "state": "Florida", "postcode": "34453", "lat": 28.854807992732734, "long": -82.3311117093935}, {"house_number": "150", "road": "US 41;FL 44", "city": "Inverness", "state": "Florida", "postcode": "34450", "lat": 28.834991249155234, "long": -82.32953338013623}, {"house_number": "350", "road": "East Hill Street", "city": "Inverness", "state": "Florida", "postcode": "34452", "lat": 28.830326668946412, "long": -82.32581799332597}, {"house_number": "1551", "road": "Florida Avenue", "city": "Inverness Highlands North", "state": "Florida", "postcode": "34442", "lat": 28.885357655891276, "long": -82.36603024662573}, {"house_number": "2888", "road": "South Stonebrook Drive", "city": "Homosassa Springs", "state": "Florida", "postcode": "34448", "lat": 28.819526067505024, "long": -82.57431885240497}, {"house_number": "6048", "road": "West Holiday Street", "city": "Homosassa Springs", "state": "Florida", "postcode": "34446", "lat": 28.798426657611348, "long": -82.53294392166262}, {"house_number": "6048", "road": "West Holiday Street", "city": "Homosassa Springs", "state": "Florida", "postcode": "34446", "lat": 28.798426657611348, "long": -82.53294392166262}, {"house_number": "6048", "road": "West Holiday Street", "city": "Homosassa Springs", "state": "Florida", "postcode": "34446", "lat": 28.798426657611348, "long": -82.53294392166262}, {"house_number": "5900", "road": "South Kerley Way", "city": "Homosassa Springs", "state": "Florida", "postcode": "34446", "lat": 28.77642718859381, "long": -82.55196216394268}, {"house_number": "6537", "road": "West Grant Street", "city": "Homosassa Springs", "state": "Florida", "postcode": "34448", "lat": 28.817377456763293, "long": -82.5429005049647}, {"house_number": "3694", "road": "South Eastpark Way", "city": "Homosassa Springs", "state": "Florida", "postcode": "34448", "lat": 28.80797503537121, "long": -82.56993847371304}, {"house_number": "8163", "road": "West Homosassa Trail", "city": "Homosassa Springs", "state": "Florida", "postcode": "34448", "lat": 28.80951929037459, "long": -82.56984815602569}, {"house_number": "9449", "road": "South Richtop Terrace", "city": "Sugarmill Woods", "state": "Florida", "postcode": "34446", "lat": 28.726794989197995, "long": -82.51658477675203}, {"house_number": "9449", "road": "South Richtop Terrace", "city": "Sugarmill Woods", "state": "Florida", "postcode": "34446", "lat": 28.726794989197995, "long": -82.51658477675203}, {"house_number": "6480", "road": "West Homosassa Trail", "city": "Homosassa Springs", "state": "Florida", "postcode": "34448", "lat": 28.81849270205655, "long": -82.54218109569548}, {"house_number": "1749", "road": "Druid Road", "city": "Inverness", "state": "Florida", "postcode": "34452", "lat": 28.82874320023884, "long": -82.35228949999605}, {"house_number": "6822", "road": "West Country Club Drive", "city": "Homosassa Springs", "state": "Florida", "postcode": "34448", "lat": 28.810298549598826, "long": -82.54705658557829}, {"house_number": "3387", "road": "South Lee Way", "city": "Homosassa Springs", "state": "Florida", "postcode": "34448", "lat": 28.812562689754653, "long": -82.55160836448934}, {"house_number": "8249", "road": "West Homosassa Trail", "city": "Homosassa Springs", "state": "Florida", "postcode": "34448", "lat": 28.808109397097326, "long": -82.57143496625517}, {"house_number": "9148", "road": "South Richtop Terrace", "city": "Sugarmill Woods", "state": "Florida", "postcode": "34446", "lat": 28.729106958993427, "long": -82.51661175869744}, {"house_number": "3865", "road": "South Minnesota Terrace", "city": "Homosassa Springs", "state": "Florida", "postcode": "34448", "lat": 28.80525078343827, "long": -82.56978914437585}, {"house_number": "5551", "road": "South Woodside Terrace", "city": "Homosassa Springs", "state": "Florida", "postcode": "34446", "lat": 28.780703628191876, "long": -82.55101393038818}, {"house_number": "9449", "road": "South Richtop Terrace", "city": "Sugarmill Woods", "state": "Florida", "postcode": "34446", "lat": 28.724482364389022, "long": -82.51656541890233}, {"house_number": "348", "road": "Orvista Circle", "city": "Inverness", "state": "Florida", "postcode": "34452", "lat": 28.829695333100624, "long": -82.35244281661338}, {"house_number": "1619", "road": "Suncoast Boulevard", "city": "Crystal River", "state": "Florida", "postcode": "34448", "lat": 28.838838999530456, "long": -82.5795630564814}, {"house_number": "5737", "road": "South Canducane Drive", "city": "Homosassa Springs", "state": "Florida", "postcode": "34446", "lat": 28.77852472297826, "long": -82.55041800028725}, {"house_number": "5649", "road": "South Canducane Drive", "city": "Homosassa Springs", "state": "Florida", "postcode": "34446", "lat": 28.779125495947337, "long": -82.5507089458276}, {"house_number": "3250", "road": "Florida Avenue", "city": "Inverness", "state": "Florida", "postcode": "34450", "lat": 28.8142996039368, "long": -82.31474236802768}, {"house_number": "3100", "road": "Florida Avenue", "city": "Inverness", "state": "Florida", "postcode": "34450", "lat": 28.81658298083725, "long": -82.31544527239973}, {"house_number": "3252", "road": "Florida Avenue", "city": "Inverness", "state": "Florida", "postcode": "34450", "lat": 28.814314, "long": -82.31460849999999}, {"house_number": "3134", "road": "Florida Avenue", "city": "Inverness", "state": "Florida", "postcode": "34450", "lat": 28.816003499909584, "long": -82.31508088807244}]