[{"house_number": "13848", "road": "Maxwell Harrell Scenic Byway", "city": "Bristol", "state": "Florida", "postcode": "32321", "lat": 30.412321343238993, "long": -84.98172943437896}, {"house_number": "10449", "road": "Azalea Street", "city": "Bristol", "state": "Florida", "postcode": "32321", "lat": 30.411067117624178, "long": -84.98122651817386}, {"house_number": "10499", "road": "Schmarje Lane", "city": "Bristol", "state": "Florida", "postcode": "32321", "lat": 30.41493428943804, "long": -84.9808247278153}, {"house_number": "10499", "road": "Schmarje Lane", "city": "Bristol", "state": "Florida", "postcode": "32321", "lat": 30.41493428943804, "long": -84.9808247278153}, {"house_number": "14555", "road": "Maxwell Harrell Scenic Byway", "city": "Bristol", "state": "Florida", "postcode": "32321", "lat": 30.402786038163914, "long": -84.9775230166726}, {"house_number": "10540", "road": "Spring Street", "city": "Bristol", "state": "Florida", "postcode": "32321", "lat": 30.43385659527405, "long": -84.97885599697982}, {"house_number": "10749", "road": "Main Street", "city": "Bristol", "state": "Florida", "postcode": "32321", "lat": 30.432807094258642, "long": -84.97514499399415}, {"house_number": "12375", "road": "Freeman Road", "city": "Bristol", "state": "Florida", "postcode": "32321", "lat": 30.437891283292352, "long": -84.96635169583618}, {"house_number": "10268", "road": "Ramsey Road", "city": "Bristol", "state": "Florida", "postcode": "32321", "lat": 30.43477592777757, "long": -84.98356384512847}, {"house_number": "10268", "road": "Ramsey Road", "city": "Bristol", "state": "Florida", "postcode": "32321", "lat": 30.43477592777757, "long": -84.98356384512847}, {"house_number": "10517", "road": "Spring Street", "city": "Bristol", "state": "Florida", "postcode": "32321", "lat": 30.43385119513075, "long": -84.97926499163104}, {"house_number": "10580", "road": "Main Street", "city": "Bristol", "state": "Florida", "postcode": "32321", "lat": 30.43278349999999, "long": -84.97815549999999}, {"house_number": "10749", "road": "Robyn Street Northwest", "city": "Bristol", "state": "Florida", "postcode": "32321", "lat": 30.427798694956785, "long": -84.97532998975436}, {"house_number": "10749", "road": "Robyn Street Northwest", "city": "Bristol", "state": "Florida", "postcode": "32321", "lat": 30.427798694956785, "long": -84.97532998975436}, {"house_number": "301", "road": "North Street", "city": "Bristol", "state": "Florida", "postcode": "32321", "lat": 30.43441444118906, "long": -84.97948502039583}, {"house_number": "10850", "road": "Faircloth Road", "city": "Bristol", "state": "Florida", "postcode": "32321", "lat": 30.436203100089333, "long": -84.97405700573638}, {"house_number": "10850", "road": "Faircloth Road", "city": "Bristol", "state": "Florida", "postcode": "32321", "lat": 30.436203100089333, "long": -84.97405700573638}, {"house_number": "12249", "road": "North Pearidge Road", "city": "Bristol", "state": "Florida", "postcode": "32321", "lat": 30.43528513218569, "long": -84.97345782332792}, {"house_number": "12249", "road": "North Pearidge Road", "city": "Bristol", "state": "Florida", "postcode": "32321", "lat": 30.43528513218569, "long": -84.97345782332792}, {"house_number": "10508", "road": "Main Street", "city": "Bristol", "state": "Florida", "postcode": "32321", "lat": 30.43277519740576, "long": -84.97931799410598}, {"house_number": "10916", "road": "FL 20", "city": "Bristol", "state": "Florida", "postcode": "32321", "lat": 30.431761692012483, "long": -84.978491982604}, {"house_number": "11049", "road": "FL 20", "city": "Bristol", "state": "Florida", "postcode": "32321", "lat": 30.431783603643677, "long": -84.97699800444788}, {"house_number": "10870", "road": "Main Street", "city": "Bristol", "state": "Florida", "postcode": "32321", "lat": 30.43284149999999, "long": -84.97294599999998}, {"house_number": "10448", "road": "Spring Street", "city": "Bristol", "state": "Florida", "postcode": "32321", "lat": 30.433851600008836, "long": -84.98024850202012}, {"house_number": "10294", "road": "Main Street", "city": "Bristol", "state": "Florida", "postcode": "32321", "lat": 30.432765087413124, "long": -84.98231398734231}, {"house_number": "10248", "road": "Main Street", "city": "Bristol", "state": "Florida", "postcode": "32321", "lat": 30.432777380546174, "long": -84.98321680658314}, {"house_number": "14049", "road": "Charlie McDowell Road", "city": "Bristol", "state": "Florida", "postcode": "32321", "lat": 30.410087596265925, "long": -84.97936810637894}, {"house_number": "14049", "road": "Charlie McDowell Road", "city": "Bristol", "state": "Florida", "postcode": "32321", "lat": 30.410087596265925, "long": -84.97936810637894}, {"house_number": "14049", "road": "Charlie McDowell Road", "city": "Bristol", "state": "Florida", "postcode": "32321", "lat": 30.410087596265925, "long": -84.97936810637894}, {"house_number": "14049", "road": "Charlie McDowell Road", "city": "Bristol", "state": "Florida", "postcode": "32321", "lat": 30.410087596265925, "long": -84.97936810637894}, {"house_number": "14049", "road": "Charlie McDowell Road", "city": "Bristol", "state": "Florida", "postcode": "32321", "lat": 30.410087596265925, "long": -84.97936810637894}, {"house_number": "14049", "road": "Charlie McDowell Road", "city": "Bristol", "state": "Florida", "postcode": "32321", "lat": 30.410087596265925, "long": -84.97936810637894}, {"house_number": "14049", "road": "1st Avenue", "city": "Bristol", "state": "Florida", "postcode": "32321", "lat": 30.40925500514349, "long": -84.98305360580416}, {"house_number": "14249", "road": "Charlie McDowell Road", "city": "Bristol", "state": "Florida", "postcode": "32321", "lat": 30.407333001444126, "long": -84.97768632767553}, {"house_number": "14251", "road": "1st Avenue", "city": "Bristol", "state": "Florida", "postcode": "32321", "lat": 30.407230149082725, "long": -84.9830242724701}, {"house_number": "14251", "road": "1st Avenue", "city": "Bristol", "state": "Florida", "postcode": "32321", "lat": 30.407230149082725, "long": -84.9830242724701}, {"house_number": "14251", "road": "1st Avenue", "city": "Bristol", "state": "Florida", "postcode": "32321", "lat": 30.407230149082725, "long": -84.9830242724701}, {"house_number": "14251", "road": "1st Avenue", "city": "Bristol", "state": "Florida", "postcode": "32321", "lat": 30.407230149082725, "long": -84.9830242724701}, {"house_number": "10648", "road": "Maxwell Harrell Scenic Byway", "city": "Bristol", "state": "Florida", "postcode": "32321", "lat": 30.405735081863885, "long": -84.97890782407909}, {"house_number": "14654", "road": "Maxwell Harrell Scenic Byway", "city": "Bristol", "state": "Florida", "postcode": "32321", "lat": 30.402024704973673, "long": -84.97718928220954}]