[{"house_number": "357", "road": "Southeast 4th Street", "city": "Lake Butler", "state": "Florida", "postcode": "32054", "lat": 30.0195514805806, "long": -82.33459049911086}, {"house_number": "50", "road": "Northeast 8th Avenue", "city": "Lake Butler", "state": "Florida", "postcode": "32054", "lat": 30.02398099557154, "long": -82.32793327604982}, {"house_number": "7450", "road": "Southeast County Road 18", "city": "Worthington Springs", "state": "Florida", "postcode": "32054", "lat": 29.949122729049083, "long": -82.49938247694807}, {"house_number": "7771", "road": "Southeast County Road 18", "city": "Worthington Springs", "state": "Florida", "postcode": "32054", "lat": 29.948586499999994, "long": -82.49353499999998}, {"house_number": "835", "road": "Southwest 2nd Street", "city": "Lake Butler", "state": "Florida", "postcode": "32054", "lat": 30.02122612879297, "long": -82.34798250757144}, {"house_number": "973", "road": "Southwest 6th Avenue", "city": "Lake Butler", "state": "Florida", "postcode": "32054", "lat": 30.01434279838113, "long": -82.34462510355694}, {"house_number": "973", "road": "Southwest 6th Avenue", "city": "Lake Butler", "state": "Florida", "postcode": "32054", "lat": 30.01434279838113, "long": -82.34462510355694}, {"house_number": "3848", "road": "CR 18A", "city": "Worthington Springs", "state": "Florida", "postcode": "32054", "lat": 29.93502753681933, "long": -82.41538153290509}, {"house_number": "15949", "road": "FL 100", "city": "Lake Butler", "state": "Florida", "postcode": "32054", "lat": 30.027118611360272, "long": -82.35559690567389}, {"house_number": "15949", "road": "FL 100", "city": "Lake Butler", "state": "Florida", "postcode": "32054", "lat": 30.027118611360272, "long": -82.35559690567389}, {"house_number": "12089", "road": "Southwest 120th Place", "city": "Worthington Springs", "state": "Florida", "postcode": "32054", "lat": 29.925704042096797, "long": -82.42200349600404}, {"house_number": "12042", "road": "Southwest 120th Place", "city": "Worthington Springs", "state": "Florida", "postcode": "32054", "lat": 29.92636307407439, "long": -82.42186095326215}, {"house_number": "12041", "road": "Southwest 120th Place", "city": "Worthington Springs", "state": "Florida", "postcode": "32054", "lat": 29.926176769599174, "long": -82.42173546056216}, {"house_number": "5249", "road": "CR 18A", "city": "Worthington Springs", "state": "Florida", "postcode": "32054", "lat": 29.95173249999999, "long": -82.38573399999999}, {"house_number": "5350", "road": "CR 18A", "city": "Worthington Springs", "state": "Florida", "postcode": "32054", "lat": 29.95371949999999, "long": -82.38575399999999}, {"house_number": "1101", "road": "FL 121", "city": "Lake Butler", "state": "Florida", "postcode": "32054", "lat": 30.024337974310445, "long": -82.32331547019666}, {"house_number": "1101", "road": "FL 121", "city": "Lake Butler", "state": "Florida", "postcode": "32054", "lat": 30.024337974310445, "long": -82.32331547019666}, {"house_number": "802", "road": "Southeast 5th Avenue", "city": "Lake Butler", "state": "Florida", "postcode": "32054", "lat": 30.017160999999998, "long": -82.33213649999999}, {"house_number": "427", "road": "Southeast 6th Street", "city": "Lake Butler", "state": "Florida", "postcode": "32054", "lat": 30.01826799999999, "long": -82.334015}, {"house_number": "490", "road": "Southeast 3rd Avenue", "city": "Lake Butler", "state": "Florida", "postcode": "32054", "lat": 30.019463499999986, "long": -82.335386}, {"house_number": "490", "road": "Southeast 3rd Avenue", "city": "Lake Butler", "state": "Florida", "postcode": "32054", "lat": 30.018796496064347, "long": -82.33537578101152}, {"house_number": "279", "road": "Southeast 4th Street", "city": "Lake Butler", "state": "Florida", "postcode": "32054", "lat": 30.019744499999995, "long": -82.335657}, {"house_number": "237", "road": "Southeast 4th Street", "city": "Lake Butler", "state": "Florida", "postcode": "32054", "lat": 30.01975963577384, "long": -82.3362419963741}, {"house_number": "279", "road": "South Lake Avenue", "city": "Lake Butler", "state": "Florida", "postcode": "32054", "lat": 30.020558001196164, "long": -82.33808791867745}, {"house_number": "220", "road": "South Lake Avenue", "city": "Lake Butler", "state": "Florida", "postcode": "32054", "lat": 30.021240999999996, "long": -82.33809799999999}, {"house_number": "165", "road": "Southwest 1st Avenue", "city": "Lake Butler", "state": "Florida", "postcode": "32054", "lat": 30.021737290837883, "long": -82.33896788440038}, {"house_number": "248", "road": "Southwest 1st Avenue", "city": "Lake Butler", "state": "Florida", "postcode": "32054", "lat": 30.020690998895695, "long": -82.33893053577648}, {"house_number": "184", "road": "Southwest 2nd Avenue", "city": "Lake Butler", "state": "Florida", "postcode": "32054", "lat": 30.021148999815306, "long": -82.33974250784904}, {"house_number": "134", "road": "Southwest 2nd Avenue", "city": "Lake Butler", "state": "Florida", "postcode": "32054", "lat": 30.021849005158394, "long": -82.33976081055445}, {"house_number": "42", "road": "Southwest 7th Avenue", "city": "Lake Butler", "state": "Florida", "postcode": "32054", "lat": 30.02354454305754, "long": -82.34585108747889}, {"house_number": "7649", "road": "Southeast County Road 18", "city": "Worthington Springs", "state": "Florida", "postcode": "32054", "lat": 29.94880588822039, "long": -82.49621846890712}, {"house_number": "7649", "road": "Southeast County Road 18", "city": "Worthington Springs", "state": "Florida", "postcode": "32054", "lat": 29.94880588822039, "long": -82.49621846890712}, {"house_number": "11350", "road": "Light Plant Road", "city": "Worthington Springs", "state": "Florida", "postcode": "32054", "lat": 29.938979550240308, "long": -82.42785550120963}, {"house_number": "4999", "road": "FL 121", "city": "Worthington Springs", "state": "Florida", "postcode": "32054", "lat": 29.94870842247704, "long": -82.42460492801033}, {"house_number": "4450", "road": "Southwest 134th Lane", "city": "Worthington Springs", "state": "Florida", "postcode": "32054", "lat": 29.938795678101446, "long": -82.3963139705986}, {"house_number": "12649", "road": "FL 18", "city": "Worthington Springs", "state": "Florida", "postcode": "32054", "lat": 29.92812077681492, "long": -82.411610531876}, {"house_number": "12425", "road": "Southwest 39th Drive", "city": "Worthington Springs", "state": "Florida", "postcode": "32054", "lat": 29.932843656131478, "long": -82.41494613785198}, {"house_number": "12469", "road": "Southwest 125th Loop", "city": "Worthington Springs", "state": "Florida", "postcode": "32054", "lat": 29.931638999999993, "long": -82.41520449999999}, {"house_number": "12467", "road": "Southwest 125th Loop", "city": "Worthington Springs", "state": "Florida", "postcode": "32697", "lat": 29.932299688976986, "long": -82.41495644181416}, {"house_number": "12486", "road": "Southwest 39th Drive", "city": "Worthington Springs", "state": "Florida", "postcode": "32054", "lat": 29.933538499999994, "long": -82.415166}, {"house_number": "12653", "road": "Southwest 39th Drive", "city": "Worthington Springs", "state": "Florida", "postcode": "32054", "lat": 29.93419194106752, "long": -82.41323355988976}, {"house_number": "118", "road": "Northeast 8th Avenue", "city": "Lake Butler", "state": "Florida", "postcode": "32054", "lat": 30.02486000105814, "long": -82.32795796132584}, {"house_number": "30", "road": "Northeast 10th Avenue", "city": "Lake Butler", "state": "Florida", "postcode": "32054", "lat": 30.02408741146661, "long": -82.32604455155187}, {"house_number": "90", "road": "Northeast 10th Avenue", "city": "Lake Butler", "state": "Florida", "postcode": "32054", "lat": 30.02494732509171, "long": -82.32569160818379}, {"house_number": "160", "road": "Northeast 10th Avenue", "city": "Lake Butler", "state": "Florida", "postcode": "32054", "lat": 30.02581239752799, "long": -82.32505757716567}, {"house_number": "747", "road": "Southeast 6th Street", "city": "Lake Butler", "state": "Florida", "postcode": "32054", "lat": 30.01908562297732, "long": -82.32866267316703}, {"house_number": "797", "road": "Southeast 6th Street", "city": "Lake Butler", "state": "Florida", "postcode": "32054", "lat": 30.01946499999999, "long": -82.3279675}, {"house_number": "2348", "road": "Southwest 6th Avenue", "city": "Lake Butler", "state": "Florida", "postcode": "32054", "lat": 30.012949499999998, "long": -82.34452599999997}, {"house_number": "2348", "road": "Southwest 6th Avenue", "city": "Lake Butler", "state": "Florida", "postcode": "32054", "lat": 30.012949499999998, "long": -82.34452599999997}, {"house_number": "9851", "road": "Southeast 8th Avenue", "city": "Lake Butler", "state": "Florida", "postcode": "32054", "lat": 30.02191100207167, "long": -82.3278948306974}, {"house_number": "9851", "road": "Southeast 8th Avenue", "city": "Lake Butler", "state": "Florida", "postcode": "32054", "lat": 30.02191100207167, "long": -82.3278948306974}, {"house_number": "9851", "road": "Southeast 8th Avenue", "city": "Lake Butler", "state": "Florida", "postcode": "32054", "lat": 30.02191100207167, "long": -82.3278948306974}, {"house_number": "9851", "road": "Southeast 8th Avenue", "city": "Lake Butler", "state": "Florida", "postcode": "32054", "lat": 30.02191100207167, "long": -82.3278948306974}]