[{"house_number": "36201", "road": "Emerald Coast Parkway", "city": "Destin", "state": "Florida", "postcode": "32541", "lat": 30.386434499999993, "long": -86.40258499999999}, {"house_number": "36201", "road": "Emerald Coast Parkway", "city": "Destin", "state": "Florida", "postcode": "32541", "lat": 30.386434499999993, "long": -86.40258499999999}, {"house_number": "2545", "road": "Victoria Place", "city": "Crestview", "state": "Florida", "postcode": "32536", "lat": 30.79407112069684, "long": -86.57952799795837}, {"house_number": "2545", "road": "Victoria Place", "city": "Crestview", "state": "Florida", "postcode": "32536", "lat": 30.79407112069684, "long": -86.57952799795837}, {"house_number": "62", "road": "Chestnut Avenue Southeast", "city": "Fort Walton Beach", "state": "Florida", "postcode": "32548", "lat": 30.409908305709628, "long": -86.60282425053407}, {"house_number": "449", "road": "Swift Fox Run", "city": "Crestview", "state": "Florida", "postcode": "32536", "lat": 30.720467318727447, "long": -86.6195242483875}, {"house_number": "395", "road": "Henderson Street", "city": "Crestview", "state": "Florida", "postcode": "32539", "lat": 30.751211992703073, "long": -86.55554185036483}, {"house_number": "335", "road": "Henderson Street", "city": "Crestview", "state": "Florida", "postcode": "32539", "lat": 30.752328003025404, "long": -86.55551848477327}, {"house_number": "405", "road": "Valley Road", "city": "Crestview", "state": "Florida", "postcode": "32539", "lat": 30.76390099999999, "long": -86.5490935}, {"house_number": "431", "road": "Valley Road", "city": "Crestview", "state": "Florida", "postcode": "32539", "lat": 30.764355, "long": -86.5490865}, {"house_number": "500", "road": "Candlewood Lane", "city": "Crestview", "state": "Florida", "postcode": "32539", "lat": 30.76390559773578, "long": -86.55128522566206}, {"house_number": "166", "road": "Lake Street", "city": "Crestview", "state": "Florida", "postcode": "32539", "lat": 30.764363499999995, "long": -86.55131}, {"house_number": "439", "road": "John King Road", "city": "Crestview", "state": "Florida", "postcode": "32539", "lat": 30.719701893197975, "long": -86.54096639574298}, {"house_number": "874", "road": "Old Hwy 10", "city": "Valparaiso", "state": "Florida", "postcode": "32542", "lat": 30.48816962516591, "long": -86.50011260327472}, {"house_number": "826", "road": "Old Hwy 10", "city": "Valparaiso", "state": "Florida", "postcode": "32542", "lat": 30.489544, "long": -86.49828199999999}, {"house_number": "851", "road": "Old Hwy 10", "city": "Valparaiso", "state": "Florida", "postcode": "32542", "lat": 30.48856413959226, "long": -86.49929596758722}, {"house_number": "277", "road": "Range Road", "city": "Valparaiso", "state": "Florida", "postcode": "32542", "lat": 30.477612980640572, "long": -86.49423342087971}, {"house_number": "33", "road": "Sandalwood Drive Northwest", "city": "Fort Walton Beach", "state": "Florida", "postcode": "32548", "lat": 30.413882500000003, "long": -86.6421405}, {"house_number": "451", "road": "Canterbury Court Northwest", "city": "Fort Walton Beach", "state": "Florida", "postcode": "32548", "lat": 30.4168095, "long": -86.642679}, {"house_number": "451", "road": "Odin Lane Northwest", "city": "Fort Walton Beach", "state": "Florida", "postcode": "32548", "lat": 30.415409999999998, "long": -86.64258699999999}, {"house_number": "56", "road": "Pryor Drive", "city": "Mary Esther", "state": "Florida", "postcode": "32569", "lat": 30.41084187686265, "long": -86.67543750055829}, {"house_number": "49", "road": "Shamrock Drive", "city": "Mary Esther", "state": "Florida", "postcode": "32569", "lat": 30.4105895, "long": -86.6749205}, {"house_number": "53", "road": "James Place", "city": "Mary Esther", "state": "Florida", "postcode": "32569", "lat": 30.41022299999999, "long": -86.6737235}, {"house_number": "51", "road": "Shady Lane", "city": "Mary Esther", "state": "Florida", "postcode": "32569", "lat": 30.40831525769254, "long": -86.65616814170183}, {"house_number": "901", "road": "Bambi Drive", "city": "Destin", "state": "Florida", "postcode": "32541", "lat": 30.413970855029973, "long": -86.48638390098017}, {"house_number": "115", "road": "East Beech Avenue", "city": "Crestview", "state": "Florida", "postcode": "32536", "lat": 30.76057449999999, "long": -86.5708065}, {"house_number": "402", "road": "Main Street", "city": "Crestview", "state": "Florida", "postcode": "32536", "lat": 30.760244999999994, "long": -86.57150999999999}, {"house_number": "498", "road": "Wilson Street North", "city": "Crestview", "state": "Florida", "postcode": "32536", "lat": 30.760724196853424, "long": -86.5733936245563}, {"house_number": "505", "road": "North Lloyd Street", "city": "Crestview", "state": "Florida", "postcode": "32536", "lat": 30.759776999999993, "long": -86.5763675}, {"house_number": "261", "road": "Oakdale Avenue East", "city": "Crestview", "state": "Florida", "postcode": "32539", "lat": 30.76034314877704, "long": -86.56928527074257}, {"house_number": "261", "road": "Oakdale Avenue East", "city": "Crestview", "state": "Florida", "postcode": "32539", "lat": 30.76034314877704, "long": -86.56928527074257}, {"house_number": "301", "road": "South Ferdon Boulevard", "city": "Crestview", "state": "Florida", "postcode": "32536", "lat": 30.760419765413815, "long": -86.57009860772837}, {"house_number": "301", "road": "South Ferdon Boulevard", "city": "Crestview", "state": "Florida", "postcode": "32536", "lat": 30.760419765413815, "long": -86.57009860772837}, {"house_number": "548", "road": "Purl Adams Avenue", "city": "Crestview", "state": "Florida", "postcode": "32539", "lat": 30.75988749590321, "long": -86.55829652903277}, {"house_number": "149", "road": "Tyner Drive", "city": "Crestview", "state": "Florida", "postcode": "32539", "lat": 30.760705231358507, "long": -86.54833983560155}, {"house_number": "151", "road": "Sikes Drive", "city": "Crestview", "state": "Florida", "postcode": "32539", "lat": 30.761149641905483, "long": -86.5476980894149}, {"house_number": "335", "road": "Main Street", "city": "Crestview", "state": "Florida", "postcode": "32536", "lat": 30.759794000000003, "long": -86.5710395}, {"house_number": "401", "road": "Wilson Street North", "city": "Crestview", "state": "Florida", "postcode": "32536", "lat": 30.759938499999997, "long": -86.57269}, {"house_number": "149", "road": "Oakdale Avenue East", "city": "Crestview", "state": "Florida", "postcode": "32539", "lat": 30.75971420461407, "long": -86.57021865237539}, {"house_number": "149", "road": "Oakdale Avenue East", "city": "Crestview", "state": "Florida", "postcode": "32539", "lat": 30.75971420461407, "long": -86.57021865237539}, {"house_number": "1656", "road": "East James Lee Boulevard", "city": "Crestview", "state": "Florida", "postcode": "32539", "lat": 30.759396386529726, "long": -86.54666017561924}, {"house_number": "1656", "road": "East James Lee Boulevard", "city": "Crestview", "state": "Florida", "postcode": "32539", "lat": 30.759396386529726, "long": -86.54666017561924}, {"house_number": "1656", "road": "East James Lee Boulevard", "city": "Crestview", "state": "Florida", "postcode": "32539", "lat": 30.759396386529726, "long": -86.54666017561924}, {"house_number": "248", "road": "West Beech Avenue", "city": "Crestview", "state": "Florida", "postcode": "32536", "lat": 30.75923306869919, "long": -86.5728119174394}, {"house_number": "248", "road": "West Beech Avenue", "city": "Crestview", "state": "Florida", "postcode": "32536", "lat": 30.75923306869919, "long": -86.5728119174394}, {"house_number": "385", "road": "North Spring Street", "city": "Crestview", "state": "Florida", "postcode": "32536", "lat": 30.759308936950646, "long": -86.57364016847166}, {"house_number": "550", "road": "Railroad Avenue East", "city": "Crestview", "state": "Florida", "postcode": "32539", "lat": 30.758958049361564, "long": -86.5633865633046}, {"house_number": "672", "road": "Griffith Avenue East", "city": "Crestview", "state": "Florida", "postcode": "32539", "lat": 30.759067499999997, "long": -86.56269449999999}, {"house_number": "672", "road": "Griffith Avenue East", "city": "Crestview", "state": "Florida", "postcode": "32539", "lat": 30.759067499999997, "long": -86.56269449999999}, {"house_number": "363", "road": "West Beech Avenue", "city": "Crestview", "state": "Florida", "postcode": "32536", "lat": 30.758812679127036, "long": -86.57343097890946}, {"house_number": "130", "road": "189 Oakdale Avenue West", "city": "Crestview", "state": "Florida", "postcode": "32536", "lat": 30.759086331050987, "long": -86.57116586770937}, {"house_number": "302", "road": "Wilson Street North", "city": "Crestview", "state": "Florida", "postcode": "32536", "lat": 30.759158999999997, "long": -86.571991}, {"house_number": "148", "road": "Woodruff Avenue East", "city": "Crestview", "state": "Florida", "postcode": "32536", "lat": 30.75885433200979, "long": -86.56958875230688}, {"house_number": "212", "road": "Main Street", "city": "Crestview", "state": "Florida", "postcode": "32536", "lat": 30.759002742805457, "long": -86.57032911588425}, {"house_number": "178", "road": "Hathaway Street South", "city": "Crestview", "state": "Florida", "postcode": "32539", "lat": 30.758799282168667, "long": -86.56401939592305}, {"house_number": "346", "road": "West Beech Avenue", "city": "Crestview", "state": "Florida", "postcode": "32536", "lat": 30.758512013878043, "long": -86.57390016096015}, {"house_number": "375", "road": "North Savage Street", "city": "Crestview", "state": "Florida", "postcode": "32536", "lat": 30.75869660068724, "long": -86.57455213341574}, {"house_number": "626", "road": "Griffith Avenue East", "city": "Crestview", "state": "Florida", "postcode": "32539", "lat": 30.758536473931283, "long": -86.56301085289479}, {"house_number": "551", "road": "East Chestnut Avenue", "city": "Crestview", "state": "Florida", "postcode": "32539", "lat": 30.75844288289126, "long": -86.5636284231008}, {"house_number": "130", "road": "189 Oakdale Avenue West", "city": "Crestview", "state": "Florida", "postcode": "32536", "lat": 30.758452538660688, "long": -86.57211734288066}, {"house_number": "385", "road": "North Spring Street", "city": "Crestview", "state": "Florida", "postcode": "32536", "lat": 30.758524468192576, "long": -86.5729386803944}, {"house_number": "248", "road": "Caswell Place", "city": "Crestview", "state": "Florida", "postcode": "32539", "lat": 30.758207999999996, "long": -86.56502}, {"house_number": "153", "road": "Woodruff Avenue West", "city": "Crestview", "state": "Florida", "postcode": "32536", "lat": 30.758291781750376, "long": -86.57045253858375}, {"house_number": "189", "road": "Wilson Street North", "city": "Crestview", "state": "Florida", "postcode": "32536", "lat": 30.75837252791179, "long": -86.5712844305323}, {"house_number": "651", "road": "East Chestnut Avenue", "city": "Crestview", "state": "Florida", "postcode": "32539", "lat": 30.758043179564055, "long": -86.56257327344503}, {"house_number": "259", "road": "Brett Street South", "city": "Crestview", "state": "Florida", "postcode": "32539", "lat": 30.757819999999988, "long": -86.566285}, {"house_number": "259", "road": "Brett Street South", "city": "Crestview", "state": "Florida", "postcode": "32539", "lat": 30.757819999999988, "long": -86.566285}, {"house_number": "4564", "road": "Paradise Isles", "city": "Destin", "state": "Florida", "postcode": "32541", "lat": 30.38428096132172, "long": -86.41187611442908}, {"house_number": "4649", "road": "Sunset Pointe", "city": "Destin", "state": "Florida", "postcode": "32541", "lat": 30.38294735414481, "long": -86.41185405380826}, {"house_number": "335", "road": "Ridge Lake Road", "city": "Crestview", "state": "Florida", "postcode": "32536", "lat": 30.78325314542581, "long": -86.58466506515632}, {"house_number": "90", "road": "Waynel Circle Southeast", "city": "Fort Walton Beach", "state": "Florida", "postcode": "32548", "lat": 30.40859626456473, "long": -86.5964522759826}, {"house_number": "17", "road": "Anastasia Drive Southeast", "city": "Fort Walton Beach", "state": "Florida", "postcode": "32548", "lat": 30.409686681138712, "long": -86.59535949595171}, {"house_number": "255", "road": "3rd Street Southeast", "city": "Fort Walton Beach", "state": "Florida", "postcode": "32548", "lat": 30.40859277564535, "long": -86.59803398279728}, {"house_number": "106", "road": "Elm Avenue Southeast", "city": "Fort Walton Beach", "state": "Florida", "postcode": "32548", "lat": 30.40803249999999, "long": -86.59741549999998}, {"house_number": "251", "road": "Tiffany Court Southeast", "city": "Fort Walton Beach", "state": "Florida", "postcode": "32548", "lat": 30.40749449999999, "long": -86.5977005}, {"house_number": "115", "road": "Elm Avenue Southeast", "city": "Fort Walton Beach", "state": "Florida", "postcode": "32548", "lat": 30.407187999999994, "long": -86.59744049999999}, {"house_number": "156", "road": "Elm Avenue Southeast", "city": "Fort Walton Beach", "state": "Florida", "postcode": "32548", "lat": 30.406134430701975, "long": -86.59747498778263}, {"house_number": "46", "road": "Waynel Circle Southeast", "city": "Fort Walton Beach", "state": "Florida", "postcode": "32548", "lat": 30.411058244590535, "long": -86.59496752473164}, {"house_number": "52", "road": "Alexandra Place Southeast", "city": "Fort Walton Beach", "state": "Florida", "postcode": "32548", "lat": 30.409828860744028, "long": -86.59444647411645}, {"house_number": "34", "road": "Waynel Circle Southeast", "city": "Fort Walton Beach", "state": "Florida", "postcode": "32548", "lat": 30.41096610945573, "long": -86.59364638487476}, {"house_number": "14", "road": "Waynel Circle Southeast", "city": "Fort Walton Beach", "state": "Florida", "postcode": "32548", "lat": 30.4088305, "long": -86.593398}, {"house_number": "313", "road": "Wheeler Street Southeast", "city": "Fort Walton Beach", "state": "Florida", "postcode": "32548", "lat": 30.4103675, "long": -86.592857}, {"house_number": "61", "road": "Anastasia Drive Southeast", "city": "Fort Walton Beach", "state": "Florida", "postcode": "32548", "lat": 30.4079808630956, "long": -86.59463803991562}, {"house_number": "259", "road": "Elliott Road Southeast", "city": "Fort Walton Beach", "state": "Florida", "postcode": "32548", "lat": 30.40679754497419, "long": -86.59538216839555}, {"house_number": "321", "road": "Elliott Road Southeast", "city": "Fort Walton Beach", "state": "Florida", "postcode": "32548", "lat": 30.40729098733914, "long": -86.59389026850248}, {"house_number": "99", "road": "Hood Avenue Southeast", "city": "Fort Walton Beach", "state": "Florida", "postcode": "32548", "lat": 30.40664554453217, "long": -86.59286578173473}, {"house_number": "301", "road": "Brooks Street Southeast", "city": "Fort Walton Beach", "state": "Florida", "postcode": "32548", "lat": 30.405236120009796, "long": -86.59813799272031}, {"house_number": "157", "road": "Waynel Circle Southeast", "city": "Fort Walton Beach", "state": "Florida", "postcode": "32548", "lat": 30.40608399999999, "long": -86.59653149999998}, {"house_number": "319", "road": "Brooks Street Southeast", "city": "Fort Walton Beach", "state": "Florida", "postcode": "32548", "lat": 30.4057843819909, "long": -86.5947086742807}, {"house_number": "249", "road": "Hood Avenue Southeast", "city": "Fort Walton Beach", "state": "Florida", "postcode": "32548", "lat": 30.405287720064646, "long": -86.59290524286072}, {"house_number": "301", "road": "Holly Street", "city": "Destin", "state": "Florida", "postcode": "32541", "lat": 30.399348423443563, "long": -86.47957365083029}, {"house_number": "409", "road": "Juniper Street", "city": "Destin", "state": "Florida", "postcode": "32541", "lat": 30.400320626934512, "long": -86.47866066041313}, {"house_number": "872", "road": "Kell Aire Drive", "city": "Destin", "state": "Florida", "postcode": "32541", "lat": 30.40050704007562, "long": -86.47778805893792}, {"house_number": "753", "road": "Sea Gull Circle", "city": "Destin", "state": "Florida", "postcode": "32541", "lat": 30.398573999999996, "long": -86.489712}, {"house_number": "759", "road": "Cardinal Circle", "city": "Destin", "state": "Florida", "postcode": "32541", "lat": 30.3985885, "long": -86.48871349999999}, {"house_number": "727", "road": "Spring Lake Drive", "city": "Destin", "state": "Florida", "postcode": "32541", "lat": 30.398979979564054, "long": -86.48815770647212}, {"house_number": "715", "road": "Spring Lake Drive", "city": "Destin", "state": "Florida", "postcode": "32541", "lat": 30.39848631531725, "long": -86.48921775370157}, {"house_number": "353", "road": "Cardinal Lane", "city": "Destin", "state": "Florida", "postcode": "32541", "lat": 30.398128, "long": -86.48869049999999}, {"house_number": "253", "road": "Cardinal Lane", "city": "Destin", "state": "Florida", "postcode": "32541", "lat": 30.3972995, "long": -86.488649}, {"house_number": "653", "road": "Heron Lane", "city": "Destin", "state": "Florida", "postcode": "32541", "lat": 30.399723499999997, "long": -86.48748}, {"house_number": "401", "road": "Kent Lane", "city": "Destin", "state": "Florida", "postcode": "32541", "lat": 30.398778999999998, "long": -86.486885}, {"house_number": "701", "road": "Elise Lane", "city": "Destin", "state": "Florida", "postcode": "32541", "lat": 30.397769, "long": -86.48774900000001}, {"house_number": "689", "road": "Legion Drive", "city": "Destin", "state": "Florida", "postcode": "32541", "lat": 30.396804500000002, "long": -86.490126}, {"house_number": "709", "road": "Legion Drive", "city": "Destin", "state": "Florida", "postcode": "32541", "lat": 30.3968465, "long": -86.4891355}, {"house_number": "357", "road": "Lee Lane", "city": "Destin", "state": "Florida", "postcode": "32541", "lat": 30.398825499999997, "long": -86.4858785}, {"house_number": "715", "road": "Elise Lane", "city": "Destin", "state": "Florida", "postcode": "32541", "lat": 30.397827999999997, "long": -86.4863225}, {"house_number": "311", "road": "Spring Lane", "city": "Destin", "state": "Florida", "postcode": "32541", "lat": 30.3987195, "long": -86.484884}, {"house_number": "3749", "road": "Emm Lou Lane", "city": "Destin", "state": "Florida", "postcode": "32541", "lat": 30.399575999999993, "long": -86.4843575}, {"house_number": "3749", "road": "Emm Lou Lane", "city": "Destin", "state": "Florida", "postcode": "32541", "lat": 30.399575999999993, "long": -86.4843575}, {"house_number": "351", "road": "Main Street", "city": "Destin", "state": "Florida", "postcode": "32541", "lat": 30.398327, "long": -86.483709}, {"house_number": "759", "road": "Elise Lane", "city": "Destin", "state": "Florida", "postcode": "32541", "lat": 30.397869, "long": -86.485327}, {"house_number": "251", "road": "Spring Lane", "city": "Destin", "state": "Florida", "postcode": "32541", "lat": 30.39746149999999, "long": -86.484811}, {"house_number": "63", "road": "Main Street", "city": "Destin", "state": "Florida", "postcode": "32541", "lat": 30.391041388586792, "long": -86.48344838618569}, {"house_number": "16", "road": "Moreno Point Road", "city": "Destin", "state": "Florida", "postcode": "32541", "lat": 30.387214280740185, "long": -86.48950698059417}, {"house_number": "23", "road": "Moreno Point Road", "city": "Destin", "state": "Florida", "postcode": "32541", "lat": 30.387803984959703, "long": -86.48907422201235}]