[{"house_number": "1463", "road": "Northwest South River Drive", "city": "Miami", "state": "Florida", "postcode": "33125", "lat": 25.782815499999998, "long": -80.2188395}, {"house_number": "602", "road": "Northeast 96th Street", "city": "Miami Shores", "state": "Florida", "postcode": "33138", "lat": 25.863789499999996, "long": -80.18462849999999}, {"house_number": "551", "road": "Northwest 8th Street", "city": "Miami", "state": "Florida", "postcode": "33136", "lat": 25.782023, "long": -80.204685}, {"house_number": "14900", "road": "Southwest 264th Street", "city": "Naranja", "state": "Florida", "postcode": "33032", "lat": 25.521553499999992, "long": -80.43321699999998}, {"house_number": "9500", "road": "Northeast 6th Avenue", "city": "Miami Shores", "state": "Florida", "postcode": "33138", "lat": 25.86278700535217, "long": -80.18524782275328}, {"house_number": "490", "road": "Northwest 51st Avenue", "city": "Miami", "state": "Florida", "postcode": "33126", "lat": 25.777292499999987, "long": -80.27803449999999}, {"house_number": "550", "road": "Northwest 51st Avenue", "city": "Miami", "state": "Florida", "postcode": "33126", "lat": 25.77799149999999, "long": -80.2780655}, {"house_number": "5536", "road": "West 18th Avenue", "city": "Hialeah", "state": "Florida", "postcode": "33012", "lat": 25.872953499999998, "long": -80.31912149999998}, {"house_number": "5580", "road": "West 16th Avenue", "city": "Hialeah", "state": "Florida", "postcode": "33012", "lat": 25.872407999999997, "long": -80.315079}, {"house_number": "5590", "road": "West 16th Avenue", "city": "Hialeah", "state": "Florida", "postcode": "33012", "lat": 25.872760999999993, "long": -80.3150965}, {"house_number": "7000", "road": "Fisher Island Drive", "city": "Miami Beach", "state": "Florida", "postcode": "33109", "lat": 25.76253080687695, "long": -80.13688621935121}, {"house_number": "7000", "road": "Fisher Island Drive", "city": "Miami Beach", "state": "Florida", "postcode": "33109", "lat": 25.76253080687695, "long": -80.13688621935121}, {"house_number": "7000", "road": "Fisher Island Drive", "city": "Miami Beach", "state": "Florida", "postcode": "33109", "lat": 25.76253080687695, "long": -80.13688621935121}, {"house_number": "7000", "road": "Fisher Island Drive", "city": "Miami Beach", "state": "Florida", "postcode": "33109", "lat": 25.76253080687695, "long": -80.13688621935121}, {"house_number": "7000", "road": "Fisher Island Drive", "city": "Miami Beach", "state": "Florida", "postcode": "33109", "lat": 25.76253080687695, "long": -80.13688621935121}, {"house_number": "7000", "road": "Fisher Island Drive", "city": "Miami Beach", "state": "Florida", "postcode": "33109", "lat": 25.76253080687695, "long": -80.13688621935121}, {"house_number": "7000", "road": "Fisher Island Drive", "city": "Miami Beach", "state": "Florida", "postcode": "33109", "lat": 25.76253080687695, "long": -80.13688621935121}, {"house_number": "7000", "road": "Fisher Island Drive", "city": "Miami Beach", "state": "Florida", "postcode": "33109", "lat": 25.76253080687695, "long": -80.13688621935121}, {"house_number": "7000", "road": "Fisher Island Drive", "city": "Miami Beach", "state": "Florida", "postcode": "33109", "lat": 25.76253080687695, "long": -80.13688621935121}, {"house_number": "7000", "road": "Fisher Island Drive", "city": "Miami Beach", "state": "Florida", "postcode": "33109", "lat": 25.76253080687695, "long": -80.13688621935121}, {"house_number": "7000", "road": "Fisher Island Drive", "city": "Miami Beach", "state": "Florida", "postcode": "33109", "lat": 25.76253080687695, "long": -80.13688621935121}, {"house_number": "7000", "road": "Fisher Island Drive", "city": "Miami Beach", "state": "Florida", "postcode": "33109", "lat": 25.76253080687695, "long": -80.13688621935121}, {"house_number": "1460", "road": "West 43rd Place", "city": "Hialeah", "state": "Florida", "postcode": "33012", "lat": 25.86106999999999, "long": -80.31181749999999}, {"house_number": "7843", "road": "Northwest 112th Place", "city": "Medley", "state": "Florida", "postcode": "33178", "lat": 25.844623999999992, "long": -80.37934049999998}, {"house_number": "7883", "road": "Northwest 112th Place", "city": "Medley", "state": "Florida", "postcode": "33178", "lat": 25.845169999999992, "long": -80.37933749999999}, {"house_number": "7763", "road": "Northwest 112th Place", "city": "Medley", "state": "Florida", "postcode": "33178", "lat": 25.843895499999988, "long": -80.3793695}, {"house_number": "1501", "road": "West 41st Street", "city": "Hialeah", "state": "Florida", "postcode": "33012", "lat": 25.858887499999994, "long": -80.313772}, {"house_number": "19840", "road": "Bobolink Drive", "city": "Hialeah", "state": "Florida", "postcode": "33015", "lat": 25.95433810292689, "long": -80.31070045880473}, {"house_number": "19920", "road": "Bobolink Drive", "city": "Hialeah", "state": "Florida", "postcode": "33015", "lat": 25.955170999999993, "long": -80.31081699999999}, {"house_number": "450", "road": "Grapetree Drive", "city": "Key Biscayne", "state": "Florida", "postcode": "33149", "lat": 25.684665960003574, "long": -80.15928691708066}, {"house_number": "350", "road": "Grapetree Drive", "city": "Key Biscayne", "state": "Florida", "postcode": "33149", "lat": 25.684689499999994, "long": -80.15800049999999}, {"house_number": "350", "road": "Grapetree Drive", "city": "Key Biscayne", "state": "Florida", "postcode": "33149", "lat": 25.684679499999994, "long": -80.15743599999999}, {"house_number": "11300", "road": "Northeast 2nd Avenue", "city": "Miami Shores", "state": "Florida", "postcode": "33161", "lat": 25.880348499999993, "long": -80.19418149999998}, {"house_number": "2841", "road": "Southwest 37th Avenue", "city": "Miami", "state": "Florida", "postcode": "33133", "lat": 25.73801149999999, "long": -80.25413049999997}, {"house_number": "2841", "road": "Southwest 37th Avenue", "city": "Miami", "state": "Florida", "postcode": "33133", "lat": 25.73801149999999, "long": -80.25413049999997}, {"house_number": "1798", "road": "Northwest 5th Avenue", "city": "Miami", "state": "Florida", "postcode": "33136", "lat": 25.793101499999988, "long": -80.2032175}, {"house_number": "1896", "road": "Northwest 5th Avenue", "city": "Miami", "state": "Florida", "postcode": "33136", "lat": 25.79343199999999, "long": -80.20323199999999}, {"house_number": "1825", "road": "Northwest 4th Court", "city": "Miami", "state": "Florida", "postcode": "33136", "lat": 25.793439999999993, "long": -80.2024175}, {"house_number": "2750", "road": "West 10th Avenue", "city": "Hialeah", "state": "Florida", "postcode": "33010", "lat": 25.84729099999999, "long": -80.30226599999999}, {"house_number": "2824", "road": "West 9th Avenue", "city": "Hialeah", "state": "Florida", "postcode": "33010", "lat": 25.847328999999988, "long": -80.300262}, {"house_number": "2874", "road": "West 9th Avenue", "city": "Hialeah", "state": "Florida", "postcode": "33012", "lat": 25.84777249999999, "long": -80.300275}, {"house_number": "5545", "road": "West 24th Avenue", "city": "Hialeah", "state": "Florida", "postcode": "33016", "lat": 25.87290349999999, "long": -80.33116549999998}, {"house_number": "1495", "road": "Southeast 10th Avenue", "city": "Hialeah", "state": "Florida", "postcode": "33010", "lat": 25.809929499999996, "long": -80.2600875}, {"house_number": "4312", "road": "West 18th Avenue", "city": "Hialeah", "state": "Florida", "postcode": "33012", "lat": 25.8613465, "long": -80.31879249999999}, {"house_number": "4264", "road": "West 18th Avenue", "city": "Hialeah", "state": "Florida", "postcode": "33012", "lat": 25.860813277766855, "long": -80.31872015676072}, {"house_number": "6385", "road": "West 24th Avenue", "city": "Hialeah", "state": "Florida", "postcode": "33016", "lat": 25.881144999999993, "long": -80.3315375}, {"house_number": "5577", "road": "West 27th Avenue", "city": "Hialeah", "state": "Florida", "postcode": "33016", "lat": 25.872890491283343, "long": -80.3368784127718}, {"house_number": "29983", "road": "Southwest 158th Place", "city": "Homestead", "state": "Florida", "postcode": "33033", "lat": 25.488750105299477, "long": -80.44841513722307}, {"house_number": "11920", "road": "Northeast 12th Court", "city": "Biscayne Park", "state": "Florida", "postcode": "33161", "lat": 25.88582621353991, "long": -80.17350352112953}, {"house_number": "6900", "road": "Bay Drive", "city": "Miami Beach", "state": "Florida", "postcode": "33141", "lat": 25.853700500000002, "long": -80.12680449999999}, {"house_number": "6900", "road": "Bay Drive", "city": "Miami Beach", "state": "Florida", "postcode": "33141", "lat": 25.853700500000002, "long": -80.12680449999999}, {"house_number": "6900", "road": "Bay Drive", "city": "Miami Beach", "state": "Florida", "postcode": "33141", "lat": 25.853700500000002, "long": -80.12680449999999}, {"house_number": "6911", "road": "Bay Drive", "city": "Miami Beach", "state": "Florida", "postcode": "33141", "lat": 25.854686415780428, "long": -80.12712708522469}, {"house_number": "9970", "road": "Northwest 89th Court", "city": "Medley", "state": "Florida", "postcode": "33178", "lat": 25.864830272735166, "long": -80.34309710806419}, {"house_number": "28851", "road": "Southwest 164th Avenue", "city": "Homestead", "state": "Florida", "postcode": "33033", "lat": 25.498369793717984, "long": -80.45713053074522}, {"house_number": "12599", "road": "Northwest 107th Avenue", "city": "Medley", "state": "Florida", "postcode": "33178", "lat": 25.886858154044514, "long": -80.37196869098669}, {"house_number": "5200", "road": "Northeast 2nd Avenue", "city": "Miami", "state": "Florida", "postcode": "33137", "lat": 25.82310212749846, "long": -80.19315338804425}, {"house_number": "7134", "road": "Abbott Court", "city": "Miami Beach", "state": "Florida", "postcode": "33141", "lat": 25.856570009740164, "long": -80.12278228013693}, {"house_number": "11552", "road": "Southwest 228th Street", "city": "Princeton", "state": "Florida", "postcode": "33170", "lat": 25.55528990011783, "long": -80.37928948690568}, {"house_number": "19950", "road": "Southwest 316th Street", "city": "Homestead", "state": "Florida", "postcode": "33030", "lat": 25.473288, "long": -80.51528049999999}, {"house_number": "25481", "road": "Southwest 198th Avenue", "city": "Homestead", "state": "Florida", "postcode": "33031", "lat": 25.529996497722223, "long": -80.51243818195191}]