[{"house_number": "610", "road": "11th Street South", "city": "Quincy", "state": "Florida", "postcode": "32351", "lat": 30.580014999999992, "long": -84.58753999999999}, {"house_number": "258", "road": "Valley Drive", "city": "Quincy", "state": "Florida", "postcode": "32351", "lat": 30.58420999999999, "long": -84.56803499999998}, {"house_number": "2512", "road": "Dupont Road", "city": "Havana", "state": "Florida", "postcode": "32333", "lat": 30.521042807808026, "long": -84.43669956627889}, {"house_number": "2562", "road": "Dupont Road", "city": "Havana", "state": "Florida", "postcode": "32333", "lat": 30.520955992836893, "long": -84.44081947966633}, {"house_number": "1057", "road": "Dupont Road", "city": "Havana", "state": "Florida", "postcode": "32333", "lat": 30.514026511042445, "long": -84.42937240714282}, {"house_number": "155", "road": "Dupont Road", "city": "Havana", "state": "Florida", "postcode": "32333", "lat": 30.517125590021003, "long": -84.43503564832626}, {"house_number": "1250", "road": "Hill Street", "city": "Quincy", "state": "Florida", "postcode": "32351", "lat": 30.57331592836676, "long": -84.55603691380887}, {"house_number": "378", "road": "James Hinson Drive", "city": "Midway", "state": "Florida", "postcode": "32343", "lat": 30.5089665, "long": -84.48375899999999}, {"house_number": "15127", "road": "Main Street", "city": "Gretna", "state": "Florida", "postcode": "32332", "lat": 30.610413176084933, "long": -84.65885138486438}, {"house_number": "15127", "road": "Main Street", "city": "Gretna", "state": "Florida", "postcode": "32332", "lat": 30.610413176084933, "long": -84.65885138486438}, {"house_number": "15127", "road": "Main Street", "city": "Gretna", "state": "Florida", "postcode": "32332", "lat": 30.610413176084933, "long": -84.65885138486438}, {"house_number": "15127", "road": "Main Street", "city": "Gretna", "state": "Florida", "postcode": "32332", "lat": 30.610413176084933, "long": -84.65885138486438}, {"house_number": "15127", "road": "Main Street", "city": "Gretna", "state": "Florida", "postcode": "32332", "lat": 30.610413176084933, "long": -84.65885138486438}, {"house_number": "58", "road": "Wilford Road", "city": "Havana", "state": "Florida", "postcode": "32333", "lat": 30.576788831381336, "long": -84.45451772682918}, {"house_number": "230", "road": "Wilford Road", "city": "Havana", "state": "Florida", "postcode": "32333", "lat": 30.57534257015046, "long": -84.45385011393095}, {"house_number": "76", "road": "Kelly Road East", "city": "Havana", "state": "Florida", "postcode": "32333", "lat": 30.572377869407937, "long": -84.4511350943071}, {"house_number": "1494", "road": "South Atlanta Street", "city": "Quincy", "state": "Florida", "postcode": "32351", "lat": 30.57098567146309, "long": -84.61164289148252}, {"house_number": "1358", "road": "South Atlanta Street", "city": "Quincy", "state": "Florida", "postcode": "32351", "lat": 30.57172498562761, "long": -84.61080497655081}, {"house_number": "2", "road": "Ryan Road East", "city": "Havana", "state": "Florida", "postcode": "32333", "lat": 30.569084956524012, "long": -84.451150000314}, {"house_number": "145", "road": "Ryan Road East", "city": "Havana", "state": "Florida", "postcode": "32333", "lat": 30.568987263812122, "long": -84.44916662969653}, {"house_number": "100", "road": "North Main Street", "city": "Chattahoochee", "state": "Florida", "postcode": "32324", "lat": 30.706845458149274, "long": -84.83669512716689}, {"house_number": "100", "road": "North Main Street", "city": "Chattahoochee", "state": "Florida", "postcode": "32324", "lat": 30.706845458149274, "long": -84.83669512716689}, {"house_number": "100", "road": "North Main Street", "city": "Chattahoochee", "state": "Florida", "postcode": "32324", "lat": 30.706390568393452, "long": -84.82935501982891}, {"house_number": "100", "road": "North Main Street", "city": "Chattahoochee", "state": "Florida", "postcode": "32324", "lat": 30.706390568393452, "long": -84.82935501982891}, {"house_number": "1349", "road": "Luten Road", "city": "Gretna", "state": "Florida", "postcode": "32352", "lat": 30.606164867676082, "long": -84.64935000197376}, {"house_number": "1349", "road": "Luten Road", "city": "Gretna", "state": "Florida", "postcode": "32352", "lat": 30.606164867676082, "long": -84.64935000197376}, {"house_number": "350", "road": "Luten Road", "city": "Gretna", "state": "Florida", "postcode": "32352", "lat": 30.60617342887604, "long": -84.65013551285612}, {"house_number": "286", "road": "James Hinson Drive", "city": "Midway", "state": "Florida", "postcode": "32343", "lat": 30.508249499999987, "long": -84.48261}, {"house_number": "85", "road": "Deanna Green Lane", "city": "Midway", "state": "Florida", "postcode": "32343", "lat": 30.50617726075628, "long": -84.48396771779946}, {"house_number": "233", "road": "Deanna Green Lane", "city": "Midway", "state": "Florida", "postcode": "32343", "lat": 30.50689199999999, "long": -84.485564}, {"house_number": "102", "road": "Roosevelt Drive", "city": "Midway", "state": "Florida", "postcode": "32343", "lat": 30.507475081925524, "long": -84.4829219175866}, {"house_number": "252", "road": "Delores Madison Drive", "city": "Midway", "state": "Florida", "postcode": "32343", "lat": 30.506599819982988, "long": -84.47701729934958}, {"house_number": "252", "road": "Delores Madison Drive", "city": "Midway", "state": "Florida", "postcode": "32343", "lat": 30.506599819982988, "long": -84.47701729934958}, {"house_number": "151", "road": "Frances Harrell Way", "city": "Midway", "state": "Florida", "postcode": "32343", "lat": 30.510227759543998, "long": -84.4805752721084}, {"house_number": "120", "road": "Ponderosa Circle", "city": "Midway", "state": "Florida", "postcode": "32343", "lat": 30.508254942746927, "long": -84.4740981802256}, {"house_number": "120", "road": "Ponderosa Circle", "city": "Midway", "state": "Florida", "postcode": "32343", "lat": 30.508254942746927, "long": -84.4740981802256}, {"house_number": "231", "road": "Red Fox Lane", "city": "Havana", "state": "Florida", "postcode": "32333", "lat": 30.634873999999993, "long": -84.4237615}, {"house_number": "893", "road": "Dewey Johnson Way", "city": "Gretna", "state": "Florida", "postcode": "32332", "lat": 30.60600749999999, "long": -84.66526649999999}, {"house_number": "949", "road": "Dewey Johnson Way", "city": "Gretna", "state": "Florida", "postcode": "32332", "lat": 30.60685899751917, "long": -84.66525677130298}, {"house_number": "38", "road": "Knight Road", "city": "Midway", "state": "Florida", "postcode": "32351", "lat": 30.49011278730836, "long": -84.48466230857017}, {"house_number": "81", "road": "Knight Road", "city": "Midway", "state": "Florida", "postcode": "32351", "lat": 30.4901714274989, "long": -84.48432965586203}, {"house_number": "25", "road": "Eugene Lane", "city": "Midway", "state": "Florida", "postcode": "32343", "lat": 30.50844349999999, "long": -84.48387799999999}, {"house_number": "251", "road": "Rustling Pines Boulevard", "city": "Midway", "state": "Florida", "postcode": "32343", "lat": 30.506473151451164, "long": -84.46653816607945}, {"house_number": "597", "road": "Rustling Pines Boulevard", "city": "Midway", "state": "Florida", "postcode": "32343", "lat": 30.50816934108, "long": -84.46886016951579}, {"house_number": "597", "road": "Rustling Pines Boulevard", "city": "Midway", "state": "Florida", "postcode": "32343", "lat": 30.50816934108, "long": -84.46886016951579}, {"house_number": "696", "road": "Rustling Pines Boulevard", "city": "Midway", "state": "Florida", "postcode": "32343", "lat": 30.509513999999996, "long": -84.47143100000001}, {"house_number": "138", "road": "Slash Circle", "city": "Midway", "state": "Florida", "postcode": "32343", "lat": 30.50674364330855, "long": -84.46722823375039}, {"house_number": "254", "road": "Slash Circle", "city": "Midway", "state": "Florida", "postcode": "32343", "lat": 30.506830371722376, "long": -84.4697399394539}, {"house_number": "254", "road": "Slash Circle", "city": "Midway", "state": "Florida", "postcode": "32343", "lat": 30.506830371722376, "long": -84.4697399394539}, {"house_number": "254", "road": "Slash Circle", "city": "Midway", "state": "Florida", "postcode": "32343", "lat": 30.506830371722376, "long": -84.4697399394539}, {"house_number": "254", "road": "Slash Circle", "city": "Midway", "state": "Florida", "postcode": "32343", "lat": 30.506830371722376, "long": -84.4697399394539}, {"house_number": "254", "road": "Slash Circle", "city": "Midway", "state": "Florida", "postcode": "32343", "lat": 30.506830371722376, "long": -84.4697399394539}, {"house_number": "466", "road": "Slash Circle", "city": "Midway", "state": "Florida", "postcode": "32343", "lat": 30.508570621864703, "long": -84.47210071402183}, {"house_number": "100", "road": "Delores Madison Drive", "city": "Midway", "state": "Florida", "postcode": "32343", "lat": 30.508967963194706, "long": -84.47709043859416}, {"house_number": "100", "road": "Delores Madison Drive", "city": "Midway", "state": "Florida", "postcode": "32343", "lat": 30.508967963194706, "long": -84.47709043859416}, {"house_number": "2", "road": "Earnest O'Barkley Street", "city": "Gretna", "state": "Florida", "postcode": "32332", "lat": 30.61911709575407, "long": -84.66480464647613}, {"house_number": "52", "road": "Railroad Street", "city": "Gretna", "state": "Florida", "postcode": "32332", "lat": 30.618334579309288, "long": -84.66437543228984}, {"house_number": "387", "road": "Lanier Drive", "city": "Gretna", "state": "Florida", "postcode": "32332", "lat": 30.623912298803933, "long": -84.67224859828667}, {"house_number": "403", "road": "Broad Avenue", "city": "Gretna", "state": "Florida", "postcode": "32332", "lat": 30.618365995087302, "long": -84.65726252979451}, {"house_number": "397", "road": "Broad Avenue", "city": "Gretna", "state": "Florida", "postcode": "32332", "lat": 30.61826885619556, "long": -84.65723604687136}, {"house_number": "944", "road": "Ralph Strong Road", "city": "Quincy", "state": "Florida", "postcode": "32351", "lat": 30.567118820740454, "long": -84.5547325903259}, {"house_number": "944", "road": "Ralph Strong Road", "city": "Quincy", "state": "Florida", "postcode": "32351", "lat": 30.567118820740454, "long": -84.5547325903259}, {"house_number": "944", "road": "Ralph Strong Road", "city": "Quincy", "state": "Florida", "postcode": "32351", "lat": 30.567118820740454, "long": -84.5547325903259}, {"house_number": "944", "road": "Ralph Strong Road", "city": "Quincy", "state": "Florida", "postcode": "32351", "lat": 30.567118820740454, "long": -84.5547325903259}, {"house_number": "944", "road": "Ralph Strong Road", "city": "Quincy", "state": "Florida", "postcode": "32351", "lat": 30.567118820740454, "long": -84.5547325903259}, {"house_number": "944", "road": "Ralph Strong Road", "city": "Quincy", "state": "Florida", "postcode": "32351", "lat": 30.567118820740454, "long": -84.5547325903259}, {"house_number": "944", "road": "Ralph Strong Road", "city": "Quincy", "state": "Florida", "postcode": "32351", "lat": 30.567118820740454, "long": -84.5547325903259}, {"house_number": "944", "road": "Ralph Strong Road", "city": "Quincy", "state": "Florida", "postcode": "32351", "lat": 30.567118820740454, "long": -84.5547325903259}, {"house_number": "944", "road": "Ralph Strong Road", "city": "Quincy", "state": "Florida", "postcode": "32351", "lat": 30.567118820740454, "long": -84.5547325903259}, {"house_number": "944", "road": "Ralph Strong Road", "city": "Quincy", "state": "Florida", "postcode": "32351", "lat": 30.567118820740454, "long": -84.5547325903259}, {"house_number": "47", "road": "North 1st Street", "city": "Gretna", "state": "Florida", "postcode": "32332", "lat": 30.62733060941968, "long": -84.6681005648881}, {"house_number": "201", "road": "Date Avenue", "city": "Gretna", "state": "Florida", "postcode": "32332", "lat": 30.620800586672754, "long": -84.66091429720765}, {"house_number": "149", "road": "Charles Hayes Sr Street", "city": "Gretna", "state": "Florida", "postcode": "32332", "lat": 30.595505004720295, "long": -84.65415460006069}, {"house_number": "101", "road": "Laner Lane", "city": "Gretna", "state": "Florida", "postcode": "32332", "lat": 30.62371379419484, "long": -84.65887946091831}, {"house_number": "1347", "road": "Pat Thomas Parkway", "city": "Quincy", "state": "Florida", "postcode": "32351", "lat": 30.56536021727609, "long": -84.59285874159272}, {"house_number": "2189", "road": "South Atlanta Street", "city": "Quincy", "state": "Florida", "postcode": "32351", "lat": 30.570209999999985, "long": -84.62441999999999}, {"house_number": "1670", "road": "Martin Luther King Junior Boulevard", "city": "Quincy", "state": "Florida", "postcode": "32351", "lat": 30.57791249999999, "long": -84.59762849999998}, {"house_number": "1670", "road": "Martin Luther King Junior Boulevard", "city": "Quincy", "state": "Florida", "postcode": "32351", "lat": 30.57791249999999, "long": -84.59762849999998}, {"house_number": "151", "road": "Florida-Georgia Highway", "city": "Havana", "state": "Florida", "postcode": "32333", "lat": 30.617699067742617, "long": -84.41731366981094}, {"house_number": "50", "road": "Forest Drive South", "city": "Midway", "state": "Florida", "postcode": "32343", "lat": 30.496088001150696, "long": -84.48829960185718}, {"house_number": "148", "road": "Forest Drive South", "city": "Midway", "state": "Florida", "postcode": "32343", "lat": 30.495212994292025, "long": -84.48830359488565}, {"house_number": "100", "road": "High Bluff Ct", "city": "Midway", "state": "Florida", "postcode": "32343", "lat": 30.496079378926947, "long": -84.49333523274652}, {"house_number": "77", "road": "Forest Circle South", "city": "Midway", "state": "Florida", "postcode": "32343", "lat": 30.495974364735186, "long": -84.48936999118773}, {"house_number": "650", "road": "Industrial Drive", "city": "Quincy", "state": "Florida", "postcode": "32351", "lat": 30.578459999999993, "long": -84.60742999999998}, {"house_number": "676", "road": "South Street", "city": "Quincy", "state": "Florida", "postcode": "32351", "lat": 30.58311394774504, "long": -84.56769882102778}]