[{"house_number": "2851", "road": "Northeast 43rd Road", "city": "Ocala", "state": "Florida", "postcode": "34470", "lat": 29.215272885330975, "long": -82.07406690419238}, {"house_number": "451", "road": "Northeast 47th Court", "city": "Ocala", "state": "Florida", "postcode": "34470", "lat": 29.191408766732966, "long": -82.06975911837041}, {"house_number": "24849", "road": "Northeast 137th Place", "city": "Salt Springs", "state": "Florida", "postcode": "32134", "lat": 29.352132948468398, "long": -81.74376648495313}, {"house_number": "24849", "road": "Northeast 137th Place", "city": "Salt Springs", "state": "Florida", "postcode": "32134", "lat": 29.352132948468398, "long": -81.74376648495313}, {"house_number": "1404", "road": "Northeast 17th Street", "city": "Ocala", "state": "Florida", "postcode": "34470", "lat": 29.203856299544967, "long": -82.11965099709455}, {"house_number": "649", "road": "Southeast 7th Street", "city": "Ocala", "state": "Florida", "postcode": "34471", "lat": 29.180378167692005, "long": -82.10560220251618}, {"house_number": "150", "road": "Northwest 10th Avenue", "city": "Ocala", "state": "Florida", "postcode": "34475", "lat": 29.18820850828971, "long": -82.1474142567675}, {"house_number": "1620", "road": "Northeast 14th Avenue", "city": "Ocala", "state": "Florida", "postcode": "34470", "lat": 29.20327249999999, "long": -82.11985799999998}, {"house_number": "2302", "road": "Northeast 10th Court", "city": "Ocala", "state": "Florida", "postcode": "34470", "lat": 29.21030565850513, "long": -82.12546759041078}, {"house_number": "11049", "road": "Southeast 56th Avenue", "city": "Belleview", "state": "Florida", "postcode": "34420", "lat": 29.06168403121815, "long": -82.05674283432569}, {"house_number": "11049", "road": "Southeast 56th Avenue", "city": "Belleview", "state": "Florida", "postcode": "34420", "lat": 29.06168403121815, "long": -82.05674283432569}, {"house_number": "251", "road": "Southwest 22nd Place", "city": "Ocala", "state": "Florida", "postcode": "34471", "lat": 29.166287656549002, "long": -82.13892152066268}, {"house_number": "1701", "road": "Southwest 2nd Street", "city": "Ocala", "state": "Florida", "postcode": "34471", "lat": 29.184732342371525, "long": -82.15427151865204}, {"house_number": "1207", "road": "Northeast 33rd Street", "city": "Ocala", "state": "Florida", "postcode": "34479", "lat": 29.22110856383632, "long": -82.12261199970573}, {"house_number": "5560", "road": "CR 316", "city": "Reddick", "state": "Florida", "postcode": "32686", "lat": 29.366757089651987, "long": -82.22055159949888}, {"house_number": "11603", "road": "Southeast 54th Avenue", "city": "Belleview", "state": "Florida", "postcode": "34420", "lat": 29.053887219066603, "long": -82.0592212327379}, {"house_number": "5551", "road": "Southeast 110th Street", "city": "Belleview", "state": "Florida", "postcode": "34420", "lat": 29.062460230804593, "long": -82.05703687073563}, {"house_number": "11014", "road": "Southwest 200th Avenue", "city": "Dunnellon", "state": "Florida", "postcode": "34432", "lat": 29.061545000418576, "long": -82.45197704372977}, {"house_number": "4982", "road": "Lingenfelter Drive", "city": "Belleview", "state": "Florida", "postcode": "34420", "lat": 29.066739601512126, "long": -82.06627758453905}]