[{"house_number": "3369", "road": "Cat Brier Trail", "city": "Harmony", "state": "Florida", "postcode": "34773", "lat": 28.1950287719423, "long": -81.15075887368506}, {"house_number": "1904", "road": "Michigan Avenue", "city": "Saint Cloud", "state": "Florida", "postcode": "34769", "lat": 28.238646999999993, "long": -81.27671599999998}, {"house_number": "145", "road": "Mediterranean Court", "city": "Poinciana", "state": "Florida", "postcode": "34758", "lat": 28.165248838212474, "long": -81.48278745116707}, {"house_number": "2252", "road": "Chardonnay Court East", "city": "Kissimmee", "state": "Florida", "postcode": "34741", "lat": 28.311908914218662, "long": -81.4291339722263}, {"house_number": "2252", "road": "Chardonnay Court East", "city": "Kissimmee", "state": "Florida", "postcode": "34741", "lat": 28.311908914218662, "long": -81.4291339722263}, {"house_number": "2252", "road": "Chardonnay Court East", "city": "Kissimmee", "state": "Florida", "postcode": "34741", "lat": 28.311908914218662, "long": -81.4291339722263}, {"house_number": "4450", "road": "Teka Lane", "city": "Saint Cloud", "state": "Florida", "postcode": "34772", "lat": 28.22592694662444, "long": -81.31800061110414}, {"house_number": "3302", "road": "Kaleigh Court", "city": "Saint Cloud", "state": "Florida", "postcode": "34772", "lat": 28.196613517453372, "long": -81.28709937903768}, {"house_number": "697", "road": "North Henrietta Street", "city": "Kissimmee", "state": "Florida", "postcode": "34741", "lat": 28.298340016528677, "long": -81.41537887846714}, {"house_number": "4250", "road": "Village Drive", "city": "Campbell", "state": "Florida", "postcode": "34746", "lat": 28.260519833126047, "long": -81.45134825841397}, {"house_number": "2225", "road": "Antigua Place", "city": "Kissimmee", "state": "Florida", "postcode": "34741", "lat": 28.312571849795624, "long": -81.44721101155821}, {"house_number": "2225", "road": "Antigua Place", "city": "Kissimmee", "state": "Florida", "postcode": "34741", "lat": 28.312571849795624, "long": -81.44721101155821}, {"house_number": "1885", "road": "Muscat Court", "city": "Kissimmee", "state": "Florida", "postcode": "34741", "lat": 28.308727854272657, "long": -81.43069050066184}, {"house_number": "1351", "road": "Mill Bay", "city": "Kissimmee", "state": "Florida", "postcode": "34744", "lat": 28.332587686447344, "long": -81.38965959483481}, {"house_number": "1124", "road": "Lavaur Court", "city": "Poinciana", "state": "Florida", "postcode": "34759", "lat": 28.121489860527287, "long": -81.44351723383828}, {"house_number": "1790", "road": "Easy Court", "city": "Kissimmee", "state": "Florida", "postcode": "34741", "lat": 28.31490404888595, "long": -81.42198995668443}, {"house_number": "551", "road": "Patrick Street", "city": "Kissimmee", "state": "Florida", "postcode": "34741", "lat": 28.28989238385083, "long": -81.40949100507727}, {"house_number": "460", "road": "Peppermill Circle", "city": "Poinciana", "state": "Florida", "postcode": "34758", "lat": 28.145198361438883, "long": -81.4699925788654}, {"house_number": "2350", "road": "Windingridge Avenue South", "city": "Kissimmee", "state": "Florida", "postcode": "34741", "lat": 28.31265969947099, "long": -81.42824799782191}, {"house_number": "267", "road": "Tiffany Court", "city": "Poinciana", "state": "Florida", "postcode": "34758", "lat": 28.191768581038055, "long": -81.49549987500198}, {"house_number": "1808", "road": "Manor Drive", "city": "Kissimmee", "state": "Florida", "postcode": "34741", "lat": 28.280440302886635, "long": -81.42208592082082}, {"house_number": "2559", "road": "Canoe Creek Road", "city": "Saint Cloud", "state": "Florida", "postcode": "34769", "lat": 28.226442630582238, "long": -81.29304853722653}, {"house_number": "2748", "road": "Missouri Avenue", "city": "Saint Cloud", "state": "Florida", "postcode": "34769", "lat": 28.232433974383557, "long": -81.28902953109775}, {"house_number": "1796", "road": "Mill Slough Road", "city": "Kissimmee", "state": "Florida", "postcode": "34744", "lat": 28.316267371665695, "long": -81.37258599109076}, {"house_number": "2123", "road": "Cypress Bay Boulevard", "city": "Kissimmee", "state": "Florida", "postcode": "34743", "lat": 28.311385173757937, "long": -81.35801396450877}, {"house_number": "950", "road": "Royal Street", "city": "Kissimmee", "state": "Florida", "postcode": "34744", "lat": 28.300332499999993, "long": -81.40073099999998}, {"house_number": "269", "road": "Rontunda Drive", "city": "Poinciana", "state": "Florida", "postcode": "34758", "lat": 28.190800000977614, "long": -81.49429822005874}, {"house_number": "1648", "road": "New York Avenue", "city": "Saint Cloud", "state": "Florida", "postcode": "34769", "lat": 28.242798501618623, "long": -81.28356823588832}, {"house_number": "928", "road": "Albertville Court", "city": "Poinciana", "state": "Florida", "postcode": "34759", "lat": 28.12858198462929, "long": -81.45017218958877}, {"house_number": "275", "road": "Bromwich Drive", "city": "Poinciana", "state": "Florida", "postcode": "34758", "lat": 28.189495152854796, "long": -81.49891124206938}, {"house_number": "81", "road": "Dorset Drive", "city": "Poinciana", "state": "Florida", "postcode": "34758", "lat": 28.171611661845517, "long": -81.491739923749}, {"house_number": "81", "road": "Dorset Drive", "city": "Poinciana", "state": "Florida", "postcode": "34758", "lat": 28.171611661845517, "long": -81.491739923749}, {"house_number": "81", "road": "Dorset Drive", "city": "Poinciana", "state": "Florida", "postcode": "34758", "lat": 28.171611661845517, "long": -81.491739923749}, {"house_number": "2204", "road": "Saint Marteen Court", "city": "Kissimmee", "state": "Florida", "postcode": "34741", "lat": 28.310409678762483, "long": -81.42613007810424}, {"house_number": "3651", "road": "Wonderland Park Court", "city": "Campbell", "state": "Florida", "postcode": "34746", "lat": 28.260863326529588, "long": -81.44137450923559}, {"house_number": "447", "road": "East Bass Street", "city": "Kissimmee", "state": "Florida", "postcode": "34744", "lat": 28.298859618745006, "long": -81.40041949755384}, {"house_number": "1176", "road": "Roma Way", "city": "Kissimmee", "state": "Florida", "postcode": "34746", "lat": 28.302021645819437, "long": -81.46658709316561}, {"house_number": "3250", "road": "Bayflower Street", "city": "Harmony", "state": "Florida", "postcode": "34773", "lat": 28.199943024507448, "long": -81.1590246697109}, {"house_number": "2620", "road": "Coral Avenue", "city": "Kissimmee", "state": "Florida", "postcode": "34741", "lat": 28.32459750205347, "long": -81.41114696774355}, {"house_number": "984", "road": "North Bass Road", "city": "Kissimmee", "state": "Florida", "postcode": "34746", "lat": 28.30048099288136, "long": -81.45735618317921}, {"house_number": "2953", "road": "White Cedar Circle", "city": "Kissimmee", "state": "Florida", "postcode": "34741", "lat": 28.33318679380777, "long": -81.43895890269692}, {"house_number": "3470", "road": "Fernwood Drive", "city": "Kissimmee", "state": "Florida", "postcode": "34741", "lat": 28.34150261676244, "long": -81.44104707749644}, {"house_number": "1362", "road": "Banbridge Dr", "city": "Poinciana", "state": "Florida", "postcode": "34758", "lat": 28.19279433557839, "long": -81.50036942298391}, {"house_number": "1341", "road": "Dover Drive", "city": "Poinciana", "state": "Florida", "postcode": "34758", "lat": 28.192774974183422, "long": -81.49944914670758}, {"house_number": "1341", "road": "Dover Drive", "city": "Poinciana", "state": "Florida", "postcode": "34758", "lat": 28.192774974183422, "long": -81.49944914670758}, {"house_number": "834", "road": "North Bass Road", "city": "Kissimmee", "state": "Florida", "postcode": "34746", "lat": 28.29883999741244, "long": -81.45732015655074}, {"house_number": "1450", "road": "Donegan Avenue", "city": "Kissimmee", "state": "Florida", "postcode": "34741", "lat": 28.31888854925197, "long": -81.41926010043768}, {"house_number": "2530", "road": "Coral Avenue", "city": "Kissimmee", "state": "Florida", "postcode": "34741", "lat": 28.320557974937834, "long": -81.41087582867353}, {"house_number": "3344", "road": "Osceola Parkway", "city": "Kissimmee", "state": "Florida", "postcode": "34741", "lat": 28.34642067793855, "long": -81.44402885853052}, {"house_number": "3151", "road": "4th Street", "city": "Saint Cloud", "state": "Florida", "postcode": "34769", "lat": 28.255095173492435, "long": -81.30413541092828}, {"house_number": "2530", "road": "Lakeside Drive", "city": "Kissimmee", "state": "Florida", "postcode": "34743", "lat": 28.31582470823166, "long": -81.34901554536958}, {"house_number": "2415", "road": "Winchester Boulevard", "city": "Kissimmee", "state": "Florida", "postcode": "34743", "lat": 28.314779073437162, "long": -81.35870240420773}, {"house_number": "2477", "road": "Kincaid Street", "city": "Saint Cloud", "state": "Florida", "postcode": "34769", "lat": 28.236762499155745, "long": -81.3136158901754}, {"house_number": "3751", "road": "Old Canoe Creek Road", "city": "Saint Cloud", "state": "Florida", "postcode": "34769", "lat": 28.232417997777247, "long": -81.31772195192185}, {"house_number": "3699", "road": "Old Canoe Creek Road", "city": "Saint Cloud", "state": "Florida", "postcode": "34769", "lat": 28.23092899237064, "long": -81.31769951095312}, {"house_number": "1798", "road": "Hiawatha Drive", "city": "Kissimmee", "state": "Florida", "postcode": "34741", "lat": 28.279262719088802, "long": -81.42203787272406}, {"house_number": "1556", "road": "Tangelo Circle", "city": "Kissimmee", "state": "Florida", "postcode": "34746", "lat": 28.306465450593844, "long": -81.45769481797548}, {"house_number": "2371", "road": "North Seminole Street", "city": "Kissimmee", "state": "Florida", "postcode": "34744", "lat": 28.312884494144125, "long": -81.39276782563797}, {"house_number": "2913", "road": "Conner Lane", "city": "Kissimmee", "state": "Florida", "postcode": "34741", "lat": 28.329041885576057, "long": -81.43181136810048}, {"house_number": "1527", "road": "Sierra Circle", "city": "Kissimmee", "state": "Florida", "postcode": "34744", "lat": 28.310735415112962, "long": -81.38918791072955}, {"house_number": "300", "road": "Alma Street", "city": "Kissimmee", "state": "Florida", "postcode": "34741", "lat": 28.294522064308396, "long": -81.41766103042339}, {"house_number": "1349", "road": "Dunbarton Ct", "city": "Poinciana", "state": "Florida", "postcode": "34758", "lat": 28.19250877015665, "long": -81.50203713385106}, {"house_number": "960", "road": "Buckley Drive", "city": "Kissimmee", "state": "Florida", "postcode": "34741", "lat": 28.299264633629175, "long": -81.44912032270355}, {"house_number": "2618", "road": "San Simeon Way", "city": "Kissimmee", "state": "Florida", "postcode": "34741", "lat": 28.327083700764224, "long": -81.44065683822087}, {"house_number": "1651", "road": "North Easy Street", "city": "Kissimmee", "state": "Florida", "postcode": "34741", "lat": 28.316324178217307, "long": -81.42027008995403}, {"house_number": "3238", "road": "Osceola Parkway", "city": "Kissimmee", "state": "Florida", "postcode": "34741", "lat": 28.346055757178835, "long": -81.44217860751878}, {"house_number": "503", "road": "Columbia Avenue", "city": "Saint Cloud", "state": "Florida", "postcode": "34769", "lat": 28.253411512429757, "long": -81.30129454498493}, {"house_number": "192", "road": "Columbia Avenue", "city": "Saint Cloud", "state": "Florida", "postcode": "34769", "lat": 28.25815999658963, "long": -81.30127138231332}, {"house_number": "2051", "road": "Carolyn Court", "city": "Saint Cloud", "state": "Florida", "postcode": "34769", "lat": 28.231007280176833, "long": -81.29199050019248}, {"house_number": "2948", "road": "Old Hickory Tree Road", "city": "Saint Cloud", "state": "Florida", "postcode": "34772", "lat": 28.218145999453387, "long": -81.24783949847455}, {"house_number": "3750", "road": "North Canoe Creek Road", "city": "Saint Cloud", "state": "Florida", "postcode": "34772", "lat": 28.184075939646426, "long": -81.28595606232125}, {"house_number": "3719", "road": "Friars Cove Lane", "city": "Saint Cloud", "state": "Florida", "postcode": "34772", "lat": 28.184241770539785, "long": -81.28788254299467}, {"house_number": "2289", "road": "Canoe Creek Road", "city": "Saint Cloud", "state": "Florida", "postcode": "34769", "lat": 28.229627031526288, "long": -81.29306918971338}, {"house_number": "2863", "road": "Neptune Road", "city": "Saint Cloud", "state": "Florida", "postcode": "34769", "lat": 28.253764695744838, "long": -81.32686790175129}, {"house_number": "351", "road": "Michigan Estates Circle", "city": "Saint Cloud", "state": "Florida", "postcode": "34769", "lat": 28.23272632184981, "long": -81.27330644502474}, {"house_number": "1820", "road": "Missouri Avenue", "city": "Saint Cloud", "state": "Florida", "postcode": "34769", "lat": 28.239144508038542, "long": -81.28900598244675}, {"house_number": "698", "road": "Jenkins Street", "city": "Kissimmee", "state": "Florida", "postcode": "34741", "lat": 28.28525400141147, "long": -81.42773073981755}, {"house_number": "2227", "road": "Grand Cayman Court", "city": "Kissimmee", "state": "Florida", "postcode": "34741", "lat": 28.31280398990957, "long": -81.44840698385174}, {"house_number": "2227", "road": "Grand Cayman Court", "city": "Kissimmee", "state": "Florida", "postcode": "34741", "lat": 28.31280398990957, "long": -81.44840698385174}, {"house_number": "956", "road": "Thacker Avenue", "city": "Kissimmee", "state": "Florida", "postcode": "34741", "lat": 28.28298599638308, "long": -81.42424360633564}, {"house_number": "1514", "road": "Dorado Drive", "city": "Kissimmee", "state": "Florida", "postcode": "34741", "lat": 28.318062273988286, "long": -81.42101212692278}, {"house_number": "2071", "road": "Nowry Lane", "city": "Kissimmee", "state": "Florida", "postcode": "34741", "lat": 28.308704080007427, "long": -81.4256285022786}, {"house_number": "748", "road": "Thacker Avenue", "city": "Kissimmee", "state": "Florida", "postcode": "34741", "lat": 28.284654999999997, "long": -81.42423399999997}, {"house_number": "1381", "road": "Burnley Court", "city": "Poinciana", "state": "Florida", "postcode": "34758", "lat": 28.193629175046517, "long": -81.49761289694462}, {"house_number": "4231", "road": "Sawyers Circle", "city": "Saint Cloud", "state": "Florida", "postcode": "34772", "lat": 28.225740479001615, "long": -81.3151232001245}, {"house_number": "4231", "road": "Sawyers Circle", "city": "Saint Cloud", "state": "Florida", "postcode": "34772", "lat": 28.225740479001615, "long": -81.3151232001245}, {"house_number": "1400", "road": "East Irlo Bronson Memorial Highway", "city": "Saint Cloud", "state": "Florida", "postcode": "34771", "lat": 28.245931708135462, "long": -81.25404149992445}, {"house_number": "3024", "road": "Dillman Drive", "city": "Saint Cloud", "state": "Florida", "postcode": "34769", "lat": 28.230121002827183, "long": -81.29147173309865}, {"house_number": "1748", "road": "Delaware Avenue", "city": "Saint Cloud", "state": "Florida", "postcode": "34769", "lat": 28.24192749999999, "long": -81.27252199999998}, {"house_number": "1710", "road": "Barton Towne Circle", "city": "Saint Cloud", "state": "Florida", "postcode": "34769", "lat": 28.24143844561709, "long": -81.27126277074593}, {"house_number": "1048", "road": "Elm Avenue", "city": "Saint Cloud", "state": "Florida", "postcode": "34769", "lat": 28.248363949609608, "long": -81.30763004741628}, {"house_number": "2750", "road": "King Oak Circle", "city": "Saint Cloud", "state": "Florida", "postcode": "34769", "lat": 28.232682377685286, "long": -81.31671779800877}, {"house_number": "1448", "road": "Hamlin Avenue", "city": "Saint Cloud", "state": "Florida", "postcode": "34771", "lat": 28.243129950807628, "long": -81.2540174982162}, {"house_number": "1963", "road": "Villa Angelo Boulevard", "city": "Saint Cloud", "state": "Florida", "postcode": "34769", "lat": 28.240096001974642, "long": -81.28983530028601}, {"house_number": "2488", "road": "Parsons Pond Circle", "city": "Kissimmee", "state": "Florida", "postcode": "34743", "lat": 28.31664808934295, "long": -81.34229331656218}, {"house_number": "2488", "road": "Parsons Pond Circle", "city": "Kissimmee", "state": "Florida", "postcode": "34743", "lat": 28.31664808934295, "long": -81.34229331656218}, {"house_number": "2899", "road": "East Lakeshore Boulevard", "city": "Saint Cloud", "state": "Florida", "postcode": "34769", "lat": 28.26131556949435, "long": -81.30191109816474}, {"house_number": "3303", "road": "Schoolhouse Road", "city": "Harmony", "state": "Florida", "postcode": "34773", "lat": 28.20221994040529, "long": -81.14744955384897}, {"house_number": "1312", "road": "Banbridge Dr", "city": "Poinciana", "state": "Florida", "postcode": "34758", "lat": 28.190979693896132, "long": -81.50031686439414}, {"house_number": "2020", "road": "Ham Brown Road", "city": "Kissimmee", "state": "Florida", "postcode": "34746", "lat": 28.24370849152049, "long": -81.46246608038264}, {"house_number": "1335", "road": "Dorado Drive", "city": "Kissimmee", "state": "Florida", "postcode": "34741", "lat": 28.317211430743136, "long": -81.41792776935385}, {"house_number": "1335", "road": "Dorado Drive", "city": "Kissimmee", "state": "Florida", "postcode": "34741", "lat": 28.317211430743136, "long": -81.41792776935385}, {"house_number": "2550", "road": "Talega Drive", "city": "Saint Cloud", "state": "Florida", "postcode": "34772", "lat": 28.211120659404493, "long": -81.29645743201888}, {"house_number": "3149", "road": "Michigan Avenue", "city": "Saint Cloud", "state": "Florida", "postcode": "34769", "lat": 28.22911449999999, "long": -81.276688}, {"house_number": "1953", "road": "Peridot Circle", "city": "Kissimmee", "state": "Florida", "postcode": "34743", "lat": 28.316263046775806, "long": -81.36841731928637}, {"house_number": "2724", "road": "Michigan Avenue", "city": "Saint Cloud", "state": "Florida", "postcode": "34769", "lat": 28.23337602789129, "long": -81.27671686577641}, {"house_number": "2700", "road": "Mead Avenue", "city": "Saint Cloud", "state": "Florida", "postcode": "34771", "lat": 28.32895801849593, "long": -81.23454355719483}, {"house_number": "3177", "road": "Michigan Avenue", "city": "Kissimmee", "state": "Florida", "postcode": "34744", "lat": 28.340093567674042, "long": -81.38789553515655}, {"house_number": "2248", "road": "San Christobolo Drive", "city": "Kissimmee", "state": "Florida", "postcode": "34741", "lat": 28.312768498013458, "long": -81.44307215291411}]