[{"house_number": "149", "road": "Northeast Trenton Boulevard", "city": "Trenton", "state": "Florida", "postcode": "32693", "lat": 29.61972710602613, "long": -82.81679977577346}, {"house_number": "552", "road": "Northeast 4th Street", "city": "Trenton", "state": "Florida", "postcode": "32693", "lat": 29.617589003430712, "long": -82.8138916031728}, {"house_number": "551", "road": "Northeast 2nd Street", "city": "Trenton", "state": "Florida", "postcode": "32693", "lat": 29.6164705, "long": -82.8160365}, {"house_number": "349", "road": "Northeast 2nd Avenue", "city": "Trenton", "state": "Florida", "postcode": "32693", "lat": 29.614772190225498, "long": -82.81547047854427}, {"house_number": "349", "road": "Northeast 2nd Avenue", "city": "Trenton", "state": "Florida", "postcode": "32693", "lat": 29.614772190225498, "long": -82.81547047854427}, {"house_number": "1200", "road": "Paris Street", "city": "Bell", "state": "Florida", "postcode": "32619", "lat": 29.754937174593113, "long": -82.8640802040575}, {"house_number": "114", "road": "Main Street", "city": "Trenton", "state": "Florida", "postcode": "32693", "lat": 29.613701510149028, "long": -82.81831260978001}, {"house_number": "7648", "road": "CR 232", "city": "Newberry", "state": "Florida", "postcode": "32693", "lat": 29.725743094758446, "long": -82.67949949495522}, {"house_number": "7648", "road": "CR 232", "city": "Newberry", "state": "Florida", "postcode": "32693", "lat": 29.725743094758446, "long": -82.67949949495522}, {"house_number": "502", "road": "Northeast 7th Street", "city": "Trenton", "state": "Florida", "postcode": "32693", "lat": 29.61627298832065, "long": -82.8108270887233}, {"house_number": "606", "road": "Northeast 7th Street", "city": "Trenton", "state": "Florida", "postcode": "32693", "lat": 29.617061999999994, "long": -82.8108245}, {"house_number": "3449", "road": "Southwest State Road 26", "city": "Trenton", "state": "Florida", "postcode": "32693", "lat": 29.612750831270542, "long": -82.86926473860036}, {"house_number": "3449", "road": "Southwest State Road 26", "city": "Trenton", "state": "Florida", "postcode": "32693", "lat": 29.612750831270542, "long": -82.86926473860036}, {"house_number": "3449", "road": "Southwest State Road 26", "city": "Trenton", "state": "Florida", "postcode": "32693", "lat": 29.612750831270542, "long": -82.86926473860036}, {"house_number": "3449", "road": "Southwest State Road 26", "city": "Trenton", "state": "Florida", "postcode": "32693", "lat": 29.612750831270542, "long": -82.86926473860036}, {"house_number": "349", "road": "Southeast 2nd Street", "city": "Trenton", "state": "Florida", "postcode": "32693", "lat": 29.611651499978542, "long": -82.8159915029281}, {"house_number": "848", "road": "Main Street", "city": "Trenton", "state": "Florida", "postcode": "32693", "lat": 29.608025476562407, "long": -82.8182583900014}, {"house_number": "848", "road": "Main Street", "city": "Trenton", "state": "Florida", "postcode": "32693", "lat": 29.608025476562407, "long": -82.8182583900014}, {"house_number": "599", "road": "Northwest 5th Avenue", "city": "Trenton", "state": "Florida", "postcode": "32693", "lat": 29.616781289557256, "long": -82.82346618681352}, {"house_number": "2552", "road": "Northwest 10th Street", "city": "Bell", "state": "Florida", "postcode": "32619", "lat": 29.752666743394006, "long": -82.84906503280247}, {"house_number": "2771", "road": "Northwest 10th Street", "city": "Bell", "state": "Florida", "postcode": "32619", "lat": 29.752624503649248, "long": -82.85369850003731}, {"house_number": "751", "road": "Northwest 3rd Avenue", "city": "Trenton", "state": "Florida", "postcode": "32693", "lat": 29.615391590655125, "long": -82.82491148950176}, {"house_number": "451", "road": "Northwest 7th Street", "city": "Trenton", "state": "Florida", "postcode": "32693", "lat": 29.615735037573277, "long": -82.82546703965471}, {"house_number": "350", "road": "Northwest 3rd Street", "city": "Trenton", "state": "Florida", "postcode": "32693", "lat": 29.61509149999999, "long": -82.82145999999999}, {"house_number": "751", "road": "Northwest 2nd Avenue", "city": "Trenton", "state": "Florida", "postcode": "32693", "lat": 29.61471238099716, "long": -82.82492414953424}, {"house_number": "899", "road": "Northeast 2nd Avenue", "city": "Trenton", "state": "Florida", "postcode": "32693", "lat": 29.614798066435185, "long": -82.80987450557448}, {"house_number": "351", "road": "Northeast 7th Street", "city": "Trenton", "state": "Florida", "postcode": "32693", "lat": 29.61533644325865, "long": -82.81083987663372}, {"house_number": "351", "road": "Northeast 3rd Street", "city": "Trenton", "state": "Florida", "postcode": "32693", "lat": 29.61511001062363, "long": -82.81491260973594}, {"house_number": "348", "road": "Northeast 5th Street", "city": "Trenton", "state": "Florida", "postcode": "32693", "lat": 29.61531526869803, "long": -82.8130928671354}, {"house_number": "753", "road": "Northeast 2nd Avenue", "city": "Trenton", "state": "Florida", "postcode": "32693", "lat": 29.614790097545093, "long": -82.81143349728723}, {"house_number": "653", "road": "Northeast 2nd Avenue", "city": "Trenton", "state": "Florida", "postcode": "32693", "lat": 29.614787598694104, "long": -82.81255499949661}, {"house_number": "449", "road": "Northeast 2nd Avenue", "city": "Trenton", "state": "Florida", "postcode": "32693", "lat": 29.614788, "long": -82.81460599999998}, {"house_number": "351", "road": "Northwest 4th Street", "city": "Trenton", "state": "Florida", "postcode": "32693", "lat": 29.615069501459796, "long": -82.82274860000851}, {"house_number": "401", "road": "Northwest 2nd Avenue", "city": "Trenton", "state": "Florida", "postcode": "32693", "lat": 29.614738413591517, "long": -82.82210545828903}, {"house_number": "115", "road": "Northwest 2nd Avenue", "city": "Trenton", "state": "Florida", "postcode": "32693", "lat": 29.61505599084491, "long": -82.81916659192478}, {"house_number": "115", "road": "Northwest 2nd Avenue", "city": "Trenton", "state": "Florida", "postcode": "32693", "lat": 29.614779098579305, "long": -82.81875199880649}, {"house_number": "250", "road": "Northeast 2nd Avenue", "city": "Trenton", "state": "Florida", "postcode": "32693", "lat": 29.614754097534476, "long": -82.8165999973215}, {"house_number": "203", "road": "Northeast 2nd Street", "city": "Trenton", "state": "Florida", "postcode": "32693", "lat": 29.614414501444113, "long": -82.81603410189892}, {"house_number": "151", "road": "Northeast 3rd Street", "city": "Trenton", "state": "Florida", "postcode": "32693", "lat": 29.613743499218945, "long": -82.81489201763854}, {"house_number": "508", "road": "East Wade Street", "city": "Trenton", "state": "Florida", "postcode": "32693", "lat": 29.61340524606452, "long": -82.8135844954182}, {"house_number": "650", "road": "Northeast 1st Avenue", "city": "Trenton", "state": "Florida", "postcode": "32693", "lat": 29.61409520964279, "long": -82.81255497683347}, {"house_number": "750", "road": "Northeast 1st Avenue", "city": "Trenton", "state": "Florida", "postcode": "32693", "lat": 29.614094202251053, "long": -82.81138850778156}, {"house_number": "114", "road": "Main Street", "city": "Trenton", "state": "Florida", "postcode": "32693", "lat": 29.614409010693976, "long": -82.81832520511949}, {"house_number": "149", "road": "Northeast 1st Avenue", "city": "Trenton", "state": "Florida", "postcode": "32693", "lat": 29.614065596670606, "long": -82.81659699552522}, {"house_number": "150", "road": "Northeast 1st Avenue", "city": "Trenton", "state": "Florida", "postcode": "32693", "lat": 29.614048591973766, "long": -82.81774099210078}, {"house_number": "119", "road": "Northeast 1st Street", "city": "Trenton", "state": "Florida", "postcode": "32693", "lat": 29.614406001449225, "long": -82.81716210000663}, {"house_number": "351", "road": "Main Street", "city": "Trenton", "state": "Florida", "postcode": "32693", "lat": 29.61510549999999, "long": -82.81833749999998}, {"house_number": "550", "road": "Southwest 2nd Avenue", "city": "Trenton", "state": "Florida", "postcode": "32693", "lat": 29.611968999999988, "long": -82.82292049999998}, {"house_number": "1799", "road": "East Wade Street", "city": "Trenton", "state": "Florida", "postcode": "32693", "lat": 29.613739580339807, "long": -82.8048067541714}, {"house_number": "1799", "road": "East Wade Street", "city": "Trenton", "state": "Florida", "postcode": "32693", "lat": 29.613739580339807, "long": -82.8048067541714}, {"house_number": "115", "road": "Northwest 1st Street", "city": "Trenton", "state": "Florida", "postcode": "32693", "lat": 29.613698750518537, "long": -82.81918703610306}, {"house_number": "109", "road": "West Wade Street", "city": "Trenton", "state": "Florida", "postcode": "32693", "lat": 29.613360595195598, "long": -82.81872799641181}, {"house_number": "549", "road": "Northeast 1st Avenue", "city": "Trenton", "state": "Florida", "postcode": "32693", "lat": 29.61408860834528, "long": -82.81361700309462}, {"house_number": "112", "road": "East Wade Street", "city": "Trenton", "state": "Florida", "postcode": "32693", "lat": 29.613370096977057, "long": -82.81772999737535}, {"house_number": "119", "road": "Northeast 1st Street", "city": "Trenton", "state": "Florida", "postcode": "32693", "lat": 29.613718004319804, "long": -82.81715760353629}, {"house_number": "710", "road": "East Wade Street", "city": "Trenton", "state": "Florida", "postcode": "32693", "lat": 29.613414048777738, "long": -82.81140849523194}, {"house_number": "203", "road": "Northeast 2nd Street", "city": "Trenton", "state": "Florida", "postcode": "32693", "lat": 29.613730017363682, "long": -82.81602470932928}, {"house_number": "229", "road": "East Wade Street", "city": "Trenton", "state": "Florida", "postcode": "32693", "lat": 29.61338159504162, "long": -82.81658649554795}, {"house_number": "449", "road": "Northeast 4th Avenue", "city": "Trenton", "state": "Florida", "postcode": "32693", "lat": 29.615844100019952, "long": -82.81439200291247}, {"house_number": "449", "road": "Northeast 4th Avenue", "city": "Trenton", "state": "Florida", "postcode": "32693", "lat": 29.615844100019952, "long": -82.81439200291247}, {"house_number": "449", "road": "East Wade Street", "city": "Trenton", "state": "Florida", "postcode": "32693", "lat": 29.61339900614294, "long": -82.81455149990583}, {"house_number": "147", "road": "Northeast 4th Street", "city": "Trenton", "state": "Florida", "postcode": "32693", "lat": 29.613746070431155, "long": -82.8140592673608}, {"house_number": "505", "road": "East Wade Street", "city": "Trenton", "state": "Florida", "postcode": "32693", "lat": 29.613395122931138, "long": -82.81413849568297}, {"house_number": "251", "road": "Northeast 3rd Street", "city": "Trenton", "state": "Florida", "postcode": "32693", "lat": 29.614435498580747, "long": -82.81490559929513}, {"house_number": "530", "road": "East Wade Street", "city": "Trenton", "state": "Florida", "postcode": "32693", "lat": 29.61341368578631, "long": -82.81255550539368}, {"house_number": "204", "road": "West Wade Street", "city": "Trenton", "state": "Florida", "postcode": "32693", "lat": 29.6133576605062, "long": -82.8197460006189}, {"house_number": "426", "road": "West Wade Street", "city": "Trenton", "state": "Florida", "postcode": "32693", "lat": 29.61334390552246, "long": -82.82265449675168}, {"house_number": "405", "road": "Southeast 1st Avenue", "city": "Trenton", "state": "Florida", "postcode": "32693", "lat": 29.612711595393865, "long": -82.81453949558252}, {"house_number": "149", "road": "Southwest 1st Street", "city": "Trenton", "state": "Florida", "postcode": "32693", "lat": 29.61302349849627, "long": -82.81915110000224}, {"house_number": "249", "road": "Southeast 1st Avenue", "city": "Trenton", "state": "Florida", "postcode": "32693", "lat": 29.6126925986069, "long": -82.81657999912358}, {"house_number": "149", "road": "Southeast 2nd Street", "city": "Trenton", "state": "Florida", "postcode": "32693", "lat": 29.613042007106287, "long": -82.81601210602035}]