[{"house_number": "747", "road": "Northwest Brady Circle", "city": "Lake City", "state": "Florida", "postcode": "32055", "lat": 30.19616236827119, "long": -82.66599464738351}, {"house_number": "747", "road": "Northwest Brady Circle", "city": "Lake City", "state": "Florida", "postcode": "32055", "lat": 30.19616236827119, "long": -82.66599464738351}, {"house_number": "8477", "road": "NW Lake Jeffery Road", "city": "Lake City", "state": "Florida", "postcode": "32055", "lat": 30.262051016900642, "long": -82.74928840134436}, {"house_number": "306", "road": "Northwest Meadowlark Drive", "city": "Lake City", "state": "Florida", "postcode": "32055", "lat": 30.202318750441776, "long": -82.65757902613845}, {"house_number": "186", "road": "Southeast Mango Way", "city": "Lake City", "state": "Florida", "postcode": "32025", "lat": 30.151814600841607, "long": -82.56785105423445}, {"house_number": "254", "road": "Southeast Mango Way", "city": "Lake City", "state": "Florida", "postcode": "32025", "lat": 30.15301499999999, "long": -82.56785499999998}, {"house_number": "374", "road": "Northwest Dixie Avenue", "city": "Lake City", "state": "Florida", "postcode": "32055", "lat": 30.196995077344052, "long": -82.64203603584288}, {"house_number": "214", "road": "Northwest Patriot Court", "city": "Lake City", "state": "Florida", "postcode": "32055", "lat": 30.23236006553667, "long": -82.67494198388854}, {"house_number": "599", "road": "Southwest Duckett Court", "city": "Lake City", "state": "Florida", "postcode": "32024", "lat": 30.169024986258368, "long": -82.74892631991919}, {"house_number": "142", "road": "Northeast Osburn Way", "city": "Lake City", "state": "Florida", "postcode": "32055", "lat": 30.188369827217088, "long": -82.58329192955118}, {"house_number": "578", "road": "Southwest Duckett Court", "city": "Lake City", "state": "Florida", "postcode": "32024", "lat": 30.168564944689138, "long": -82.75211499999999}, {"house_number": "239", "road": "Southwest Kessler Glen", "city": "Lake City", "state": "Florida", "postcode": "32024", "lat": 30.09144945555704, "long": -82.7086269517175}, {"house_number": "2955", "road": "Southwest Sisters Welcome Road", "city": "Lake City", "state": "Florida", "postcode": "32024", "lat": 30.142831475199994, "long": -82.67392204229289}, {"house_number": "138", "road": "Southwest Duckett Court", "city": "Lake City", "state": "Florida", "postcode": "32024", "lat": 30.162840086366025, "long": -82.75205377547347}, {"house_number": "3643", "road": "Southwest Pinemount Road", "city": "Lake City", "state": "Florida", "postcode": "32024", "lat": 30.161794015491854, "long": -82.75464005499641}, {"house_number": "3643", "road": "Southwest Pinemount Road", "city": "Lake City", "state": "Florida", "postcode": "32024", "lat": 30.161794015491854, "long": -82.75464005499641}, {"house_number": "3575", "road": "Southwest Pinemount Road", "city": "Lake City", "state": "Florida", "postcode": "32024", "lat": 30.16179499999999, "long": -82.75356505879851}, {"house_number": "3575", "road": "Southwest Pinemount Road", "city": "Lake City", "state": "Florida", "postcode": "32024", "lat": 30.16179499999999, "long": -82.75356505879851}, {"house_number": "336", "road": "Southeast Faye Lane", "city": "Lake City", "state": "Florida", "postcode": "32025", "lat": 30.172480780821566, "long": -82.60158490415905}, {"house_number": "448", "road": "Southeast Faye Lane", "city": "Lake City", "state": "Florida", "postcode": "32025", "lat": 30.17243102707674, "long": -82.60416234368887}, {"house_number": "416", "road": "Southwest Duckett Court", "city": "Lake City", "state": "Florida", "postcode": "32024", "lat": 30.16601005201502, "long": -82.75208352371553}, {"house_number": "180", "road": "East Duval Street", "city": "Lake City", "state": "Florida", "postcode": "32055", "lat": 30.18925081111949, "long": -82.6355704813038}, {"house_number": "282", "road": "East Duval Street", "city": "Lake City", "state": "Florida", "postcode": "32055", "lat": 30.18920999999999, "long": -82.63414}, {"house_number": "257", "road": "East Duval Street", "city": "Lake City", "state": "Florida", "postcode": "32055", "lat": 30.189219999999988, "long": -82.63453999999999}, {"house_number": "258", "road": "Southeast Nassau Street", "city": "Lake City", "state": "Florida", "postcode": "32025", "lat": 30.188649999999992, "long": -82.63447649999999}, {"house_number": "258", "road": "Southeast Nassau Street", "city": "Lake City", "state": "Florida", "postcode": "32025", "lat": 30.18865499999999, "long": -82.63467999999997}, {"house_number": "796", "road": "Southeast County Road 252", "city": "Lake City", "state": "Florida", "postcode": "32025", "lat": 30.142524132697705, "long": -82.62733691442561}, {"house_number": "796", "road": "Southeast County Road 252", "city": "Lake City", "state": "Florida", "postcode": "32025", "lat": 30.142524132697705, "long": -82.62733691442561}, {"house_number": "1127", "road": "Southeast County Road 252", "city": "Lake City", "state": "Florida", "postcode": "32025", "lat": 30.140767314376227, "long": -82.62225286030235}, {"house_number": "2665", "road": "Southwest Windchime Place", "city": "Lake City", "state": "Florida", "postcode": "32025", "lat": 30.172778851452133, "long": -82.67993293078706}, {"house_number": "190", "road": "Southwest Amerigo Place", "city": "Lake City", "state": "Florida", "postcode": "32025", "lat": 30.160222988874384, "long": -82.64001502076952}, {"house_number": "213", "road": "Southwest Edgewood Lane", "city": "Lake City", "state": "Florida", "postcode": "32025", "lat": 30.157263569810496, "long": -82.6477001045077}, {"house_number": "169", "road": "Southwest Vermont Way", "city": "Lake City", "state": "Florida", "postcode": "32025", "lat": 30.158135236897166, "long": -82.64870995576001}, {"house_number": "289", "road": "Southwest Edgewood Lane", "city": "Lake City", "state": "Florida", "postcode": "32025", "lat": 30.15716509398995, "long": -82.64936468968051}, {"house_number": "336", "road": "Southwest Edgewood Lane", "city": "Lake City", "state": "Florida", "postcode": "32025", "lat": 30.157094840340164, "long": -82.65058998297627}, {"house_number": "166", "road": "Southwest Mackinaw Way", "city": "Lake City", "state": "Florida", "postcode": "32025", "lat": 30.15806421265873, "long": -82.65000327995484}, {"house_number": "166", "road": "Southwest Mackinaw Way", "city": "Lake City", "state": "Florida", "postcode": "32025", "lat": 30.15806421265873, "long": -82.65000327995484}, {"house_number": "166", "road": "Southwest Mackinaw Way", "city": "Lake City", "state": "Florida", "postcode": "32025", "lat": 30.15806421265873, "long": -82.65000327995484}, {"house_number": "166", "road": "Southwest Mackinaw Way", "city": "Lake City", "state": "Florida", "postcode": "32025", "lat": 30.15806421265873, "long": -82.65000327995484}, {"house_number": "2065", "road": "Southwest State Road 247", "city": "Lake City", "state": "Florida", "postcode": "32024", "lat": 30.157671897710156, "long": -82.68817013596029}, {"house_number": "136", "road": "Southwest Michigan Street", "city": "Lake City", "state": "Florida", "postcode": "32025", "lat": 30.156645997853197, "long": -82.64028003264646}, {"house_number": "168", "road": "Southwest Maryland Lane", "city": "Lake City", "state": "Florida", "postcode": "32025", "lat": 30.155621027166642, "long": -82.64035001683428}, {"house_number": "402", "road": "Southwest Ponce de Leon Avenue", "city": "Lake City", "state": "Florida", "postcode": "32025", "lat": 30.156119999999984, "long": -82.64107499999997}, {"house_number": "402", "road": "Southwest Ponce de Leon Avenue", "city": "Lake City", "state": "Florida", "postcode": "32025", "lat": 30.156119999999984, "long": -82.64107499999997}, {"house_number": "240", "road": "Southwest Maryland Lane", "city": "Lake City", "state": "Florida", "postcode": "32025", "lat": 30.155587148888742, "long": -82.64188486997116}, {"house_number": "2203", "road": "Southwest State Road 247", "city": "Lake City", "state": "Florida", "postcode": "32024", "lat": 30.155820476806394, "long": -82.6901492244427}, {"house_number": "768", "road": "Southwest Troy Street", "city": "Lake City", "state": "Florida", "postcode": "32024", "lat": 30.154840581360002, "long": -82.70247508914612}, {"house_number": "768", "road": "Southwest Troy Street", "city": "Lake City", "state": "Florida", "postcode": "32024", "lat": 30.154840581360002, "long": -82.70247508914612}, {"house_number": "402", "road": "Southwest Ponce de Leon Avenue", "city": "Lake City", "state": "Florida", "postcode": "32025", "lat": 30.15506796364452, "long": -82.64108782358659}, {"house_number": "131", "road": "Northwest Chipmunk Court", "city": "Lake City", "state": "Florida", "postcode": "32055", "lat": 30.20231704249984, "long": -82.71432119316987}, {"house_number": "173", "road": "Northwest Chipmunk Court", "city": "Lake City", "state": "Florida", "postcode": "32055", "lat": 30.20368552193909, "long": -82.71443334925524}, {"house_number": "131", "road": "Northwest Chipmunk Court", "city": "Lake City", "state": "Florida", "postcode": "32055", "lat": 30.20266352342142, "long": -82.71384100818781}, {"house_number": "131", "road": "Northwest Chipmunk Court", "city": "Lake City", "state": "Florida", "postcode": "32055", "lat": 30.20266352342142, "long": -82.71384100818781}, {"house_number": "133", "road": "Northeast Plato Glen", "city": "Lake City", "state": "Florida", "postcode": "32055", "lat": 30.19212762878338, "long": -82.57653056212881}, {"house_number": "370", "road": "Southwest Woodcrest Drive", "city": "Lake City", "state": "Florida", "postcode": "32024", "lat": 30.153894862893463, "long": -82.68560229496349}, {"house_number": "370", "road": "Southwest Woodcrest Drive", "city": "Lake City", "state": "Florida", "postcode": "32024", "lat": 30.153894862893463, "long": -82.68560229496349}, {"house_number": "157", "road": "Southwest Truffles Glen", "city": "Lake City", "state": "Florida", "postcode": "32024", "lat": 30.154868539020413, "long": -82.68471493154739}, {"house_number": "306", "road": "Southwest Woodcrest Drive", "city": "Lake City", "state": "Florida", "postcode": "32024", "lat": 30.154562641825603, "long": -82.68654302427636}, {"house_number": "306", "road": "Southwest Woodcrest Drive", "city": "Lake City", "state": "Florida", "postcode": "32024", "lat": 30.154562641825603, "long": -82.68654302427636}, {"house_number": "244", "road": "SW Woodview Way", "city": "Lake City", "state": "Florida", "postcode": "32024", "lat": 30.15288976624529, "long": -82.68756622254595}, {"house_number": "231", "road": "SW Crest Glen", "city": "Lake City", "state": "Florida", "postcode": "32024", "lat": 30.15228358975085, "long": -82.68593162382693}, {"house_number": "3333", "road": "Southwest Sisters Welcome Road", "city": "Lake City", "state": "Florida", "postcode": "32024", "lat": 30.138284730647253, "long": -82.67690457528425}, {"house_number": "142", "road": "Southwest Festive Glen", "city": "Lake City", "state": "Florida", "postcode": "32024", "lat": 30.13703123151645, "long": -82.6783508357558}, {"house_number": "164", "road": "Southwest Quillings Glen", "city": "Lake City", "state": "Florida", "postcode": "32024", "lat": 30.09141183786015, "long": -82.6762749023362}, {"house_number": "396", "road": "Southwest Douberley Court", "city": "Lake City", "state": "Florida", "postcode": "32024", "lat": 30.091169951936728, "long": -82.68592293185355}, {"house_number": "289", "road": "Southwest Tina Glen", "city": "Lake City", "state": "Florida", "postcode": "32024", "lat": 30.08617768905846, "long": -82.64899566113364}, {"house_number": "239", "road": "Southwest Edward Terrace", "city": "Lake City", "state": "Florida", "postcode": "32024", "lat": 30.085489994564412, "long": -82.65215446725767}, {"house_number": "239", "road": "Southwest Edward Terrace", "city": "Lake City", "state": "Florida", "postcode": "32024", "lat": 30.084374999999994, "long": -82.65216}, {"house_number": "166", "road": "Southwest Kingwood Place", "city": "Lake City", "state": "Florida", "postcode": "32024", "lat": 30.101478756639846, "long": -82.69092506783498}, {"house_number": "423", "road": "Southeast Country Club Road", "city": "Lake City", "state": "Florida", "postcode": "32025", "lat": 30.182939487335513, "long": -82.60953155602085}, {"house_number": "297", "road": "Southeast Hickory Drive", "city": "Lake City", "state": "Florida", "postcode": "32025", "lat": 30.182985483138207, "long": -82.6147310838246}, {"house_number": "297", "road": "Southeast Hickory Drive", "city": "Lake City", "state": "Florida", "postcode": "32025", "lat": 30.182985483138207, "long": -82.6147310838246}, {"house_number": "1344", "road": "SE Baya Drive", "city": "Lake City", "state": "Florida", "postcode": "32025", "lat": 30.18233956558213, "long": -82.6157249837858}, {"house_number": "1344", "road": "SE Baya Drive", "city": "Lake City", "state": "Florida", "postcode": "32025", "lat": 30.18233956558213, "long": -82.6157249837858}, {"house_number": "1344", "road": "SE Baya Drive", "city": "Lake City", "state": "Florida", "postcode": "32025", "lat": 30.182316999265378, "long": -82.61673504280988}, {"house_number": "581", "road": "Southeast Lomond Avenue", "city": "Lake City", "state": "Florida", "postcode": "32025", "lat": 30.182475650152472, "long": -82.61912560024977}, {"house_number": "581", "road": "Southeast Lomond Avenue", "city": "Lake City", "state": "Florida", "postcode": "32025", "lat": 30.182475650152472, "long": -82.61912560024977}, {"house_number": "1214", "road": "SE Baya Drive", "city": "Lake City", "state": "Florida", "postcode": "32025", "lat": 30.182283472846155, "long": -82.61873527855985}, {"house_number": "1214", "road": "SE Baya Drive", "city": "Lake City", "state": "Florida", "postcode": "32025", "lat": 30.182283472846155, "long": -82.61873527855985}, {"house_number": "1214", "road": "SE Baya Drive", "city": "Lake City", "state": "Florida", "postcode": "32025", "lat": 30.182283472846155, "long": -82.61873527855985}, {"house_number": "1234", "road": "SE Baya Drive", "city": "Lake City", "state": "Florida", "postcode": "32025", "lat": 30.182294562594233, "long": -82.61790999246074}, {"house_number": "632", "road": "Southeast Sycamore Terrace", "city": "Lake City", "state": "Florida", "postcode": "32025", "lat": 30.182005899127336, "long": -82.62019979937605}, {"house_number": "632", "road": "Southeast Sycamore Terrace", "city": "Lake City", "state": "Florida", "postcode": "32025", "lat": 30.182005899127336, "long": -82.62019979937605}, {"house_number": "632", "road": "Southeast Sycamore Terrace", "city": "Lake City", "state": "Florida", "postcode": "32025", "lat": 30.182005899127336, "long": -82.62019979937605}, {"house_number": "632", "road": "Southeast Sycamore Terrace", "city": "Lake City", "state": "Florida", "postcode": "32025", "lat": 30.182005899127336, "long": -82.62019979937605}, {"house_number": "653", "road": "Southeast Margaret Drive", "city": "Lake City", "state": "Florida", "postcode": "32025", "lat": 30.181865035076402, "long": -82.61548245989451}, {"house_number": "653", "road": "Southeast Margaret Drive", "city": "Lake City", "state": "Florida", "postcode": "32025", "lat": 30.181865035076402, "long": -82.61548245989451}, {"house_number": "162", "road": "Southeast Montgomery Place", "city": "Lake City", "state": "Florida", "postcode": "32025", "lat": 30.181356383293707, "long": -82.61657563372202}, {"house_number": "162", "road": "Southeast Montgomery Place", "city": "Lake City", "state": "Florida", "postcode": "32025", "lat": 30.181356383293707, "long": -82.61657563372202}, {"house_number": "162", "road": "Southeast Montgomery Place", "city": "Lake City", "state": "Florida", "postcode": "32025", "lat": 30.181356383293707, "long": -82.61657563372202}, {"house_number": "162", "road": "Southeast Montgomery Place", "city": "Lake City", "state": "Florida", "postcode": "32025", "lat": 30.181356383293707, "long": -82.61657563372202}, {"house_number": "1169", "road": "Southeast Magnolia Loop", "city": "Lake City", "state": "Florida", "postcode": "32025", "lat": 30.18151199999999, "long": -82.61907749999999}, {"house_number": "1155", "road": "Southeast Magnolia Loop", "city": "Lake City", "state": "Florida", "postcode": "32025", "lat": 30.181509999999992, "long": -82.61925399999998}, {"house_number": "1155", "road": "Southeast Magnolia Loop", "city": "Lake City", "state": "Florida", "postcode": "32025", "lat": 30.181509999999992, "long": -82.61925399999998}, {"house_number": "1155", "road": "Southeast Magnolia Loop", "city": "Lake City", "state": "Florida", "postcode": "32025", "lat": 30.181509999999992, "long": -82.61925399999998}, {"house_number": "438", "road": "Southeast Llewellyn Avenue", "city": "Lake City", "state": "Florida", "postcode": "32025", "lat": 30.18198868159785, "long": -82.6057120455816}, {"house_number": "438", "road": "Southeast Llewellyn Avenue", "city": "Lake City", "state": "Florida", "postcode": "32025", "lat": 30.18198868159785, "long": -82.6057120455816}, {"house_number": "139", "road": "Southeast Natalie Terrace", "city": "Lake City", "state": "Florida", "postcode": "32025", "lat": 30.181315345141783, "long": -82.60188680247492}, {"house_number": "219", "road": "Southeast Greg Place", "city": "Lake City", "state": "Florida", "postcode": "32025", "lat": 30.181154205923104, "long": -82.60388579793495}, {"house_number": "219", "road": "Southeast Greg Place", "city": "Lake City", "state": "Florida", "postcode": "32025", "lat": 30.181154205923104, "long": -82.60388579793495}, {"house_number": "142", "road": "Southeast Rowand Place", "city": "Lake City", "state": "Florida", "postcode": "32025", "lat": 30.181167369961187, "long": -82.60934033433298}, {"house_number": "142", "road": "Southeast Rowand Place", "city": "Lake City", "state": "Florida", "postcode": "32025", "lat": 30.181167369961187, "long": -82.60934033433298}, {"house_number": "142", "road": "Southeast Rowand Place", "city": "Lake City", "state": "Florida", "postcode": "32025", "lat": 30.181167369961187, "long": -82.60934033433298}, {"house_number": "6037", "road": "West US Highway 90", "city": "Lake City", "state": "Florida", "postcode": "32055", "lat": 30.19305441497781, "long": -82.72906742962294}, {"house_number": "785", "road": "NW Emerald Lakes Drive", "city": "Lake City", "state": "Florida", "postcode": "32055", "lat": 30.19491, "long": -82.72394349999999}, {"house_number": "470", "road": "Southeast Gator Lane", "city": "Lake City", "state": "Florida", "postcode": "32025", "lat": 30.149441519480842, "long": -82.62449823926075}, {"house_number": "353", "road": "Southeast Piute Way", "city": "Lake City", "state": "Florida", "postcode": "32025", "lat": 30.150217235201023, "long": -82.61795471079039}, {"house_number": "9390", "road": "South US Highway 441", "city": "Lake City", "state": "Florida", "postcode": "32025", "lat": 30.06461481681355, "long": -82.59988002172581}, {"house_number": "9390", "road": "South US Highway 441", "city": "Lake City", "state": "Florida", "postcode": "32025", "lat": 30.06461481681355, "long": -82.59988002172581}, {"house_number": "9504", "road": "South US Highway 441", "city": "Lake City", "state": "Florida", "postcode": "32025", "lat": 30.063394812543482, "long": -82.59977944848107}, {"house_number": "9504", "road": "South US Highway 441", "city": "Lake City", "state": "Florida", "postcode": "32025", "lat": 30.063394812543482, "long": -82.59977944848107}, {"house_number": "10044", "road": "South US Highway 441", "city": "Lake City", "state": "Florida", "postcode": "32025", "lat": 30.05519904340149, "long": -82.59911541101464}, {"house_number": "10044", "road": "South US Highway 441", "city": "Lake City", "state": "Florida", "postcode": "32025", "lat": 30.05519904340149, "long": -82.59911541101464}, {"house_number": "10042", "road": "South US Highway 441", "city": "Lake City", "state": "Florida", "postcode": "32025", "lat": 30.056109720764965, "long": -82.59918896255975}, {"house_number": "4718", "road": "Southeast Country Club Road", "city": "Lake City", "state": "Florida", "postcode": "32025", "lat": 30.12198012863571, "long": -82.60464167984158}, {"house_number": "4774", "road": "Southeast Country Club Road", "city": "Lake City", "state": "Florida", "postcode": "32025", "lat": 30.120280085418702, "long": -82.60458749898035}, {"house_number": "50", "road": "Southwest Clements Place", "city": "Lake City", "state": "Florida", "postcode": "32025", "lat": 30.175571936013164, "long": -82.63763887528566}, {"house_number": "205", "road": "Southeast Becky Terrace", "city": "Lake City", "state": "Florida", "postcode": "32025", "lat": 30.18037049175727, "long": -82.60020365821171}, {"house_number": "263", "road": "Northwest Park Drive", "city": "Lake City", "state": "Florida", "postcode": "32055", "lat": 30.18993716995294, "long": -82.7112036827685}, {"house_number": "732", "road": "NW Emerald Lakes Drive", "city": "Lake City", "state": "Florida", "postcode": "32055", "lat": 30.194858544508957, "long": -82.72297482586048}, {"house_number": "368", "road": "Northwest Park Drive", "city": "Lake City", "state": "Florida", "postcode": "32055", "lat": 30.190412410352565, "long": -82.71208060844133}, {"house_number": "757", "road": "NW Zack Drive", "city": "Lake City", "state": "Florida", "postcode": "32055", "lat": 30.1954478231446, "long": -82.72374351115779}, {"house_number": "291", "road": "Southwest Legion Drive", "city": "Lake City", "state": "Florida", "postcode": "32024", "lat": 30.138328870222907, "long": -82.71698967419525}, {"house_number": "542", "road": "Southwest Ridge Street", "city": "Lake City", "state": "Florida", "postcode": "32024", "lat": 30.109466525214902, "long": -82.66673948504862}, {"house_number": "127", "road": "Southwest Greenbrier Court", "city": "Lake City", "state": "Florida", "postcode": "32024", "lat": 30.15507790413636, "long": -82.71585382964646}, {"house_number": "234", "road": "Southeast Damita Glen", "city": "Lake City", "state": "Florida", "postcode": "32025", "lat": 30.103264289574632, "long": -82.60487864312198}, {"house_number": "3559", "road": "Southwest McFarlane Avenue", "city": "Lake City", "state": "Florida", "postcode": "32025", "lat": 30.164164869883887, "long": -82.6448431205726}, {"house_number": "1878", "road": "Southwest McFarlane Avenue", "city": "Lake City", "state": "Florida", "postcode": "32025", "lat": 30.16475999095919, "long": -82.64481974269819}, {"house_number": "360", "road": "Southwest Phillips Circle", "city": "Lake City", "state": "Florida", "postcode": "32024", "lat": 30.163909628628574, "long": -82.70101899515026}, {"house_number": "4042", "road": "Southwest Pinemount Road", "city": "Lake City", "state": "Florida", "postcode": "32024", "lat": 30.16173669090021, "long": -82.76164001878544}, {"house_number": "4290", "road": "Southwest Pinemount Road", "city": "Lake City", "state": "Florida", "postcode": "32024", "lat": 30.1616899468882, "long": -82.76557999878533}, {"house_number": "4290", "road": "Southwest Pinemount Road", "city": "Lake City", "state": "Florida", "postcode": "32024", "lat": 30.1616899468882, "long": -82.76557999878533}, {"house_number": "4156", "road": "Southwest Pinemount Road", "city": "Lake City", "state": "Florida", "postcode": "32024", "lat": 30.16170499999999, "long": -82.76463999999999}, {"house_number": "612", "road": "Southeast Pounds Hammock Road", "city": "Lake City", "state": "Florida", "postcode": "32025", "lat": 30.158722195471043, "long": -82.5675571510458}, {"house_number": "717", "road": "Northwest Fairway Drive", "city": "Lake City", "state": "Florida", "postcode": "32055", "lat": 30.198950733470635, "long": -82.68888583330319}, {"house_number": "271", "road": "Northeast Ark Place", "city": "Lake City", "state": "Florida", "postcode": "32055", "lat": 30.197407929503285, "long": -82.63452468082176}, {"house_number": "271", "road": "Northeast Ark Place", "city": "Lake City", "state": "Florida", "postcode": "32055", "lat": 30.197407929503285, "long": -82.63452468082176}, {"house_number": "271", "road": "Northeast Ark Place", "city": "Lake City", "state": "Florida", "postcode": "32055", "lat": 30.197407929503285, "long": -82.63452468082176}, {"house_number": "271", "road": "Northeast Ark Place", "city": "Lake City", "state": "Florida", "postcode": "32055", "lat": 30.197407929503285, "long": -82.63452468082176}, {"house_number": "271", "road": "Northeast Ark Place", "city": "Lake City", "state": "Florida", "postcode": "32055", "lat": 30.197407929503285, "long": -82.63452468082176}, {"house_number": "175", "road": "Northwest Lee Lane", "city": "Lake City", "state": "Florida", "postcode": "32055", "lat": 30.197759200571117, "long": -82.6385950213175}, {"house_number": "796", "road": "Northeast Sam Court", "city": "Lake City", "state": "Florida", "postcode": "32055", "lat": 30.199354999999986, "long": -82.63654999999999}]