[{"house_number": "18943", "road": "Natures Walk Court", "city": "Fernandina Beach", "state": "Florida", "postcode": "32034", "lat": 30.65453758149389, "long": -81.4469323234685}, {"house_number": "18943", "road": "Natures Walk Court", "city": "Fernandina Beach", "state": "Florida", "postcode": "32034", "lat": 30.65453758149389, "long": -81.4469323234685}, {"house_number": "18943", "road": "Natures Walk Court", "city": "Fernandina Beach", "state": "Florida", "postcode": "32034", "lat": 30.65453758149389, "long": -81.4469323234685}, {"house_number": "96593", "road": "Chester River Road", "city": "Yulee", "state": "Florida", "postcode": "32097", "lat": 30.66643993508808, "long": -81.54116458987234}, {"house_number": "205", "road": "South Fletcher Avenue", "city": "Fernandina Beach", "state": "Florida", "postcode": "32034", "lat": 30.664989397628585, "long": -81.43215173799288}, {"house_number": "2549", "road": "Atlantic Avenue", "city": "Fernandina Beach", "state": "Florida", "postcode": "32034", "lat": 30.6683509158524, "long": -81.43808407083974}, {"house_number": "353", "road": "Citrona Drive", "city": "Fernandina Beach", "state": "Florida", "postcode": "32034", "lat": 30.66430346704153, "long": -81.44410825197401}, {"house_number": "303", "road": "Citrona Drive", "city": "Fernandina Beach", "state": "Florida", "postcode": "32034", "lat": 30.66494196076904, "long": -81.4440197337102}, {"house_number": "349", "road": "Citrona Drive", "city": "Fernandina Beach", "state": "Florida", "postcode": "32034", "lat": 30.66558697512539, "long": -81.44392483208605}, {"house_number": "251", "road": "Citrona Drive", "city": "Fernandina Beach", "state": "Florida", "postcode": "32034", "lat": 30.66619492716133, "long": -81.4438246203308}, {"house_number": "96565", "road": "Chester River Road", "city": "Yulee", "state": "Florida", "postcode": "32097", "lat": 30.664164999999993, "long": -81.54149999999998}, {"house_number": "96565", "road": "Chester River Road", "city": "Yulee", "state": "Florida", "postcode": "32097", "lat": 30.664164999999993, "long": -81.54149999999998}, {"house_number": "254", "road": "Jean Lafitte Boulevard", "city": "Fernandina Beach", "state": "Florida", "postcode": "32034", "lat": 30.664217002477493, "long": -81.4366519650578}, {"house_number": "201", "road": "Jean Lafitte Boulevard", "city": "Fernandina Beach", "state": "Florida", "postcode": "32034", "lat": 30.665162954597005, "long": -81.43609432319211}, {"house_number": "96529", "road": "Chester River Road", "city": "Yulee", "state": "Florida", "postcode": "32097", "lat": 30.664529953577414, "long": -81.54144963080282}, {"house_number": "562", "road": "Citrona Drive", "city": "Fernandina Beach", "state": "Florida", "postcode": "32034", "lat": 30.662337837171876, "long": -81.44469929971059}, {"house_number": "512", "road": "Citrona Drive", "city": "Fernandina Beach", "state": "Florida", "postcode": "32034", "lat": 30.662789999999998, "long": -81.44452999999999}, {"house_number": "37551", "road": "Orange Street", "city": "Hilliard", "state": "Florida", "postcode": "32046", "lat": 30.694027957182858, "long": -81.91809706301163}, {"house_number": "37551", "road": "Orange Street", "city": "Hilliard", "state": "Florida", "postcode": "32046", "lat": 30.694027957182858, "long": -81.91809706301163}, {"house_number": "37551", "road": "Orange Street", "city": "Hilliard", "state": "Florida", "postcode": "32046", "lat": 30.694027957182858, "long": -81.91809706301163}, {"house_number": "37551", "road": "Orange Street", "city": "Hilliard", "state": "Florida", "postcode": "32046", "lat": 30.694027957182858, "long": -81.91809706301163}, {"house_number": "37551", "road": "Orange Street", "city": "Hilliard", "state": "Florida", "postcode": "32046", "lat": 30.694027957182858, "long": -81.91809706301163}, {"house_number": "1512", "road": "Lisa Avenue", "city": "Fernandina Beach", "state": "Florida", "postcode": "32034", "lat": 30.68570091922912, "long": -81.42968696719039}, {"house_number": "27588", "road": "Minnesota Street", "city": "Hilliard", "state": "Florida", "postcode": "32046", "lat": 30.695495015672265, "long": -81.93372964134832}, {"house_number": "2537", "road": "1st Avenue", "city": "Fernandina Beach", "state": "Florida", "postcode": "32034", "lat": 30.63132850858298, "long": -81.43955903204352}, {"house_number": "2537", "road": "1st Avenue", "city": "Fernandina Beach", "state": "Florida", "postcode": "32034", "lat": 30.63132850858298, "long": -81.43955903204352}, {"house_number": "2537", "road": "1st Avenue", "city": "Fernandina Beach", "state": "Florida", "postcode": "32034", "lat": 30.63132850858298, "long": -81.43955903204352}, {"house_number": "2537", "road": "1st Avenue", "city": "Fernandina Beach", "state": "Florida", "postcode": "32034", "lat": 30.63132850858298, "long": -81.43955903204352}, {"house_number": "2537", "road": "1st Avenue", "city": "Fernandina Beach", "state": "Florida", "postcode": "32034", "lat": 30.63132850858298, "long": -81.43955903204352}, {"house_number": "649", "road": "South 13th Street", "city": "Fernandina Beach", "state": "Florida", "postcode": "32034", "lat": 30.661904920040467, "long": -81.45432954696979}, {"house_number": "2350", "road": "Flora Parke Boulevard", "city": "Yulee", "state": "Florida", "postcode": "32034", "lat": 30.614436263115465, "long": -81.5434317085875}, {"house_number": "2350", "road": "Flora Parke Boulevard", "city": "Yulee", "state": "Florida", "postcode": "32034", "lat": 30.614436263115465, "long": -81.5434317085875}, {"house_number": "4049", "road": "Dunewood Place", "city": "Fernandina Beach", "state": "Florida", "postcode": "32034", "lat": 30.609471325283778, "long": -81.44370802869526}, {"house_number": "23448", "road": "Flora Parke Boulevard", "city": "Yulee", "state": "Florida", "postcode": "32034", "lat": 30.615226297073814, "long": -81.54197973799702}, {"house_number": "87384", "road": "Raddin Road", "city": "Yulee", "state": "Florida", "postcode": "32097", "lat": 30.674146876834044, "long": -81.55173017824679}, {"house_number": "149", "road": "13th Terrace North", "city": "Fernandina Beach", "state": "Florida", "postcode": "32034", "lat": 30.67178141431106, "long": -81.45196631061734}, {"house_number": "899", "road": "South 12th Street", "city": "Fernandina Beach", "state": "Florida", "postcode": "32034", "lat": 30.658964886439044, "long": -81.45642926873718}, {"house_number": "3118", "road": "Bailey Road", "city": "Fernandina Beach", "state": "Florida", "postcode": "32034", "lat": 30.62124699481294, "long": -81.46601915412383}, {"house_number": "2749", "road": "West 4th Street", "city": "Fernandina Beach", "state": "Florida", "postcode": "32034", "lat": 30.67583485247193, "long": -81.43188501759568}, {"house_number": "2435", "road": "South 14th Street", "city": "Fernandina Beach", "state": "Florida", "postcode": "32034", "lat": 30.63436499999999, "long": -81.45551999999998}, {"house_number": "87619", "road": "Roses Bluff Road", "city": "Yulee", "state": "Florida", "postcode": "32097", "lat": 30.675940178407966, "long": -81.54774280977836}, {"house_number": "97616", "road": "Chester River Road", "city": "Yulee", "state": "Florida", "postcode": "32097", "lat": 30.684166086463254, "long": -81.5399770877647}, {"house_number": "86419", "road": "Cardinal Street", "city": "Yulee", "state": "Florida", "postcode": "32097", "lat": 30.624005126614875, "long": -81.61013354462732}, {"house_number": "86365", "road": "Sand Hickory Trail", "city": "Yulee", "state": "Florida", "postcode": "32097", "lat": 30.614300914271226, "long": -81.58132472947864}, {"house_number": "45153", "road": "Pine Tree Drive", "city": "Hilliard", "state": "Florida", "postcode": "32046", "lat": 30.68324369236036, "long": -81.91463137271995}, {"house_number": "45153", "road": "Pine Tree Drive", "city": "Hilliard", "state": "Florida", "postcode": "32046", "lat": 30.68324369236036, "long": -81.91463137271995}, {"house_number": "96501", "road": "Starfish Drive", "city": "Yulee", "state": "Florida", "postcode": "32097", "lat": 30.6380485757576, "long": -81.5436976500182}, {"house_number": "86100", "road": "Palm Tree Drive", "city": "Yulee", "state": "Florida", "postcode": "32097", "lat": 30.63084106320284, "long": -81.59681962872921}, {"house_number": "86100", "road": "Palm Tree Drive", "city": "Yulee", "state": "Florida", "postcode": "32097", "lat": 30.63084106320284, "long": -81.59681962872921}, {"house_number": "86100", "road": "Palm Tree Drive", "city": "Yulee", "state": "Florida", "postcode": "32097", "lat": 30.63084106320284, "long": -81.59681962872921}, {"house_number": "86100", "road": "Palm Tree Drive", "city": "Yulee", "state": "Florida", "postcode": "32097", "lat": 30.63084106320284, "long": -81.59681962872921}, {"house_number": "86100", "road": "Palm Tree Drive", "city": "Yulee", "state": "Florida", "postcode": "32097", "lat": 30.63084106320284, "long": -81.59681962872921}, {"house_number": "86100", "road": "Palm Tree Drive", "city": "Yulee", "state": "Florida", "postcode": "32097", "lat": 30.63084106320284, "long": -81.59681962872921}]