[{"house_number": "713", "road": "Bahia Drive", "city": "Saint Augustine Shores", "state": "Florida", "postcode": "32086", "lat": 29.80709218094694, "long": -81.29812407024986}, {"house_number": "551", "road": "Beba Lane", "city": "Saint Augustine Shores", "state": "Florida", "postcode": "32086", "lat": 29.807748478893796, "long": -81.2982535342069}, {"house_number": "782", "road": "Medina Avenue", "city": "Saint Augustine Shores", "state": "Florida", "postcode": "32086", "lat": 29.8100065, "long": -81.29739649999999}, {"house_number": "706", "road": "Medina Court", "city": "Saint Augustine Shores", "state": "Florida", "postcode": "32086", "lat": 29.8069730497096, "long": -81.29727693527647}, {"house_number": "732", "road": "Medina Avenue", "city": "Saint Augustine Shores", "state": "Florida", "postcode": "32086", "lat": 29.80849962971095, "long": -81.2970257483662}, {"house_number": "744", "road": "Bahia Drive", "city": "Saint Augustine Shores", "state": "Florida", "postcode": "32086", "lat": 29.808508907681208, "long": -81.29784271859707}, {"house_number": "774", "road": "Christina Drive", "city": "Saint Augustine Shores", "state": "Florida", "postcode": "32086", "lat": 29.809452515733494, "long": -81.29640961571836}, {"house_number": "774", "road": "Christina Drive", "city": "Saint Augustine Shores", "state": "Florida", "postcode": "32086", "lat": 29.809452515733494, "long": -81.29640961571836}, {"house_number": "41", "road": "Christina Court", "city": "Saint Augustine Shores", "state": "Florida", "postcode": "32086", "lat": 29.810863499999993, "long": -81.29612449999999}, {"house_number": "41", "road": "Christina Court", "city": "Saint Augustine Shores", "state": "Florida", "postcode": "32086", "lat": 29.810863499999993, "long": -81.29612449999999}, {"house_number": "848", "road": "Gilda Drive", "city": "Saint Augustine Shores", "state": "Florida", "postcode": "32086", "lat": 29.811192652276276, "long": -81.29952299020086}, {"house_number": "547", "road": "Rio Court", "city": "Saint Augustine Shores", "state": "Florida", "postcode": "32086", "lat": 29.810810325521974, "long": -81.29975843121464}, {"house_number": "550", "road": "Solo Court", "city": "Saint Augustine Shores", "state": "Florida", "postcode": "32086", "lat": 29.810964038571832, "long": -81.2990016738618}, {"house_number": "653", "road": "Bahia Drive", "city": "Saint Augustine Shores", "state": "Florida", "postcode": "32086", "lat": 29.80601417026834, "long": -81.298129011812}, {"house_number": "630", "road": "Bianca Circle East", "city": "Saint Augustine Shores", "state": "Florida", "postcode": "32086", "lat": 29.804581799882673, "long": -81.29629392797204}, {"house_number": "451", "road": "Linda Court", "city": "Saint Augustine Shores", "state": "Florida", "postcode": "32086", "lat": 29.79763578651219, "long": -81.30884556266784}, {"house_number": "485", "road": "Graciela Circle", "city": "Saint Augustine Shores", "state": "Florida", "postcode": "32086", "lat": 29.79672154532937, "long": -81.31427482019359}, {"house_number": "318", "road": "Graciela Circle", "city": "Saint Augustine Shores", "state": "Florida", "postcode": "32086", "lat": 29.79255076974299, "long": -81.31518926211035}, {"house_number": "293", "road": "Rosa Court", "city": "Saint Augustine Shores", "state": "Florida", "postcode": "32086", "lat": 29.792601184678436, "long": -81.31638365066524}, {"house_number": "456", "road": "Graciela Circle", "city": "Saint Augustine Shores", "state": "Florida", "postcode": "32086", "lat": 29.7967205, "long": -81.31607499999998}, {"house_number": "450", "road": "Gloria Street", "city": "Saint Augustine Shores", "state": "Florida", "postcode": "32086", "lat": 29.795987550944435, "long": -81.31468625137396}, {"house_number": "366", "road": "Graciela Circle", "city": "Saint Augustine Shores", "state": "Florida", "postcode": "32086", "lat": 29.7925514422126, "long": -81.31767377255326}, {"house_number": "399", "road": "Cassandra Lane", "city": "Saint Augustine Shores", "state": "Florida", "postcode": "32086", "lat": 29.79498531451588, "long": -81.31733475758564}, {"house_number": "561", "road": "Boxwood Place", "city": "Saint Augustine Shores", "state": "Florida", "postcode": "32086", "lat": 29.8103615, "long": -81.319422}, {"house_number": "709", "road": "Crestwood Drive", "city": "Saint Augustine Shores", "state": "Florida", "postcode": "32086", "lat": 29.81037043028495, "long": -81.31882919798271}, {"house_number": "929", "road": "Ridgewood Lane", "city": "Saint Augustine Shores", "state": "Florida", "postcode": "32086", "lat": 29.80919014627101, "long": -81.31800932023651}, {"house_number": "250", "road": "Box Hall Court", "city": "Fruit Cove", "state": "Florida", "postcode": "32259", "lat": 30.124274999999997, "long": -81.6094205}, {"house_number": "240", "road": "Cacique Drive", "city": "Saint Augustine Shores", "state": "Florida", "postcode": "32086", "lat": 29.78743056758174, "long": -81.31104103305539}, {"house_number": "255", "road": "Cacique Drive", "city": "Saint Augustine Shores", "state": "Florida", "postcode": "32086", "lat": 29.788001999999988, "long": -81.311627}, {"house_number": "252", "road": "Cacique Drive", "city": "Saint Augustine Shores", "state": "Florida", "postcode": "32086", "lat": 29.788338499999995, "long": -81.311877}, {"house_number": "279", "road": "Cacique Drive", "city": "Saint Augustine Shores", "state": "Florida", "postcode": "32086", "lat": 29.789388146639126, "long": -81.31265914239677}, {"house_number": "830", "road": "Cloudberry Branch Way", "city": "Fruit Cove", "state": "Florida", "postcode": "32259", "lat": 30.094400961327647, "long": -81.59191876608206}, {"house_number": "774", "road": "Nottingham Forest Circle", "city": "Fruit Cove", "state": "Florida", "postcode": "32259", "lat": 30.067127282416536, "long": -81.64964963005575}, {"house_number": "759", "road": "Nottingham Forest Court", "city": "Fruit Cove", "state": "Florida", "postcode": "32259", "lat": 30.067681, "long": -81.64946299999998}, {"house_number": "407", "road": "Oak Pond Drive", "city": "Fruit Cove", "state": "Florida", "postcode": "32259", "lat": 30.11389548699535, "long": -81.61963219577459}, {"house_number": "198", "road": "Nottingham Drive East", "city": "Fruit Cove", "state": "Florida", "postcode": "32259", "lat": 30.079381523964827, "long": -81.61235964164278}, {"house_number": "711", "road": "A1A Beach Boulevard", "city": "Saint Augustine Beach", "state": "Florida", "postcode": "32084", "lat": 29.8431245, "long": -81.26736899999997}, {"house_number": "51", "road": "D Lane", "city": "Saint Augustine Beach", "state": "Florida", "postcode": "32080", "lat": 29.84296249999999, "long": -81.26670199999998}, {"house_number": "1760", "road": "Southcreek Drive", "city": "Fruit Cove", "state": "Florida", "postcode": "32259", "lat": 30.076054430192443, "long": -81.61769165200178}, {"house_number": "1649", "road": "Rebecca Court", "city": "Fruit Cove", "state": "Florida", "postcode": "32259", "lat": 30.07772771879659, "long": -81.61940149126598}, {"house_number": "274", "road": "Water's Edge Drive South", "city": "Ponte Vedra Beach", "state": "Florida", "postcode": "32082", "lat": 30.207840375405638, "long": -81.4028235863292}, {"house_number": "274", "road": "Water's Edge Drive South", "city": "Ponte Vedra Beach", "state": "Florida", "postcode": "32082", "lat": 30.207840375405638, "long": -81.4028235863292}, {"house_number": "274", "road": "Water's Edge Drive South", "city": "Ponte Vedra Beach", "state": "Florida", "postcode": "32082", "lat": 30.207840375405638, "long": -81.4028235863292}, {"house_number": "6", "road": "Kingfish Avenue", "city": "Ponte Vedra Beach", "state": "Florida", "postcode": "32082", "lat": 30.23653199999999, "long": -81.3915715}, {"house_number": "29", "road": "Dolphin Boulevard East", "city": "Ponte Vedra Beach", "state": "Florida", "postcode": "32082", "lat": 30.235611384496984, "long": -81.39114229389523}, {"house_number": "7", "road": "Seatrout Street", "city": "Ponte Vedra Beach", "state": "Florida", "postcode": "32082", "lat": 30.2355590361279, "long": -81.39035214833176}, {"house_number": "148", "road": "Bluefish Avenue", "city": "Ponte Vedra Beach", "state": "Florida", "postcode": "32082", "lat": 30.234693816075662, "long": -81.3915014981254}, {"house_number": "148", "road": "Bluefish Avenue", "city": "Ponte Vedra Beach", "state": "Florida", "postcode": "32082", "lat": 30.234693816075662, "long": -81.3915014981254}, {"house_number": "118", "road": "Bluefish Avenue", "city": "Ponte Vedra Beach", "state": "Florida", "postcode": "32082", "lat": 30.23469199999999, "long": -81.3907845}, {"house_number": "54", "road": "Sea Bass Lane", "city": "Ponte Vedra Beach", "state": "Florida", "postcode": "32082", "lat": 30.234056650536, "long": -81.3874683566476}, {"house_number": "151", "road": "San Juan Drive", "city": "Ponte Vedra Beach", "state": "Florida", "postcode": "32082", "lat": 30.244301392144024, "long": -81.38481236667907}, {"house_number": "214", "road": "Segovia Road", "city": "Saint Augustine South", "state": "Florida", "postcode": "32086", "lat": 29.845218, "long": -81.32099749999998}, {"house_number": "250", "road": "Mimosa Road", "city": "Saint Augustine South", "state": "Florida", "postcode": "32086", "lat": 29.842531548392866, "long": -81.30958463495828}, {"house_number": "203", "road": "Mimosa Road", "city": "Saint Augustine South", "state": "Florida", "postcode": "32086", "lat": 29.844732695036708, "long": -81.30978750625296}, {"house_number": "2556", "road": "Shore Drive", "city": "Saint Augustine South", "state": "Florida", "postcode": "32086", "lat": 29.842685444877294, "long": -81.30793794575017}, {"house_number": "2506", "road": "Shore Drive", "city": "Saint Augustine South", "state": "Florida", "postcode": "32086", "lat": 29.845146459228793, "long": -81.3086088288092}, {"house_number": "848", "road": "Gerona Road", "city": "Saint Augustine South", "state": "Florida", "postcode": "32086", "lat": 29.842631604303772, "long": -81.30877389156278}, {"house_number": "594", "road": "Felix Court", "city": "Saint Augustine Shores", "state": "Florida", "postcode": "32086", "lat": 29.8030451693469, "long": -81.30046221929723}, {"house_number": "794", "road": "Gilda Drive", "city": "Saint Augustine Shores", "state": "Florida", "postcode": "32086", "lat": 29.81045699999999, "long": -81.29929649999998}, {"house_number": "782", "road": "Bahia Drive", "city": "Saint Augustine Shores", "state": "Florida", "postcode": "32086", "lat": 29.809925797510918, "long": -81.29847352624407}, {"house_number": "649", "road": "Bahia Court", "city": "Saint Augustine Shores", "state": "Florida", "postcode": "32086", "lat": 29.805135671350286, "long": -81.29738888794385}, {"house_number": "728", "road": "Gilda Drive", "city": "Saint Augustine Shores", "state": "Florida", "postcode": "32086", "lat": 29.807503620104598, "long": -81.29893426299896}, {"house_number": "753", "road": "Saco Court", "city": "Saint Augustine Shores", "state": "Florida", "postcode": "32086", "lat": 29.80769356504657, "long": -81.2996862517053}, {"house_number": "198", "road": "Vista Grande Drive", "city": "Ponte Vedra Beach", "state": "Florida", "postcode": "32082", "lat": 30.2421225, "long": -81.393573}, {"house_number": "595", "road": "Boardwalk Drive", "city": "Ponte Vedra Beach", "state": "Florida", "postcode": "32082", "lat": 30.249949499999992, "long": -81.39793449999999}, {"house_number": "322", "road": "Wildwood Drive", "city": "Saint Augustine Shores", "state": "Florida", "postcode": "32086", "lat": 29.8147875409596, "long": -81.33021499824795}]