[{"house_number": "2516", "road": "7th Avenue West", "city": "Bradenton", "state": "Florida", "postcode": "34205", "lat": 27.493762499999995, "long": -82.586669}, {"house_number": "1210", "road": "57th Avenue West", "city": "Bradenton", "state": "Florida", "postcode": "34207", "lat": 27.440333499999994, "long": -82.57403149999999}, {"house_number": "5714", "road": "14th Street West", "city": "Bradenton", "state": "Florida", "postcode": "34207", "lat": 27.439244, "long": -82.57543499999998}, {"house_number": "4181", "road": "38th Avenue West", "city": "Bradenton", "state": "Florida", "postcode": "34205", "lat": 27.46831981971807, "long": -82.6028418615855}, {"house_number": "3848", "road": "41st Street Court West", "city": "Bradenton", "state": "Florida", "postcode": "34205", "lat": 27.4679725, "long": -82.602586}, {"house_number": "2849", "road": "9th Avenue East", "city": "Bradenton", "state": "Florida", "postcode": "34208", "lat": 27.491428499999998, "long": -82.52816999999999}, {"house_number": "2949", "road": "9th Avenue East", "city": "Bradenton", "state": "Florida", "postcode": "34208", "lat": 27.49142749999999, "long": -82.5272155}, {"house_number": "1248", "road": "30th Street Court East", "city": "Bradenton", "state": "Florida", "postcode": "34208", "lat": 27.488500999999992, "long": -82.526259}, {"house_number": "3062", "road": "11th Avenue East", "city": "Bradenton", "state": "Florida", "postcode": "34208", "lat": 27.489577294982947, "long": -82.52512561259482}, {"house_number": "3247", "road": "11th Avenue East", "city": "Bradenton", "state": "Florida", "postcode": "34208", "lat": 27.489535619122755, "long": -82.52356289866542}, {"house_number": "3042", "road": "27th Street East", "city": "Bradenton", "state": "Florida", "postcode": "34208", "lat": 27.476736499999994, "long": -82.53018299999998}, {"house_number": "3042", "road": "27th Street East", "city": "Bradenton", "state": "Florida", "postcode": "34208", "lat": 27.476736499999994, "long": -82.53018299999998}, {"house_number": "3556", "road": "27th Street East", "city": "Bradenton", "state": "Florida", "postcode": "34208", "lat": 27.468312999999995, "long": -82.53019749999999}, {"house_number": "2449", "road": "13th Avenue East", "city": "Bradenton", "state": "Florida", "postcode": "34208", "lat": 27.48778649999999, "long": -82.53386699999999}, {"house_number": "3356", "road": "26th Avenue East", "city": "Bradenton", "state": "Florida", "postcode": "34208", "lat": 27.476734500000003, "long": -82.5207145}, {"house_number": "136", "road": "15th Avenue Circle West", "city": "Bradenton", "state": "Florida", "postcode": "34205", "lat": 27.486141756890884, "long": -82.56377392047384}, {"house_number": "136", "road": "15th Avenue Circle West", "city": "Bradenton", "state": "Florida", "postcode": "34205", "lat": 27.486141756890884, "long": -82.56377392047384}, {"house_number": "991", "road": "44th Street East", "city": "Bradenton", "state": "Florida", "postcode": "34208", "lat": 27.489924420656134, "long": -82.50436304879855}, {"house_number": "4250", "road": "11th Avenue East", "city": "Bradenton", "state": "Florida", "postcode": "34208", "lat": 27.48991738647992, "long": -82.50644787977511}, {"house_number": "1000", "road": "45th Street East", "city": "Bradenton", "state": "Florida", "postcode": "34208", "lat": 27.489744853163508, "long": -82.50367356311978}, {"house_number": "1650", "road": "17th Avenue West", "city": "Bradenton", "state": "Florida", "postcode": "34205", "lat": 27.484553499999993, "long": -82.5779445}, {"house_number": "1848", "road": "17th Street West", "city": "Bradenton", "state": "Florida", "postcode": "34205", "lat": 27.4835232905697, "long": -82.57853043110151}, {"house_number": "1650", "road": "18th Avenue West", "city": "Bradenton", "state": "Florida", "postcode": "34205", "lat": 27.483718500000002, "long": -82.5779455}, {"house_number": "1898", "road": "17th Street West", "city": "Bradenton", "state": "Florida", "postcode": "34205", "lat": 27.483322999999988, "long": -82.57853949999999}, {"house_number": "1713", "road": "18th Avenue Drive West", "city": "Bradenton", "state": "Florida", "postcode": "34205", "lat": 27.483289472383504, "long": -82.57829374238713}, {"house_number": "1848", "road": "16th Street Court West", "city": "Bradenton", "state": "Florida", "postcode": "34205", "lat": 27.482897499999996, "long": -82.57804049999997}, {"house_number": "1638", "road": "18th Avenue Drive West", "city": "Bradenton", "state": "Florida", "postcode": "34205", "lat": 27.483281499999997, "long": -82.577704}, {"house_number": "1550", "road": "19th Avenue West", "city": "Bradenton", "state": "Florida", "postcode": "34205", "lat": 27.482506499999996, "long": -82.57734599999999}, {"house_number": "1500", "road": "25th Avenue Drive West", "city": "Bradenton", "state": "Florida", "postcode": "34205", "lat": 27.477630499999993, "long": -82.57663299999999}, {"house_number": "1748", "road": "16th Street West", "city": "Bradenton", "state": "Florida", "postcode": "34205", "lat": 27.484128499999994, "long": -82.5773615}, {"house_number": "1550", "road": "17th Avenue West", "city": "Bradenton", "state": "Florida", "postcode": "34205", "lat": 27.484538, "long": -82.5768175}, {"house_number": "1550", "road": "18th Avenue West", "city": "Bradenton", "state": "Florida", "postcode": "34205", "lat": 27.483704499999998, "long": -82.576832}, {"house_number": "1450", "road": "17th Avenue West", "city": "Bradenton", "state": "Florida", "postcode": "34205", "lat": 27.484526025822376, "long": -82.57579697219374}, {"house_number": "1760", "road": "15th Street West", "city": "Bradenton", "state": "Florida", "postcode": "34205", "lat": 27.483902999999998, "long": -82.576298}, {"house_number": "1450", "road": "17th Avenue Drive West", "city": "Bradenton", "state": "Florida", "postcode": "34205", "lat": 27.484108499999998, "long": -82.5758085}, {"house_number": "1824", "road": "15th Street West", "city": "Bradenton", "state": "Florida", "postcode": "34205", "lat": 27.483489000000002, "long": -82.5763035}, {"house_number": "1450", "road": "18th Avenue West", "city": "Bradenton", "state": "Florida", "postcode": "34205", "lat": 27.483692499999997, "long": -82.5758155}, {"house_number": "1550", "road": "18th Avenue Drive West", "city": "Bradenton", "state": "Florida", "postcode": "34205", "lat": 27.4832805, "long": -82.57701499999999}, {"house_number": "1874", "road": "15th Street West", "city": "Bradenton", "state": "Florida", "postcode": "34205", "lat": 27.482892999999997, "long": -82.57666449999999}, {"house_number": "1465", "road": "18th Avenue Drive West", "city": "Bradenton", "state": "Florida", "postcode": "34205", "lat": 27.4832825, "long": -82.57648699999999}, {"house_number": "1350", "road": "13th Avenue West", "city": "Bradenton", "state": "Florida", "postcode": "34205", "lat": 27.488176499999998, "long": -82.5746015}, {"house_number": "1448", "road": "14th Street West", "city": "Bradenton", "state": "Florida", "postcode": "34205", "lat": 27.486567, "long": -82.5753015}, {"house_number": "1548", "road": "14th Street West", "city": "Bradenton", "state": "Florida", "postcode": "34205", "lat": 27.4854985, "long": -82.575312}, {"house_number": "1350", "road": "16th Avenue West", "city": "Bradenton", "state": "Florida", "postcode": "34205", "lat": 27.4850945, "long": -82.5746245}, {"house_number": "1648", "road": "14th Street West", "city": "Bradenton", "state": "Florida", "postcode": "34205", "lat": 27.484808, "long": -82.57531900000001}, {"house_number": "1354", "road": "15th Avenue West", "city": "Bradenton", "state": "Florida", "postcode": "34205", "lat": 27.48607392976889, "long": -82.57428809763888}, {"house_number": "1348", "road": "13th Street West", "city": "Bradenton", "state": "Florida", "postcode": "34205", "lat": 27.487502499999998, "long": -82.5739165}, {"house_number": "1448", "road": "13th Street West", "city": "Bradenton", "state": "Florida", "postcode": "34205", "lat": 27.486450499999993, "long": -82.573924}, {"house_number": "1200", "road": "14th Avenue West", "city": "Bradenton", "state": "Florida", "postcode": "34205", "lat": 27.486835, "long": -82.5732395}, {"house_number": "1250", "road": "13th Avenue West", "city": "Bradenton", "state": "Florida", "postcode": "34205", "lat": 27.4881625, "long": -82.573579}, {"house_number": "1548", "road": "13th Street West", "city": "Bradenton", "state": "Florida", "postcode": "34205", "lat": 27.4855765, "long": -82.57393099999999}, {"house_number": "1200", "road": "15th Avenue West", "city": "Bradenton", "state": "Florida", "postcode": "34205", "lat": 27.4860635, "long": -82.573247}, {"house_number": "1648", "road": "13th Street West", "city": "Bradenton", "state": "Florida", "postcode": "34205", "lat": 27.4847875, "long": -82.573937}, {"house_number": "1200", "road": "16th Avenue West", "city": "Bradenton", "state": "Florida", "postcode": "34205", "lat": 27.485084499999996, "long": -82.5732515}, {"house_number": "1350", "road": "18th Avenue West", "city": "Bradenton", "state": "Florida", "postcode": "34205", "lat": 27.483413499999997, "long": -82.57463849999999}, {"house_number": "1450", "road": "19th Avenue West", "city": "Bradenton", "state": "Florida", "postcode": "34205", "lat": 27.482498529889295, "long": -82.57599490664191}, {"house_number": "1905", "road": "14th Street West", "city": "Bradenton", "state": "Florida", "postcode": "34205", "lat": 27.4822775, "long": -82.575333}, {"house_number": "1351", "road": "19th Avenue West", "city": "Bradenton", "state": "Florida", "postcode": "34205", "lat": 27.482059, "long": -82.574908}, {"house_number": "1914", "road": "14th Street West", "city": "Bradenton", "state": "Florida", "postcode": "34205", "lat": 27.4819435, "long": -82.575336}, {"house_number": "1350", "road": "19th Avenue West", "city": "Bradenton", "state": "Florida", "postcode": "34205", "lat": 27.482053, "long": -82.57421399999998}, {"house_number": "1998", "road": "13th Street West", "city": "Bradenton", "state": "Florida", "postcode": "34205", "lat": 27.481422, "long": -82.57448249999999}, {"house_number": "1200", "road": "17th Avenue West", "city": "Bradenton", "state": "Florida", "postcode": "34205", "lat": 27.484464, "long": -82.5732605}, {"house_number": "1848", "road": "13th Street West", "city": "Bradenton", "state": "Florida", "postcode": "34205", "lat": 27.482726, "long": -82.57394699999999}, {"house_number": "1252", "road": "19th Avenue West", "city": "Bradenton", "state": "Florida", "postcode": "34205", "lat": 27.482052, "long": -82.57377799999999}, {"house_number": "849", "road": "11th Street East", "city": "Bradenton", "state": "Florida", "postcode": "34208", "lat": 27.49226627697855, "long": -82.5521278847445}, {"house_number": "1049", "road": "Martin Luther King Avenue East", "city": "Bradenton", "state": "Florida", "postcode": "34208", "lat": 27.491609999999987, "long": -82.55275900000001}, {"house_number": "1049", "road": "Martin Luther King Avenue East", "city": "Bradenton", "state": "Florida", "postcode": "34208", "lat": 27.491609999999987, "long": -82.55275900000001}, {"house_number": "1149", "road": "Martin Luther King Avenue East", "city": "Bradenton", "state": "Florida", "postcode": "34208", "lat": 27.49160099999999, "long": -82.55140449999999}, {"house_number": "1149", "road": "Martin Luther King Avenue East", "city": "Bradenton", "state": "Florida", "postcode": "34208", "lat": 27.49160099999999, "long": -82.55140449999999}, {"house_number": "650", "road": "12th Street East", "city": "Bradenton", "state": "Florida", "postcode": "34208", "lat": 27.494079, "long": -82.55049149999999}, {"house_number": "748", "road": "12th Street East", "city": "Bradenton", "state": "Florida", "postcode": "34208", "lat": 27.493424499999996, "long": -82.5504755}, {"house_number": "1149", "road": "8th Avenue East", "city": "Bradenton", "state": "Florida", "postcode": "34208", "lat": 27.492916999999984, "long": -82.55134000000001}, {"house_number": "848", "road": "12th Street East", "city": "Bradenton", "state": "Florida", "postcode": "34208", "lat": 27.492575, "long": -82.5504635}, {"house_number": "1249", "road": "8th Avenue East", "city": "Bradenton", "state": "Florida", "postcode": "34208", "lat": 27.49291, "long": -82.5499955}, {"house_number": "1149", "road": "8th Avenue Drive East", "city": "Bradenton", "state": "Florida", "postcode": "34208", "lat": 27.492239499999997, "long": -82.5508555}, {"house_number": "861", "road": "12th Street East", "city": "Bradenton", "state": "Florida", "postcode": "34208", "lat": 27.491915000000002, "long": -82.55045}, {"house_number": "2148", "road": "16th Avenue East", "city": "Bradenton", "state": "Florida", "postcode": "34208", "lat": 27.483567114111768, "long": -82.53894878395106}, {"house_number": "2148", "road": "16th Avenue East", "city": "Bradenton", "state": "Florida", "postcode": "34208", "lat": 27.483567114111768, "long": -82.53894878395106}, {"house_number": "1911", "road": "30th Avenue East", "city": "Bradenton", "state": "Florida", "postcode": "34208", "lat": 27.473216999999988, "long": -82.5416055}, {"house_number": "2248", "road": "Avenue C", "city": "Brandenton Beach", "state": "Florida", "postcode": "34217", "lat": 27.478428, "long": -82.7029825}, {"house_number": "2214", "road": "Avenue B", "city": "Bradenton Beach", "state": "Florida", "postcode": "34217", "lat": 27.4785945, "long": -82.702203}, {"house_number": "457", "road": "24th Street North", "city": "Brandenton Beach", "state": "Florida", "postcode": "34217", "lat": 27.4809191222386, "long": -82.70224549451972}, {"house_number": "301", "road": "23rd Street North", "city": "Brandenton Beach", "state": "Florida", "postcode": "34217", "lat": 27.479370499999998, "long": -82.70221099999999}, {"house_number": "402", "road": "23rd Street North", "city": "Brandenton Beach", "state": "Florida", "postcode": "34217", "lat": 27.479454499999996, "long": -82.701826}, {"house_number": "402", "road": "23rd Street North", "city": "Brandenton Beach", "state": "Florida", "postcode": "34217", "lat": 27.479454499999996, "long": -82.701826}, {"house_number": "2088", "road": "Gulf Drive North", "city": "Brandenton Beach", "state": "Florida", "postcode": "34217", "lat": 27.477103273143932, "long": -82.70303949982218}, {"house_number": "150", "road": "22nd Street North", "city": "Brandenton Beach", "state": "Florida", "postcode": "34217", "lat": 27.477610499999997, "long": -82.7031695}, {"house_number": "2148", "road": "Avenue C", "city": "Brandenton Beach", "state": "Florida", "postcode": "34217", "lat": 27.477189321491334, "long": -82.70264154971956}, {"house_number": "1898", "road": "Gulf Drive North", "city": "Brandenton Beach", "state": "Florida", "postcode": "34217", "lat": 27.475742685184706, "long": -82.70218983030428}, {"house_number": "250", "road": "22nd Street North", "city": "Brandenton Beach", "state": "Florida", "postcode": "34217", "lat": 27.477776000000002, "long": -82.7023925}, {"house_number": "2148", "road": "Avenue B", "city": "Brandenton Beach", "state": "Florida", "postcode": "34217", "lat": 27.477238000000003, "long": -82.7018305}, {"house_number": "350", "road": "22nd Street North", "city": "Brandenton Beach", "state": "Florida", "postcode": "34217", "lat": 27.477937999999998, "long": -82.70161999999999}, {"house_number": "2152", "road": "Avenue A North", "city": "Brandenton Beach", "state": "Florida", "postcode": "34217", "lat": 27.477348999999997, "long": -82.7010675}, {"house_number": "2152", "road": "Avenue A North", "city": "Brandenton Beach", "state": "Florida", "postcode": "34217", "lat": 27.477348999999997, "long": -82.7010675}, {"house_number": "2103", "road": "Avenue A North", "city": "Brandenton Beach", "state": "Florida", "postcode": "34217", "lat": 27.476915499999997, "long": -82.70094799999997}, {"house_number": "2103", "road": "Avenue A North", "city": "Brandenton Beach", "state": "Florida", "postcode": "34217", "lat": 27.476915499999997, "long": -82.70094799999997}, {"house_number": "144", "road": "23rd Street North", "city": "Brandenton Beach", "state": "Florida", "postcode": "34217", "lat": 27.478959999999997, "long": -82.70416549999999}, {"house_number": "1312", "road": "Gulf Drive North", "city": "Brandenton Beach", "state": "Florida", "postcode": "34217", "lat": 27.4730555, "long": -82.7012635}, {"house_number": "1106", "road": "Gulf Drive North", "city": "Brandenton Beach", "state": "Florida", "postcode": "34217", "lat": 27.471941000000005, "long": -82.7008785}]