[{"house_number": "748", "road": "Southeast 9th Ave", "city": "Okeechobee", "state": "Florida", "postcode": "34974", "lat": 27.236993000191625, "long": -80.82022083462319}, {"house_number": "698", "road": "Northwest 7th Avenue", "city": "Okeechobee", "state": "Florida", "postcode": "34972", "lat": 27.244252499999995, "long": -80.83683149999999}, {"house_number": "650", "road": "Northwest 3rd Avenue", "city": "Okeechobee", "state": "Florida", "postcode": "34972", "lat": 27.24952449976325, "long": -80.83224120075354}, {"house_number": "250", "road": "Northwest 3rd Street", "city": "Okeechobee", "state": "Florida", "postcode": "34972", "lat": 27.2458125, "long": -80.83166499999999}, {"house_number": "150", "road": "Northwest 3rd Street", "city": "Okeechobee", "state": "Florida", "postcode": "34972", "lat": 27.245814999999997, "long": -80.8304995}, {"house_number": "450", "road": "Northwest 3rd Street", "city": "Okeechobee", "state": "Florida", "postcode": "34972", "lat": 27.245807999999997, "long": -80.833946}, {"house_number": "550", "road": "Northwest 3rd Street", "city": "Okeechobee", "state": "Florida", "postcode": "34972", "lat": 27.245805999999998, "long": -80.83508549999999}, {"house_number": "628", "road": "Northwest 2nd Street", "city": "Okeechobee", "state": "Florida", "postcode": "34972", "lat": 27.24475449999999, "long": -80.83598849999998}, {"house_number": "678", "road": "Northwest 2nd Street", "city": "Okeechobee", "state": "Florida", "postcode": "34972", "lat": 27.2447585612464, "long": -80.83657901616813}, {"house_number": "2229", "road": "Northwest 9th Avenue", "city": "Okeechobee", "state": "Florida", "postcode": "34972", "lat": 27.26026914281368, "long": -80.83879529440553}, {"house_number": "853", "road": "Southeast 6th Street", "city": "Okeechobee", "state": "Florida", "postcode": "34974", "lat": 27.238430499999993, "long": -80.82054249999999}, {"house_number": "1320", "road": "Southwest 11th Drive", "city": "Okeechobee", "state": "Florida", "postcode": "34974", "lat": 27.231605, "long": -80.84419899999997}, {"house_number": "1301", "road": "Northeast 12th Street", "city": "Okeechobee", "state": "Florida", "postcode": "34972", "lat": 27.254129499880023, "long": -80.8162454565696}, {"house_number": "1299", "road": "Northwest 3rd Street", "city": "Okeechobee", "state": "Florida", "postcode": "34972", "lat": 27.245770510196337, "long": -80.84495859681535}, {"house_number": "1248", "road": "Southwest 10th Drive", "city": "Okeechobee", "state": "Florida", "postcode": "34974", "lat": 27.23178949919567, "long": -80.84215473694026}, {"house_number": "1947", "road": "Northwest 7th Avenue", "city": "Okeechobee", "state": "Florida", "postcode": "34972", "lat": 27.26138750766376, "long": -80.83687373940188}, {"house_number": "1947", "road": "Northwest 7th Avenue", "city": "Okeechobee", "state": "Florida", "postcode": "34972", "lat": 27.26138750766376, "long": -80.83687373940188}, {"house_number": "1701", "road": "Northwest 7th Avenue", "city": "Okeechobee", "state": "Florida", "postcode": "34972", "lat": 27.25959450040749, "long": -80.83686837536919}]