[{"house_number": "5151", "road": "North 9th Avenue", "city": "Pensacola", "state": "Florida", "postcode": "32504", "lat": 30.481894073207034, "long": -87.2111679902485}, {"house_number": "5151", "road": "North 9th Avenue", "city": "Pensacola", "state": "Florida", "postcode": "32504", "lat": 30.481894073207034, "long": -87.2111679902485}, {"house_number": "1504", "road": "Langley Avenue", "city": "Pensacola", "state": "Florida", "postcode": "32504", "lat": 30.488356999999986, "long": -87.20926449999999}, {"house_number": "6299", "road": "Lanier Drive", "city": "Pensacola", "state": "Florida", "postcode": "32504", "lat": 30.488297680335947, "long": -87.20715950977575}, {"house_number": "8042", "road": "US 98", "city": "Pensacola", "state": "Florida", "postcode": "32506", "lat": 30.401943569913417, "long": -87.31976599992436}, {"house_number": "5151", "road": "North 9th Avenue", "city": "Pensacola", "state": "Florida", "postcode": "32504", "lat": 30.478570999999995, "long": -87.2096445}, {"house_number": "5151", "road": "North 9th Avenue", "city": "Pensacola", "state": "Florida", "postcode": "32504", "lat": 30.478570999999995, "long": -87.2096445}, {"house_number": "5151", "road": "North 9th Avenue", "city": "Pensacola", "state": "Florida", "postcode": "32504", "lat": 30.479281636188663, "long": -87.21082530891792}, {"house_number": "1680", "road": "Airport Boulevard", "city": "Pensacola", "state": "Florida", "postcode": "32504", "lat": 30.480020499999995, "long": -87.20782799999998}, {"house_number": "524", "road": "South B Street", "city": "Pensacola", "state": "Florida", "postcode": "32502", "lat": 30.403786508556554, "long": -87.22783417156026}, {"house_number": "5059", "road": "Yesteroaks Circle", "city": "Pensacola", "state": "Florida", "postcode": "32504", "lat": 30.47894149999999, "long": -87.18233400000001}, {"house_number": "524", "road": "South B Street", "city": "Pensacola", "state": "Florida", "postcode": "32502", "lat": 30.404974, "long": -87.22762549999999}, {"house_number": "220", "road": "South Century Boulevard", "city": "McDavid", "state": "Florida", "postcode": "32568", "lat": 30.864912052751777, "long": -87.32355846321404}, {"house_number": "1149", "road": "North 19th Avenue", "city": "Pensacola", "state": "Florida", "postcode": "32501", "lat": 30.428912899631346, "long": -87.19304170277405}, {"house_number": "1950", "road": "West Gonzalez Street", "city": "Pensacola", "state": "Florida", "postcode": "32501", "lat": 30.42357620000939, "long": -87.23940310760284}, {"house_number": "707", "road": "North Pace Boulevard", "city": "Pensacola", "state": "Florida", "postcode": "32505", "lat": 30.4191955, "long": -87.24138149999999}, {"house_number": "651", "road": "North M Street", "city": "Pensacola", "state": "Florida", "postcode": "32501", "lat": 30.419096, "long": -87.23911899999999}, {"house_number": "2250", "road": "West Belmont Street", "city": "Pensacola", "state": "Florida", "postcode": "32505", "lat": 30.4168005, "long": -87.243177}, {"house_number": "199", "road": "North P Street", "city": "Pensacola", "state": "Florida", "postcode": "32505", "lat": 30.414775466213815, "long": -87.24329639697861}, {"house_number": "1950", "road": "West Jackson Street", "city": "Pensacola", "state": "Florida", "postcode": "32501", "lat": 30.4186265, "long": -87.2397135}, {"house_number": "351", "road": "North M Street", "city": "Pensacola", "state": "Florida", "postcode": "32501", "lat": 30.4161175, "long": -87.23929999999999}, {"house_number": "130", "road": "North Pace Boulevard", "city": "Pensacola", "state": "Florida", "postcode": "32502", "lat": 30.412433999999998, "long": -87.24169499999999}, {"house_number": "7643", "road": "North Palafox Street", "city": "Ensley", "state": "Florida", "postcode": "32534", "lat": 30.50454, "long": -87.2588675}, {"house_number": "6550", "road": "North 9th Avenue", "city": "Pensacola", "state": "Florida", "postcode": "32504", "lat": 30.492240999999996, "long": -87.19275399999998}, {"house_number": "3177", "road": "Peggy Bond Drive", "city": "Pensacola", "state": "Florida", "postcode": "32504", "lat": 30.472101326566246, "long": -87.17275711077733}, {"house_number": "3850", "road": "West Jackson Street", "city": "Pensacola", "state": "Florida", "postcode": "32505", "lat": 30.419458362185463, "long": -87.26257859334096}, {"house_number": "394", "road": "Lakeland Court", "city": "Ensley", "state": "Florida", "postcode": "32514", "lat": 30.544105108771763, "long": -87.25126351212077}, {"house_number": "9879", "road": "Bridlewood Road", "city": "Beulah", "state": "Florida", "postcode": "32526", "lat": 30.550061794577868, "long": -87.3972025425486}, {"house_number": "955", "road": "Tinson Circle", "city": "Ensley", "state": "Florida", "postcode": "32514", "lat": 30.507512450817487, "long": -87.23624042731322}, {"house_number": "4124", "road": "Mobile Highway", "city": "Pensacola", "state": "Florida", "postcode": "32506", "lat": 30.428531678945888, "long": -87.27029217442787}, {"house_number": "10109", "road": "Bowman Avenue", "city": "Ensley", "state": "Florida", "postcode": "32534", "lat": 30.541459871776325, "long": -87.29186911998342}, {"house_number": "1120", "road": "Signal Hill Lane", "city": "Ensley", "state": "Florida", "postcode": "32514", "lat": 30.546704242010637, "long": -87.24816727750407}, {"house_number": "8150", "road": "Crystal Wells Place", "city": "Ensley", "state": "Florida", "postcode": "32514", "lat": 30.511633942749466, "long": -87.25095532473127}, {"house_number": "1451", "road": "North S Street", "city": "Pensacola", "state": "Florida", "postcode": "32505", "lat": 30.42706487126321, "long": -87.24531057840393}, {"house_number": "3305", "road": "Mobile Highway", "city": "Pensacola", "state": "Florida", "postcode": "32505", "lat": 30.422455454894553, "long": -87.25517809299352}, {"house_number": "2998", "road": "West Desoto Street", "city": "Pensacola", "state": "Florida", "postcode": "32505", "lat": 30.423598, "long": -87.25118499999999}, {"house_number": "8582", "road": "Pine Forest Road", "city": "Ensley", "state": "Florida", "postcode": "32534", "lat": 30.522999499999997, "long": -87.31340999999999}, {"house_number": "8582", "road": "Pine Forest Road", "city": "Ensley", "state": "Florida", "postcode": "32534", "lat": 30.522999499999997, "long": -87.31340999999999}, {"house_number": "1500", "road": "Stefani Circle", "city": "Ensley", "state": "Florida", "postcode": "32533", "lat": 30.537074499999992, "long": -87.29893849999999}, {"house_number": "2251", "road": "Kingfisher Circle", "city": "Ensley", "state": "Florida", "postcode": "32534", "lat": 30.521105523653677, "long": -87.30776884088648}, {"house_number": "650", "road": "North V Street", "city": "Pensacola", "state": "Florida", "postcode": "32505", "lat": 30.4195405637539, "long": -87.24919922313363}, {"house_number": "1050", "road": "North S Street", "city": "Pensacola", "state": "Florida", "postcode": "32505", "lat": 30.423353620423, "long": -87.24559701614244}, {"house_number": "550", "road": "North 12th Avenue", "city": "Pensacola", "state": "Florida", "postcode": "32501", "lat": 30.421476, "long": -87.2021145}, {"house_number": "863", "road": "Berkley Drive", "city": "Pensacola", "state": "Florida", "postcode": "32503", "lat": 30.464446793755084, "long": -87.21500699176532}, {"house_number": "4301", "road": "Bayou Boulevard", "city": "Pensacola", "state": "Florida", "postcode": "32503", "lat": 30.466454, "long": -87.2046535}, {"house_number": "6305", "road": "Jack Street", "city": "Pensacola", "state": "Florida", "postcode": "32504", "lat": 30.4886265, "long": -87.202614}, {"house_number": "2052", "road": "University Street", "city": "Pensacola", "state": "Florida", "postcode": "32504", "lat": 30.48551125382635, "long": -87.20146370614772}, {"house_number": "1000", "road": "College Boulevard", "city": "Pensacola", "state": "Florida", "postcode": "32504", "lat": 30.480739499999995, "long": -87.20492449999999}, {"house_number": "6351", "road": "Beauclair Drive", "city": "Pensacola", "state": "Florida", "postcode": "32504", "lat": 30.489010999999998, "long": -87.200153}, {"house_number": "521-535", "road": "North Spring Street", "city": "Pensacola", "state": "Florida", "postcode": "32501", "lat": 30.418492, "long": -87.2195575}, {"house_number": "150", "road": "North Reus Street", "city": "Pensacola", "state": "Florida", "postcode": "32502", "lat": 30.413974, "long": -87.2209205}, {"house_number": "718", "road": "Boxwood Drive", "city": "Pensacola", "state": "Florida", "postcode": "32503", "lat": 30.460729, "long": -87.2193155}, {"house_number": "749", "road": "Ash Drive", "city": "Pensacola", "state": "Florida", "postcode": "32503", "lat": 30.463319592143545, "long": -87.21560419375517}, {"house_number": "854", "road": "Woodland Drive", "city": "Pensacola", "state": "Florida", "postcode": "32503", "lat": 30.459151374339868, "long": -87.21512446744131}, {"house_number": "3959", "road": "North 10th Avenue", "city": "Pensacola", "state": "Florida", "postcode": "32503", "lat": 30.45723116949707, "long": -87.21300657243907}, {"house_number": "349", "road": "Clematis Street", "city": "Pensacola", "state": "Florida", "postcode": "32503", "lat": 30.45951449999999, "long": -87.2116475}, {"house_number": "148", "road": "Pintado Drive", "city": "Pensacola", "state": "Florida", "postcode": "32503", "lat": 30.461799996637346, "long": -87.20657104037956}, {"house_number": "550", "road": "North 14th Avenue", "city": "Pensacola", "state": "Florida", "postcode": "32501", "lat": 30.42198312537481, "long": -87.1991648757336}, {"house_number": "1253", "road": "Scenic Highway", "city": "Pensacola", "state": "Florida", "postcode": "32503", "lat": 30.432972613822052, "long": -87.17541402994256}, {"house_number": "3506", "road": "Creighton Road", "city": "Pensacola", "state": "Florida", "postcode": "32504", "lat": 30.499540754264775, "long": -87.1795198531838}, {"house_number": "1151", "road": "Office Woods Drive", "city": "Pensacola", "state": "Florida", "postcode": "32504", "lat": 30.47278570267063, "long": -87.2012480982839}, {"house_number": "5851", "road": "Penny Avenue", "city": "Pensacola", "state": "Florida", "postcode": "32504", "lat": 30.4916225, "long": -87.18885449999999}, {"house_number": "118", "road": "Calle de Santiago Court", "city": "Pensacola", "state": "Florida", "postcode": "32502", "lat": 30.411657918031207, "long": -87.2117891441406}, {"house_number": "118", "road": "Calle de Santiago Court", "city": "Pensacola", "state": "Florida", "postcode": "32502", "lat": 30.411657918031207, "long": -87.2117891441406}, {"house_number": "2400", "road": "Fernwood Avenue", "city": "Pensacola", "state": "Florida", "postcode": "32505", "lat": 30.438241499999993, "long": -87.2604005}, {"house_number": "289", "road": "North W Street", "city": "Pensacola", "state": "Florida", "postcode": "32505", "lat": 30.41524349999999, "long": -87.25070399999998}]