[{"house_number": "3107", "road": "Gilmore Road", "city": "Marianna", "state": "Florida", "postcode": "32446", "lat": 30.791061978777545, "long": -85.24778835980608}, {"house_number": "3107", "road": "Gilmore Road", "city": "Marianna", "state": "Florida", "postcode": "32446", "lat": 30.791061978777545, "long": -85.24778835980608}, {"house_number": "5201", "road": "Ezell Road", "city": "Graceville", "state": "Florida", "postcode": "32440", "lat": 30.94420151397857, "long": -85.49288584637604}, {"house_number": "4448", "road": "Lucien Street", "city": "Marianna", "state": "Florida", "postcode": "32446", "lat": 30.787027694535794, "long": -85.2264246552933}, {"house_number": "4093", "road": "Wildflower Lane", "city": "Marianna", "state": "Florida", "postcode": "32448", "lat": 30.7469034324297, "long": -85.26070475618586}, {"house_number": "1550", "road": "Fairview Road", "city": "Marianna", "state": "Florida", "postcode": "32448", "lat": 30.67756772229822, "long": -85.31518619690802}, {"house_number": "4701", "road": "Cliff Road", "city": "Graceville", "state": "Florida", "postcode": "32440", "lat": 30.909913462016252, "long": -85.50704078196813}, {"house_number": "997", "road": "Pelham Avenue", "city": "Graceville", "state": "Florida", "postcode": "32440", "lat": 30.968209999999996, "long": -85.5203975}, {"house_number": "897", "road": "Pelham Avenue", "city": "Graceville", "state": "Florida", "postcode": "32440", "lat": 30.968266695894634, "long": -85.5236728518488}, {"house_number": "844", "road": "Pelham Avenue", "city": "Graceville", "state": "Florida", "postcode": "32440", "lat": 30.9691714659762, "long": -85.52282132877929}, {"house_number": "5288", "road": "Alabama Street", "city": "Graceville", "state": "Florida", "postcode": "32440", "lat": 30.953288443563167, "long": -85.51751537610475}, {"house_number": "4239", "road": "Graham Street", "city": "Marianna", "state": "Florida", "postcode": "32448", "lat": 30.776224299054856, "long": -85.24051968560944}, {"house_number": "2902", "road": "Orange Street", "city": "Marianna", "state": "Florida", "postcode": "32448", "lat": 30.7763951956328, "long": -85.24178417869086}, {"house_number": "4249", "road": "Matties Lane", "city": "Marianna", "state": "Florida", "postcode": "32448", "lat": 30.776871871192082, "long": -85.24092945695402}, {"house_number": "2888", "road": "Orange Street", "city": "Marianna", "state": "Florida", "postcode": "32448", "lat": 30.775866227567672, "long": -85.24182104840078}, {"house_number": "2888", "road": "Orange Street", "city": "Marianna", "state": "Florida", "postcode": "32448", "lat": 30.775866227567672, "long": -85.24182104840078}, {"house_number": "661", "road": "5th Street", "city": "Marianna", "state": "Florida", "postcode": "32446", "lat": 30.788542054494204, "long": -85.23734561133271}, {"house_number": "2915", "road": "Spring Street", "city": "Marianna", "state": "Florida", "postcode": "32446", "lat": 30.777662490907424, "long": -85.2242491970425}]