[{"house_number": "3635", "road": "Malagrotta Circle", "city": "Cape Coral", "state": "Florida", "postcode": "33909", "lat": 26.720522198677752, "long": -81.91919483788215}, {"house_number": "4151", "road": "Bayhead Drive", "city": "Bonita Springs", "state": "Florida", "postcode": "34134", "lat": 26.3490571953136, "long": -81.82305518088073}, {"house_number": "4146", "road": "East Hampton Circle", "city": "River Hall", "state": "Florida", "postcode": "33920", "lat": 26.693495193567514, "long": -81.69302105512448}, {"house_number": "14218", "road": "Bigelow Road", "city": "Fort Myers Shores", "state": "Florida", "postcode": "33905", "lat": 26.718441272513758, "long": -81.72687258440423}, {"house_number": "28009", "road": "Castellano Way", "city": "Bonita Springs", "state": "Florida", "postcode": "34110", "lat": 26.32739439728864, "long": -81.76597042022338}, {"house_number": "1925", "road": "Clifford Street", "city": "Fort Myers", "state": "Florida", "postcode": "33901", "lat": 26.63963028414574, "long": -81.8778871882118}, {"house_number": "110", "road": "SE 28th Terrace", "city": "Cape Coral", "state": "Florida", "postcode": "33904", "lat": 26.599322499999992, "long": -81.97346599999999}, {"house_number": "10000", "road": "Majestic Avenue", "city": "Fort Myers", "state": "Florida", "postcode": "33913", "lat": 26.59671399999999, "long": -81.793544}, {"house_number": "10015", "road": "Majestic Avenue", "city": "Fort Myers", "state": "Florida", "postcode": "33913", "lat": 26.596062142137104, "long": -81.79405708487253}, {"house_number": "646", "road": "Matanzas Street", "city": "Fort Myers Beach", "state": "Florida", "postcode": "33931", "lat": 26.456158620681197, "long": -81.95953446203703}, {"house_number": "149", "road": "Matanzas Street", "city": "Fort Myers Beach", "state": "Florida", "postcode": "33931", "lat": 26.45671838779029, "long": -81.9589842877213}, {"house_number": "3319", "road": "West Gulf Drive", "city": "Sanibel", "state": "Florida", "postcode": "33957", "lat": 26.427843999999993, "long": -82.10114249999998}, {"house_number": "3333", "road": "West Gulf Drive", "city": "Sanibel", "state": "Florida", "postcode": "33957", "lat": 26.428035999999988, "long": -82.1015765}, {"house_number": "16766", "road": "Kelly Cove Drive", "city": "Iona", "state": "Florida", "postcode": "33908", "lat": 26.498402559786783, "long": -81.95181155016945}, {"house_number": "16935", "road": "Kelly Cove Drive", "city": "Iona", "state": "Florida", "postcode": "33908", "lat": 26.496067757478365, "long": -81.95167492974554}, {"house_number": "16149", "road": "Kelly Cove Drive", "city": "Iona", "state": "Florida", "postcode": "33908", "lat": 26.506287536132202, "long": -81.95284575648613}, {"house_number": "16352", "road": "Kelly Cove Drive", "city": "Iona", "state": "Florida", "postcode": "33908", "lat": 26.50375847176837, "long": -81.95180884675693}, {"house_number": "16618", "road": "Kelly Cove Drive", "city": "Iona", "state": "Florida", "postcode": "33908", "lat": 26.50045479512831, "long": -81.95179417592104}, {"house_number": "4591", "road": "Bowling Green Boulevard", "city": "Fort Myers", "state": "Florida", "postcode": "33907", "lat": 26.59486355725288, "long": -81.87962896486053}, {"house_number": "4550", "road": "Bowling Green Boulevard", "city": "Fort Myers", "state": "Florida", "postcode": "33907", "lat": 26.5956285, "long": -81.8798285}, {"house_number": "4579", "road": "Bowling Green Boulevard", "city": "Fort Myers", "state": "Florida", "postcode": "33907", "lat": 26.595135743061487, "long": -81.87981037641929}, {"house_number": "1542", "road": "Colonial Boulevard", "city": "Fort Myers", "state": "Florida", "postcode": "33907", "lat": 26.596675499999993, "long": -81.88246699999999}, {"house_number": "16643", "road": "Hazel Way", "city": "Olga", "state": "Florida", "postcode": "33920", "lat": 26.720092499999993, "long": -81.701764}, {"house_number": "15700", "road": "South Tamiami Trail", "city": "Villas", "state": "Florida", "postcode": "33908", "lat": 26.513935245298867, "long": -81.86430661926157}, {"house_number": "15700", "road": "South Tamiami Trail", "city": "Villas", "state": "Florida", "postcode": "33908", "lat": 26.513935245298867, "long": -81.86430661926157}, {"house_number": "4250", "road": "Coconut Road", "city": "The Colony Golf & Bay Club", "state": "Florida", "postcode": "34134", "lat": 26.39797649999999, "long": -81.81897949999998}, {"house_number": "4149", "road": "Residence Drive", "city": "Fort Myers", "state": "Florida", "postcode": "33901", "lat": 26.60180766234862, "long": -81.86470421157779}, {"house_number": "551", "road": "Tarpon Bay Road", "city": "Sanibel", "state": "Florida", "postcode": "33957", "lat": 26.435284499999995, "long": -82.08021549999998}, {"house_number": "2499", "road": "Palm Ridge Road", "city": "Sanibel", "state": "Florida", "postcode": "33957", "lat": 26.439440518595887, "long": -82.07896016472729}, {"house_number": "2353", "road": "Wooster Lane", "city": "Sanibel", "state": "Florida", "postcode": "33957", "lat": 26.439082337536476, "long": -82.07623698074372}, {"house_number": "2310", "road": "Palm Ridge Road", "city": "Sanibel", "state": "Florida", "postcode": "33957", "lat": 26.43661756590276, "long": -82.07626821203556}, {"house_number": "5364", "road": "Darby Court", "city": "Cape Coral", "state": "Florida", "postcode": "33904", "lat": 26.54833448716255, "long": -81.96149396368594}, {"house_number": "5364", "road": "Darby Court", "city": "Cape Coral", "state": "Florida", "postcode": "33904", "lat": 26.54833448716255, "long": -81.96149396368594}, {"house_number": "648", "road": "Monterey Avenue", "city": "Cape Coral", "state": "Florida", "postcode": "33904", "lat": 26.552197314747264, "long": -81.96091300469278}, {"house_number": "5336", "road": "Delano Court", "city": "Cape Coral", "state": "Florida", "postcode": "33904", "lat": 26.550143483013056, "long": -81.9603337679722}, {"house_number": "706", "road": "Monterey Avenue", "city": "Cape Coral", "state": "Florida", "postcode": "33904", "lat": 26.552196163704412, "long": -81.95974997942432}, {"house_number": "5348", "road": "Delmonte Court", "city": "Cape Coral", "state": "Florida", "postcode": "33904", "lat": 26.550001447865714, "long": -81.95916884827197}, {"house_number": "5374", "road": "Delano Court", "city": "Cape Coral", "state": "Florida", "postcode": "33904", "lat": 26.548009611615008, "long": -81.96033380868998}, {"house_number": "15392", "road": "Myrtle Street", "city": "Iona", "state": "Florida", "postcode": "33908", "lat": 26.51782746914014, "long": -81.96490613220875}, {"house_number": "15384", "road": "Tahitian Drive", "city": "Iona", "state": "Florida", "postcode": "33908", "lat": 26.518467, "long": -81.964247}, {"house_number": "12816", "road": "Iona Road", "city": "Iona", "state": "Florida", "postcode": "33908", "lat": 26.517859499999997, "long": -81.964096}, {"house_number": "12896", "road": "Iona Road", "city": "Iona", "state": "Florida", "postcode": "33908", "lat": 26.5148655, "long": -81.96515249999999}, {"house_number": "12603", "road": "Iona Road", "city": "Iona", "state": "Florida", "postcode": "33908", "lat": 26.519579499999992, "long": -81.96189049999998}, {"house_number": "12548", "road": "Iona Road", "city": "Iona", "state": "Florida", "postcode": "33908", "lat": 26.519601499999993, "long": -81.96035149999997}, {"house_number": "1456", "road": "Vendome Court", "city": "Cape Coral", "state": "Florida", "postcode": "33904", "lat": 26.559757499999993, "long": -81.9471355}, {"house_number": "1449", "road": "Venetian Court", "city": "Cape Coral", "state": "Florida", "postcode": "33904", "lat": 26.558710251608986, "long": -81.94713151738289}, {"house_number": "1456", "road": "Wellington Court", "city": "Cape Coral", "state": "Florida", "postcode": "33904", "lat": 26.55629102869003, "long": -81.94738695981691}, {"house_number": "1456", "road": "Willshire Court", "city": "Cape Coral", "state": "Florida", "postcode": "33904", "lat": 26.55524598011021, "long": -81.94751898267619}, {"house_number": "1456", "road": "Windsor Court", "city": "Cape Coral", "state": "Florida", "postcode": "33904", "lat": 26.55420144766067, "long": -81.94758949910552}, {"house_number": "5350", "road": "Mayfair Court", "city": "Cape Coral", "state": "Florida", "postcode": "33904", "lat": 26.551615505966836, "long": -81.95121367620645}, {"house_number": "5350", "road": "Malibu Court", "city": "Cape Coral", "state": "Florida", "postcode": "33904", "lat": 26.551613475752635, "long": -81.95004793989527}, {"house_number": "5351", "road": "Mikado Court", "city": "Cape Coral", "state": "Florida", "postcode": "33904", "lat": 26.551719341922425, "long": -81.94812728564668}, {"house_number": "5351", "road": "Nautilus Drive", "city": "Cape Coral", "state": "Florida", "postcode": "33904", "lat": 26.551679622219094, "long": -81.94666227605832}, {"house_number": "5377", "road": "Mikado Court", "city": "Cape Coral", "state": "Florida", "postcode": "33904", "lat": 26.550211557649618, "long": -81.9487173408948}, {"house_number": "5653", "road": "Riverside Drive", "city": "Cape Coral", "state": "Florida", "postcode": "33904", "lat": 26.547497490580906, "long": -81.94796966385256}, {"house_number": "5450", "road": "Bayshore Avenue", "city": "Cape Coral", "state": "Florida", "postcode": "33904", "lat": 26.546599999999998, "long": -81.97079599999998}, {"house_number": "559", "road": "Coral Drive", "city": "Cape Coral", "state": "Florida", "postcode": "33904", "lat": 26.546853471997593, "long": -81.96417922342371}, {"house_number": "559", "road": "Coral Drive", "city": "Cape Coral", "state": "Florida", "postcode": "33904", "lat": 26.546853471997593, "long": -81.96417922342371}, {"house_number": "16200", "road": "Cutts Court", "city": "Iona", "state": "Florida", "postcode": "33908", "lat": 26.5057345, "long": -81.9368945}, {"house_number": "11039", "road": "Bombay Lane", "city": "Iona", "state": "Florida", "postcode": "33908", "lat": 26.50583088107008, "long": -81.9363775888451}, {"house_number": "710", "road": "Southwest 29th Terrace", "city": "Cape Coral", "state": "Florida", "postcode": "33914", "lat": 26.597668999999996, "long": -81.989383}, {"house_number": "616", "road": "Southwest 29th Terrace", "city": "Cape Coral", "state": "Florida", "postcode": "33914", "lat": 26.597673, "long": -81.98846649999999}, {"house_number": "607", "road": "Southwest 29th Terrace", "city": "Cape Coral", "state": "Florida", "postcode": "33914", "lat": 26.5976765, "long": -81.9875485}, {"house_number": "3000", "road": "Southwest 6th Place", "city": "Cape Coral", "state": "Florida", "postcode": "33914", "lat": 26.5965195, "long": -81.988007}, {"house_number": "3060", "road": "Southwest 7th Place", "city": "Cape Coral", "state": "Florida", "postcode": "33914", "lat": 26.594943, "long": -81.98984949999999}, {"house_number": "3149", "road": "Southwest 7th Place", "city": "Cape Coral", "state": "Florida", "postcode": "33914", "lat": 26.594116999999997, "long": -81.98984999999999}, {"house_number": "750", "road": "Southwest 30th Terrace", "city": "Cape Coral", "state": "Florida", "postcode": "33914", "lat": 26.5953575, "long": -81.989387}, {"house_number": "660", "road": "Southwest 30th Terrace", "city": "Cape Coral", "state": "Florida", "postcode": "33914", "lat": 26.595362, "long": -81.98846449999999}, {"house_number": "609", "road": "Southwest 30th Terrace", "city": "Cape Coral", "state": "Florida", "postcode": "33914", "lat": 26.595367500000002, "long": -81.987548}, {"house_number": "2913", "road": "Southwest 5th Place", "city": "Cape Coral", "state": "Florida", "postcode": "33914", "lat": 26.598071500968018, "long": -81.98617347803217}, {"house_number": "3022", "road": "Southwest 5th Place", "city": "Cape Coral", "state": "Florida", "postcode": "33914", "lat": 26.59592500469218, "long": -81.9861716950913}, {"house_number": "3050", "road": "Southwest 5th Avenue", "city": "Cape Coral", "state": "Florida", "postcode": "33914", "lat": 26.595239149388902, "long": -81.98527589035398}, {"house_number": "3051", "road": "Southwest 4th Place", "city": "Cape Coral", "state": "Florida", "postcode": "33914", "lat": 26.595204867037005, "long": -81.98392550620692}, {"house_number": "550", "road": "Southwest 30th Terrace", "city": "Cape Coral", "state": "Florida", "postcode": "33914", "lat": 26.595370461839035, "long": -81.98663298514757}, {"house_number": "3059", "road": "Southwest 5th Place", "city": "Cape Coral", "state": "Florida", "postcode": "33914", "lat": 26.594982944400478, "long": -81.98617499067079}, {"house_number": "665", "road": "Southwest 31st Street", "city": "Cape Coral", "state": "Florida", "postcode": "33914", "lat": 26.594537690296427, "long": -81.98802100842924}, {"house_number": "665", "road": "Southwest 31st Street", "city": "Cape Coral", "state": "Florida", "postcode": "33914", "lat": 26.594537690296427, "long": -81.98802100842924}, {"house_number": "649", "road": "Southwest 31st Terrace", "city": "Cape Coral", "state": "Florida", "postcode": "33914", "lat": 26.593737443644105, "long": -81.98764337848533}, {"house_number": "649", "road": "Gleason Parkway", "city": "Cape Coral", "state": "Florida", "postcode": "33914", "lat": 26.59249117371556, "long": -81.98800751770622}, {"house_number": "3306", "road": "Southwest 7th Place", "city": "Cape Coral", "state": "Florida", "postcode": "33914", "lat": 26.59045749590056, "long": -81.98983739464137}, {"house_number": "3306", "road": "Southwest 7th Place", "city": "Cape Coral", "state": "Florida", "postcode": "33914", "lat": 26.59045749590056, "long": -81.98983739464137}, {"house_number": "751", "road": "Southwest 32nd Terrace", "city": "Cape Coral", "state": "Florida", "postcode": "33914", "lat": 26.591640499999997, "long": -81.9893795}, {"house_number": "658", "road": "Southwest 32nd Terrace", "city": "Cape Coral", "state": "Florida", "postcode": "33914", "lat": 26.591647217629244, "long": -81.98845849872384}, {"house_number": "3350", "road": "Southwest 7th Avenue", "city": "Cape Coral", "state": "Florida", "postcode": "33914", "lat": 26.589410989723966, "long": -81.98890943770145}, {"house_number": "3350", "road": "Southwest 6th Place", "city": "Cape Coral", "state": "Florida", "postcode": "33914", "lat": 26.589413456868623, "long": -81.98799204029314}, {"house_number": "607", "road": "Southwest 32nd Terrace", "city": "Cape Coral", "state": "Florida", "postcode": "33914", "lat": 26.59164773582286, "long": -81.98754099542039}, {"house_number": "708", "road": "Southwest 35th Street", "city": "Cape Coral", "state": "Florida", "postcode": "33914", "lat": 26.587171316898516, "long": -81.98936347447311}, {"house_number": "659", "road": "Southwest 35th Street", "city": "Cape Coral", "state": "Florida", "postcode": "33914", "lat": 26.587179999999993, "long": -81.98844499999998}, {"house_number": "608", "road": "Southwest 35th Street", "city": "Cape Coral", "state": "Florida", "postcode": "33914", "lat": 26.58718172925928, "long": -81.98752549334128}, {"house_number": "550", "road": "Southwest 32nd Terrace", "city": "Cape Coral", "state": "Florida", "postcode": "33914", "lat": 26.591653776841355, "long": -81.98662653047975}, {"house_number": "3350", "road": "Southwest 5th Place", "city": "Cape Coral", "state": "Florida", "postcode": "33914", "lat": 26.589419506249424, "long": -81.98615519708098}, {"house_number": "3220", "road": "Southwest 5th Avenue", "city": "Cape Coral", "state": "Florida", "postcode": "33914", "lat": 26.59125196484122, "long": -81.98493977429136}, {"house_number": "3271", "road": "Southwest 5th Avenue", "city": "Cape Coral", "state": "Florida", "postcode": "33914", "lat": 26.590423011242702, "long": -81.98493529998646}, {"house_number": "3357", "road": "Southwest 5th Avenue", "city": "Cape Coral", "state": "Florida", "postcode": "33914", "lat": 26.589595985208508, "long": -81.98493244711898}, {"house_number": "549", "road": "Southwest 35th Street", "city": "Cape Coral", "state": "Florida", "postcode": "33914", "lat": 26.587184050657225, "long": -81.98661050948482}, {"house_number": "3472", "road": "Southwest 5th Place", "city": "Cape Coral", "state": "Florida", "postcode": "33914", "lat": 26.58705649999999, "long": -81.98615199999999}, {"house_number": "3514", "road": "Southwest 5th Place", "city": "Cape Coral", "state": "Florida", "postcode": "33914", "lat": 26.58626749999999, "long": -81.98614649999999}, {"house_number": "3559", "road": "Southwest 5th Place", "city": "Cape Coral", "state": "Florida", "postcode": "33914", "lat": 26.585726034469925, "long": -81.98614215650818}, {"house_number": "3414", "road": "Southwest 5th Avenue", "city": "Cape Coral", "state": "Florida", "postcode": "33914", "lat": 26.587957092534133, "long": -81.98492188238669}, {"house_number": "448", "road": "Southwest 35th Street", "city": "Cape Coral", "state": "Florida", "postcode": "33914", "lat": 26.587539636542743, "long": -81.98372551564943}, {"house_number": "1000", "road": "Southwest 36th Street", "city": "Cape Coral", "state": "Florida", "postcode": "33914", "lat": 26.585630540546937, "long": -81.99564350689337}, {"house_number": "3650", "road": "Southwest 9th Avenue", "city": "Cape Coral", "state": "Florida", "postcode": "33914", "lat": 26.5852035, "long": -81.99417399999999}, {"house_number": "1050", "road": "Southwest 37th Lane", "city": "Cape Coral", "state": "Florida", "postcode": "33914", "lat": 26.581884, "long": -81.996601}, {"house_number": "3748", "road": "Southwest 10th Place", "city": "Cape Coral", "state": "Florida", "postcode": "33914", "lat": 26.581459103540766, "long": -81.99611962858346}, {"house_number": "3900", "road": "Southwest 10th Place", "city": "Cape Coral", "state": "Florida", "postcode": "33914", "lat": 26.579930477649047, "long": -81.99610348046484}, {"house_number": "3750", "road": "Southwest 9th Avenue", "city": "Cape Coral", "state": "Florida", "postcode": "33914", "lat": 26.581468435025084, "long": -81.99381928057738}, {"house_number": "3900", "road": "Southwest 9th Avenue", "city": "Cape Coral", "state": "Florida", "postcode": "33914", "lat": 26.57998301448813, "long": -81.99381766873353}, {"house_number": "854", "road": "Southwest 36th Terrace", "city": "Cape Coral", "state": "Florida", "postcode": "33914", "lat": 26.58477645991296, "long": -81.99370040199179}, {"house_number": "1000", "road": "Southwest 37th Street", "city": "Cape Coral", "state": "Florida", "postcode": "33914", "lat": 26.583609946725986, "long": -81.99497476892434}, {"house_number": "948", "road": "Southeast 29th Street", "city": "Cape Coral", "state": "Florida", "postcode": "33904", "lat": 26.598389499999996, "long": -81.95534849999999}, {"house_number": "2950", "road": "Southeast 10th Avenue", "city": "Cape Coral", "state": "Florida", "postcode": "33904", "lat": 26.597978499999996, "long": -81.95429299999999}, {"house_number": "949", "road": "Southeast 29th Terrace", "city": "Cape Coral", "state": "Florida", "postcode": "33904", "lat": 26.597564306969407, "long": -81.95534949585758}, {"house_number": "2957", "road": "Southeast 10th Avenue", "city": "Cape Coral", "state": "Florida", "postcode": "33904", "lat": 26.597155000000004, "long": -81.95429399999999}, {"house_number": "949", "road": "Southeast 30th Lane", "city": "Cape Coral", "state": "Florida", "postcode": "33904", "lat": 26.59591418311387, "long": -81.95534800403438}, {"house_number": "3058", "road": "Southeast 10th Avenue", "city": "Cape Coral", "state": "Florida", "postcode": "33904", "lat": 26.595504, "long": -81.954295}, {"house_number": "2950", "road": "Southeast 10th Place", "city": "Cape Coral", "state": "Florida", "postcode": "33904", "lat": 26.59773431173677, "long": -81.95294789999977}, {"house_number": "2950", "road": "Southeast 11th Avenue", "city": "Cape Coral", "state": "Florida", "postcode": "33904", "lat": 26.597656900497903, "long": -81.9520260501528}, {"house_number": "1012", "road": "Southeast 30th Street", "city": "Cape Coral", "state": "Florida", "postcode": "33904", "lat": 26.596810499999993, "long": -81.95312249999998}, {"house_number": "1037", "road": "Southeast 30th Street", "city": "Cape Coral", "state": "Florida", "postcode": "33904", "lat": 26.596809999999998, "long": -81.95249099999998}, {"house_number": "1014", "road": "Southeast 30th Terrace", "city": "Cape Coral", "state": "Florida", "postcode": "33904", "lat": 26.5956515, "long": -81.9531225}, {"house_number": "1069", "road": "Southeast 30th Terrace", "city": "Cape Coral", "state": "Florida", "postcode": "33904", "lat": 26.595642499999997, "long": -81.95188399999998}, {"house_number": "948", "road": "Southeast 31st Street", "city": "Cape Coral", "state": "Florida", "postcode": "33904", "lat": 26.595089102714315, "long": -81.95534749697696}, {"house_number": "3106", "road": "Southeast 10th Avenue", "city": "Cape Coral", "state": "Florida", "postcode": "33904", "lat": 26.594680499999996, "long": -81.95429649999998}, {"house_number": "949", "road": "Southeast 31st Terrace", "city": "Cape Coral", "state": "Florida", "postcode": "33904", "lat": 26.59426279431094, "long": -81.95534699411387}, {"house_number": "3122", "road": "Southeast 10th Avenue", "city": "Cape Coral", "state": "Florida", "postcode": "33904", "lat": 26.593852999999996, "long": -81.9542965}, {"house_number": "3164", "road": "Southeast 10th Avenue", "city": "Cape Coral", "state": "Florida", "postcode": "33904", "lat": 26.593027, "long": -81.954296}, {"house_number": "901", "road": "Southeast 32nd Street", "city": "Cape Coral", "state": "Florida", "postcode": "33904", "lat": 26.592610201205733, "long": -81.95534498703623}, {"house_number": "3208", "road": "Southeast 10th Avenue", "city": "Cape Coral", "state": "Florida", "postcode": "33904", "lat": 26.592201499999998, "long": -81.954297}, {"house_number": "3103", "road": "Southeast 10th Place", "city": "Cape Coral", "state": "Florida", "postcode": "33904", "lat": 26.594498003640265, "long": -81.9529190990562}, {"house_number": "3100", "road": "Southeast 11th Avenue", "city": "Cape Coral", "state": "Florida", "postcode": "33904", "lat": 26.594786025989762, "long": -81.95202747815524}, {"house_number": "1111", "road": "Southeast 32nd Street", "city": "Cape Coral", "state": "Florida", "postcode": "33904", "lat": 26.59316422884449, "long": -81.95207232730084}, {"house_number": "1104", "road": "Southeast 31st Terrace", "city": "Cape Coral", "state": "Florida", "postcode": "33904", "lat": 26.593918154251426, "long": -81.95169927362983}, {"house_number": "854", "road": "Southeast 32nd Terrace", "city": "Cape Coral", "state": "Florida", "postcode": "33904", "lat": 26.59177799999999, "long": -81.957292}, {"house_number": "3350", "road": "Southeast 8th Place", "city": "Cape Coral", "state": "Florida", "postcode": "33904", "lat": 26.589442499999997, "long": -81.9574485}, {"house_number": "3278", "road": "Country Club Boulevard", "city": "Cape Coral", "state": "Florida", "postcode": "33904", "lat": 26.591368499999994, "long": -81.95639499999999}, {"house_number": "3304", "road": "Country Club Boulevard", "city": "Cape Coral", "state": "Florida", "postcode": "33904", "lat": 26.590656499999994, "long": -81.95639599999998}, {"house_number": "857", "road": "Southeast 33rd Terrace", "city": "Cape Coral", "state": "Florida", "postcode": "33904", "lat": 26.589858, "long": -81.95698199999998}, {"house_number": "15540", "road": "Catalpa Cove Lane", "city": "Iona", "state": "Florida", "postcode": "33908", "lat": 26.51406750953825, "long": -81.97483610278513}, {"house_number": "3370", "road": "Southeast 8th Place", "city": "Cape Coral", "state": "Florida", "postcode": "33904", "lat": 26.588617984456278, "long": -81.95745052503372}, {"house_number": "808", "road": "Southeast 34th Terrace", "city": "Cape Coral", "state": "Florida", "postcode": "33904", "lat": 26.5882065, "long": -81.9579095}, {"house_number": "3506", "road": "Southeast 8th Place", "city": "Cape Coral", "state": "Florida", "postcode": "33904", "lat": 26.586549, "long": -81.957452}, {"house_number": "858", "road": "Southeast 34th Terrace", "city": "Cape Coral", "state": "Florida", "postcode": "33904", "lat": 26.588206, "long": -81.9569855}, {"house_number": "948", "road": "Southeast 34th Terrace", "city": "Cape Coral", "state": "Florida", "postcode": "33904", "lat": 26.58820735138673, "long": -81.95534900219536}, {"house_number": "3500", "road": "Country Club Boulevard", "city": "Cape Coral", "state": "Florida", "postcode": "33904", "lat": 26.586322499999998, "long": -81.95639599999998}, {"house_number": "949", "road": "Southeast 32nd Terrace", "city": "Cape Coral", "state": "Florida", "postcode": "33904", "lat": 26.59178053033, "long": -81.95534598975732}, {"house_number": "948", "road": "Southeast 33rd Street", "city": "Cape Coral", "state": "Florida", "postcode": "33904", "lat": 26.590954650352348, "long": -81.95534849746329}, {"house_number": "3267", "road": "Southeast 10th Avenue", "city": "Cape Coral", "state": "Florida", "postcode": "33904", "lat": 26.590837, "long": -81.954301}, {"house_number": "3303", "road": "Southeast 10th Avenue", "city": "Cape Coral", "state": "Florida", "postcode": "33904", "lat": 26.589985499999997, "long": -81.95429899999999}, {"house_number": "948", "road": "Southeast 33rd Terrace", "city": "Cape Coral", "state": "Florida", "postcode": "33904", "lat": 26.589854499999998, "long": -81.95534749999999}, {"house_number": "3313", "road": "Southeast 10th Avenue", "city": "Cape Coral", "state": "Florida", "postcode": "33904", "lat": 26.589439499999997, "long": -81.95429949999999}, {"house_number": "3349", "road": "Southeast 10th Place", "city": "Cape Coral", "state": "Florida", "postcode": "33904", "lat": 26.59020773283137, "long": -81.9529379952155}, {"house_number": "3309", "road": "Southeast 11th Avenue", "city": "Cape Coral", "state": "Florida", "postcode": "33904", "lat": 26.590572387570194, "long": -81.95202870566281}, {"house_number": "948", "road": "Southeast 34th Street", "city": "Cape Coral", "state": "Florida", "postcode": "33904", "lat": 26.589033, "long": -81.955348}, {"house_number": "3368", "road": "Southeast 10th Avenue", "city": "Cape Coral", "state": "Florida", "postcode": "33904", "lat": 26.5886165, "long": -81.9543005}, {"house_number": "3450", "road": "Southeast 10th Avenue", "city": "Cape Coral", "state": "Florida", "postcode": "33904", "lat": 26.587792499999995, "long": -81.9543015}, {"house_number": "948", "road": "Southeast 35th Street", "city": "Cape Coral", "state": "Florida", "postcode": "33904", "lat": 26.587383499999998, "long": -81.955349}, {"house_number": "3508", "road": "Southeast 10th Avenue", "city": "Cape Coral", "state": "Florida", "postcode": "33904", "lat": 26.586966499999996, "long": -81.9543025}, {"house_number": "948", "road": "Southeast 35th Terrace", "city": "Cape Coral", "state": "Florida", "postcode": "33904", "lat": 26.586551999999998, "long": -81.9553495}, {"house_number": "3558", "road": "Southeast 10th Avenue", "city": "Cape Coral", "state": "Florida", "postcode": "33904", "lat": 26.5864305, "long": -81.954303}, {"house_number": "12475", "road": "Barrington Court", "city": "Fort Myers Beach", "state": "Florida", "postcode": "33908", "lat": 26.511309746138032, "long": -81.96172422685143}]