[{"house_number": "1097", "road": "Glades Glen Drive", "city": "Belle Glade", "state": "Florida", "postcode": "33430", "lat": 26.66478636672934, "long": -80.67756061116283}, {"house_number": "2401", "road": "Sapphire Circle", "city": "West Palm Beach", "state": "Florida", "postcode": "33411", "lat": 26.71452473801603, "long": -80.18913850765426}, {"house_number": "1847", "road": "4th Avenue North", "city": "Lake Worth Beach", "state": "Florida", "postcode": "33461", "lat": 26.620595999999992, "long": -80.06843799999999}, {"house_number": "51", "road": "17th Avenue South", "city": "Lake Worth Beach", "state": "Florida", "postcode": "33460", "lat": 26.5951055, "long": -80.04969799999998}, {"house_number": "20509", "road": "Linksview Drive", "city": "Boca West", "state": "Florida", "postcode": "33434", "lat": 26.37299343845795, "long": -80.15257776413762}, {"house_number": "1401", "road": "North L Street", "city": "Lake Worth Beach", "state": "Florida", "postcode": "33460", "lat": 26.632283499700875, "long": -80.05368999135769}, {"house_number": "3851", "road": "Northwest Coventry Lane", "city": "Boca Raton", "state": "Florida", "postcode": "33496", "lat": 26.406896350609124, "long": -80.15893571197493}, {"house_number": "137", "road": "Sunshine Road", "city": "Royal Palm Beach", "state": "Florida", "postcode": "33411", "lat": 26.68059250114962, "long": -80.1945531332616}, {"house_number": "10434", "road": "Acme Road", "city": "Royal Palm Beach", "state": "Florida", "postcode": "33414", "lat": 26.678885952763537, "long": -80.21064131517532}, {"house_number": "10434", "road": "Acme Road", "city": "Royal Palm Beach", "state": "Florida", "postcode": "33414", "lat": 26.678885952763537, "long": -80.21064131517532}, {"house_number": "651", "road": "Hibiscus Avenue", "city": "Juno Beach", "state": "Florida", "postcode": "33408", "lat": 26.878326315778637, "long": -80.05433816931797}, {"house_number": "264", "road": "Northwest 3rd Avenue", "city": "Boynton Beach", "state": "Florida", "postcode": "33435", "lat": 26.529594441166463, "long": -80.06670220262887}, {"house_number": "264", "road": "Northwest 3rd Avenue", "city": "Boynton Beach", "state": "Florida", "postcode": "33435", "lat": 26.529594441166463, "long": -80.06670220262887}, {"house_number": "264", "road": "Northwest 3rd Avenue", "city": "Boynton Beach", "state": "Florida", "postcode": "33435", "lat": 26.529594441166463, "long": -80.06670220262887}, {"house_number": "264", "road": "Northwest 3rd Avenue", "city": "Boynton Beach", "state": "Florida", "postcode": "33435", "lat": 26.529594441166463, "long": -80.06670220262887}, {"house_number": "264", "road": "Northwest 3rd Avenue", "city": "Boynton Beach", "state": "Florida", "postcode": "33435", "lat": 26.529594441166463, "long": -80.06670220262887}, {"house_number": "259", "road": "Northwest 3rd Court", "city": "Boynton Beach", "state": "Florida", "postcode": "33435", "lat": 26.530087223412504, "long": -80.06668125303406}, {"house_number": "259", "road": "Northwest 3rd Court", "city": "Boynton Beach", "state": "Florida", "postcode": "33435", "lat": 26.530087223412504, "long": -80.06668125303406}, {"house_number": "1901", "road": "Northeast 6th Street", "city": "Boynton Beach", "state": "Florida", "postcode": "33435", "lat": 26.54566928305008, "long": -80.05729565227114}, {"house_number": "8165", "road": "Bridgewater Court", "city": "Lake Clarke Shores", "state": "Florida", "postcode": "33406", "lat": 26.636147087102277, "long": -80.07715288696684}, {"house_number": "8165", "road": "Bridgewater Court", "city": "Lake Clarke Shores", "state": "Florida", "postcode": "33406", "lat": 26.636147087102277, "long": -80.07715288696684}, {"house_number": "556", "road": "Folsom Road", "city": "Loxahatchee Groves", "state": "Florida", "postcode": "33470", "lat": 26.686976218543297, "long": -80.24668377722844}, {"house_number": "344", "road": "State Road 7", "city": "Royal Palm Beach", "state": "Florida", "postcode": "33414", "lat": 26.67391903858064, "long": -80.20255639157193}, {"house_number": "344", "road": "State Road 7", "city": "Royal Palm Beach", "state": "Florida", "postcode": "33414", "lat": 26.67391903858064, "long": -80.20255639157193}, {"house_number": "2401", "road": "Northwest 8th Street", "city": "Delray Beach", "state": "Florida", "postcode": "33445", "lat": 26.47492662256223, "long": -80.09889996842466}, {"house_number": "8436", "road": "Ironhorse Court", "city": "West Palm Beach", "state": "Florida", "postcode": "33418", "lat": 26.801607336927443, "long": -80.14572936565122}, {"house_number": "11651", "road": "Pintail Drive", "city": "Wellington", "state": "Florida", "postcode": "33414", "lat": 26.664923268790044, "long": -80.22948400650618}, {"house_number": "12195", "road": "Sunnydale Drive", "city": "Wellington", "state": "Florida", "postcode": "33414", "lat": 26.6490034395942, "long": -80.23756516390486}, {"house_number": "2413", "road": "Embassy Drive", "city": "West Palm Beach", "state": "Florida", "postcode": "33401", "lat": 26.736530107895966, "long": -80.07842045600191}, {"house_number": "806", "road": "Prosperity Farms Road", "city": "North Palm Beach", "state": "Florida", "postcode": "33408", "lat": 26.82249249999999, "long": -80.0731765}, {"house_number": "1580", "road": "Prairie Road", "city": "West Palm Beach", "state": "Florida", "postcode": "33404", "lat": 26.65206, "long": -80.0840335}, {"house_number": "2514", "road": "Maniki Drive", "city": "Riviera Beach", "state": "Florida", "postcode": "33407", "lat": 26.769667747238117, "long": -80.11063392937224}, {"house_number": "2559", "road": "Maniki Drive", "city": "Riviera Beach", "state": "Florida", "postcode": "33407", "lat": 26.770374454820686, "long": -80.11230959599426}, {"house_number": "2559", "road": "Maniki Drive", "city": "Riviera Beach", "state": "Florida", "postcode": "33407", "lat": 26.770374454820686, "long": -80.11230959599426}, {"house_number": "2649", "road": "Doral Way", "city": "Riviera Beach", "state": "Florida", "postcode": "33407", "lat": 26.76966799999999, "long": -80.11472699999997}, {"house_number": "5806", "road": "Village Boulevard", "city": "West Palm Beach", "state": "Florida", "postcode": "33407", "lat": 26.76260008642799, "long": -80.10005189405452}, {"house_number": "3251", "road": "Commerce Place", "city": "West Palm Beach", "state": "Florida", "postcode": "33407", "lat": 26.761479499999993, "long": -80.10078349999999}, {"house_number": "5498", "road": "Village Boulevard", "city": "West Palm Beach", "state": "Florida", "postcode": "33407", "lat": 26.76102799999999, "long": -80.10015200000001}, {"house_number": "5205", "road": "Village Boulevard", "city": "West Palm Beach", "state": "Florida", "postcode": "33407", "lat": 26.76000799999999, "long": -80.10020949999999}, {"house_number": "4208", "road": "Up The Grove Lane", "city": "West Palm Beach", "state": "Florida", "postcode": "33407", "lat": 26.76320799999999, "long": -80.10359549999998}, {"house_number": "2995", "road": "45th Street", "city": "West Palm Beach", "state": "Florida", "postcode": "33407", "lat": 26.759196018480303, "long": -80.0948752483766}, {"house_number": "4599", "road": "Spruce Lane", "city": "North Palm Beach", "state": "Florida", "postcode": "33418", "lat": 26.827078501271085, "long": -80.10782411276604}, {"house_number": "249", "road": "East Island Avenue", "city": "North Palm Beach", "state": "Florida", "postcode": "33418", "lat": 26.819567089219728, "long": -80.11662029013824}, {"house_number": "149", "road": "Island Cove Way", "city": "North Palm Beach", "state": "Florida", "postcode": "33418", "lat": 26.817578499999996, "long": -80.10983449999998}, {"house_number": "851", "road": "10th Street", "city": "West Palm Beach", "state": "Florida", "postcode": "33401", "lat": 26.722662, "long": -80.060057}, {"house_number": "2799", "road": "South Street", "city": "West Palm Beach", "state": "Florida", "postcode": "33407", "lat": 26.738585500000003, "long": -80.06274149999999}]