[{"house_number": "149", "road": "Sandra Street", "city": "Perry", "state": "Florida", "postcode": "32348", "lat": 30.105740049748555, "long": -83.60398748533937}, {"house_number": "251", "road": "Pineland Street", "city": "Perry", "state": "Florida", "postcode": "32348", "lat": 30.09841058824502, "long": -83.57034315768088}, {"house_number": "1645", "road": "3rd Avenue South", "city": "Steinhatchee", "state": "Florida", "postcode": "32359", "lat": 29.669106315421175, "long": -83.36757469532346}, {"house_number": "948", "road": "West Short Street", "city": "Perry", "state": "Florida", "postcode": "32348", "lat": 30.107154347099804, "long": -83.59001549363704}, {"house_number": "948", "road": "West Short Street", "city": "Perry", "state": "Florida", "postcode": "32348", "lat": 30.107154347099804, "long": -83.59001549363704}, {"house_number": "751", "road": "West Church Street", "city": "Perry", "state": "Florida", "postcode": "32348", "lat": 30.10535760497922, "long": -83.58860762041891}, {"house_number": "450", "road": "Central Avenue", "city": "Steinhatchee", "state": "Florida", "postcode": "32359", "lat": 29.674262697082604, "long": -83.38230508004943}, {"house_number": "450", "road": "Central Avenue", "city": "Steinhatchee", "state": "Florida", "postcode": "32359", "lat": 29.674262697082604, "long": -83.38230508004943}, {"house_number": "50", "road": "12th Street East", "city": "Steinhatchee", "state": "Florida", "postcode": "32359", "lat": 29.673619934786945, "long": -83.37499955006847}, {"house_number": "50", "road": "12th Street East", "city": "Steinhatchee", "state": "Florida", "postcode": "32359", "lat": 29.673619934786945, "long": -83.37499955006847}, {"house_number": "50", "road": "12th Street East", "city": "Steinhatchee", "state": "Florida", "postcode": "32359", "lat": 29.673619934786945, "long": -83.37499955006847}, {"house_number": "101", "road": "6th Street East", "city": "Steinhatchee", "state": "Florida", "postcode": "32359", "lat": 29.674152914824116, "long": -83.38467987877455}, {"house_number": "101", "road": "6th Street East", "city": "Steinhatchee", "state": "Florida", "postcode": "32359", "lat": 29.674152914824116, "long": -83.38467987877455}, {"house_number": "851", "road": "Robins Lane", "city": "Steinhatchee", "state": "Florida", "postcode": "32359", "lat": 29.678796451664734, "long": -83.3810986288351}, {"house_number": "1250", "road": "North Calhoun Street", "city": "Perry", "state": "Florida", "postcode": "32347", "lat": 30.12728824494534, "long": -83.5848017581172}, {"house_number": "750", "road": "Riverside Drive", "city": "Steinhatchee", "state": "Florida", "postcode": "32359", "lat": 29.67024304300858, "long": -83.38188200302383}, {"house_number": "1409", "road": "South Old Dixie Highway", "city": "Perry", "state": "Florida", "postcode": "32348", "lat": 30.105303043888522, "long": -83.57894444347347}, {"house_number": "1409", "road": "South Old Dixie Highway", "city": "Perry", "state": "Florida", "postcode": "32348", "lat": 30.105303043888522, "long": -83.57894444347347}, {"house_number": "214", "road": "Byron Butler Parkway", "city": "Perry", "state": "Florida", "postcode": "32347", "lat": 30.116253014770702, "long": -83.58931511924195}, {"house_number": "1496", "road": "West Julia Street", "city": "Perry", "state": "Florida", "postcode": "32347", "lat": 30.12414, "long": -83.5992205}, {"house_number": "1478", "road": "West Julia Street", "city": "Perry", "state": "Florida", "postcode": "32347", "lat": 30.12415403074076, "long": -83.59787746233626}, {"house_number": "1458", "road": "West Bacon Avenue", "city": "Perry", "state": "Florida", "postcode": "32348", "lat": 30.109444173826372, "long": -83.59432494372497}, {"house_number": "154", "road": "Bird Street", "city": "Perry", "state": "Florida", "postcode": "32348", "lat": 30.109169641387812, "long": -83.59403148226225}, {"house_number": "1150", "road": "North Avenue", "city": "Perry", "state": "Florida", "postcode": "32348", "lat": 30.10849678515188, "long": -83.593205028021}, {"house_number": "652", "road": "Warner Avenue South", "city": "Perry", "state": "Florida", "postcode": "32348", "lat": 30.102924999999992, "long": -83.59584999999998}, {"house_number": "652", "road": "Warner Avenue South", "city": "Perry", "state": "Florida", "postcode": "32348", "lat": 30.102924999999992, "long": -83.59584999999998}, {"house_number": "1307", "road": "Schwartz Street", "city": "Perry", "state": "Florida", "postcode": "32348", "lat": 30.108364499999993, "long": -83.59168999999999}, {"house_number": "678", "road": "East Ash Street", "city": "Perry", "state": "Florida", "postcode": "32347", "lat": 30.128451088119945, "long": -83.5696449872495}, {"house_number": "203", "road": "Kathleen Road", "city": "Perry", "state": "Florida", "postcode": "32348", "lat": 30.10422417881573, "long": -83.60276670707849}, {"house_number": "249", "road": "Pate Street", "city": "Perry", "state": "Florida", "postcode": "32348", "lat": 30.104937392107423, "long": -83.60085490132792}, {"house_number": "124", "road": "Glenn Street West", "city": "Perry", "state": "Florida", "postcode": "32348", "lat": 30.100897388378907, "long": -83.59726993210295}, {"house_number": "152", "road": "Buffalo Drive", "city": "Perry", "state": "Florida", "postcode": "32348", "lat": 30.10068308891651, "long": -83.60132988681472}, {"house_number": "152", "road": "Buffalo Drive", "city": "Perry", "state": "Florida", "postcode": "32348", "lat": 30.10068308891651, "long": -83.60132988681472}, {"house_number": "249", "road": "Folsom Street West", "city": "Perry", "state": "Florida", "postcode": "32348", "lat": 30.09845215396044, "long": -83.60125002623192}, {"house_number": "206", "road": "South Beverly Street", "city": "Perry", "state": "Florida", "postcode": "32348", "lat": 30.095338474806592, "long": -83.60224477498103}, {"house_number": "206", "road": "South Beverly Street", "city": "Perry", "state": "Florida", "postcode": "32348", "lat": 30.095338474806592, "long": -83.60224477498103}, {"house_number": "350", "road": "Folsom Street West", "city": "Perry", "state": "Florida", "postcode": "32348", "lat": 30.09843263723707, "long": -83.60273997302801}, {"house_number": "150", "road": "Dupont Street", "city": "Perry", "state": "Florida", "postcode": "32348", "lat": 30.099149793056036, "long": -83.60317605548241}, {"house_number": "105", "road": "Belair Street", "city": "Perry", "state": "Florida", "postcode": "32348", "lat": 30.099045019350452, "long": -83.60232258694016}, {"house_number": "199", "road": "Belair Street", "city": "Perry", "state": "Florida", "postcode": "32348", "lat": 30.0997575976225, "long": -83.60234189259631}, {"house_number": "153", "road": "Kennedy Street", "city": "Perry", "state": "Florida", "postcode": "32348", "lat": 30.099874756984217, "long": -83.60355011543108}, {"house_number": "150", "road": "Swift Street", "city": "Perry", "state": "Florida", "postcode": "32348", "lat": 30.102084355733417, "long": -83.59656506026862}, {"house_number": "306", "road": "Mays Street", "city": "Perry", "state": "Florida", "postcode": "32348", "lat": 30.099154858671216, "long": -83.60396562981856}, {"house_number": "448", "road": "Folsom Street West", "city": "Perry", "state": "Florida", "postcode": "32348", "lat": 30.098427632479126, "long": -83.60355503558053}, {"house_number": "149", "road": "Third Street", "city": "Perry", "state": "Florida", "postcode": "32348", "lat": 30.107185344169856, "long": -83.597068148018}, {"house_number": "148", "road": "Clifford Lane", "city": "Perry", "state": "Florida", "postcode": "32348", "lat": 30.10674325902393, "long": -83.59635497897425}, {"house_number": "148", "road": "Clifford Lane", "city": "Perry", "state": "Florida", "postcode": "32348", "lat": 30.10674325902393, "long": -83.59635497897425}, {"house_number": "400", "road": "Warner Avenue South", "city": "Perry", "state": "Florida", "postcode": "32348", "lat": 30.106254991882885, "long": -83.59564475767968}, {"house_number": "400", "road": "Warner Avenue South", "city": "Perry", "state": "Florida", "postcode": "32348", "lat": 30.106254991882885, "long": -83.59564475767968}, {"house_number": "1250", "road": "North Avenue", "city": "Perry", "state": "Florida", "postcode": "32348", "lat": 30.108491312850134, "long": -83.59377803079845}, {"house_number": "86", "road": "Second Street", "city": "Perry", "state": "Florida", "postcode": "32348", "lat": 30.107045545023414, "long": -83.59792316583788}, {"house_number": "150", "road": "Byron Butler Parkway", "city": "Perry", "state": "Florida", "postcode": "32347", "lat": 30.11676, "long": -83.58933499999999}, {"house_number": "650", "road": "West Drew Street", "city": "Perry", "state": "Florida", "postcode": "32347", "lat": 30.116339999999997, "long": -83.58726399999999}, {"house_number": "550", "road": "West Drew Street", "city": "Perry", "state": "Florida", "postcode": "32347", "lat": 30.116332787480918, "long": -83.58631002195855}, {"house_number": "101", "road": "South Alston Street", "city": "Perry", "state": "Florida", "postcode": "32347", "lat": 30.116735018392074, "long": -83.5858368824962}, {"house_number": "150", "road": "West Drew Street", "city": "Perry", "state": "Florida", "postcode": "32347", "lat": 30.116317718089846, "long": -83.58256003213319}, {"house_number": "949", "road": "South Washington Street", "city": "Perry", "state": "Florida", "postcode": "32347", "lat": 30.111274987321234, "long": -83.58119622861977}, {"house_number": "948", "road": "East Green Street", "city": "Perry", "state": "Florida", "postcode": "32347", "lat": 30.117100000000004, "long": -83.57436999999999}, {"house_number": "144", "road": "West Homer J Smith Avenue", "city": "Perry", "state": "Florida", "postcode": "32348", "lat": 30.110620533837523, "long": -83.5839729816983}, {"house_number": "350", "road": "West Main Street", "city": "Perry", "state": "Florida", "postcode": "32347", "lat": 30.11796, "long": -83.58446149999999}, {"house_number": "350", "road": "West Bay Street", "city": "Perry", "state": "Florida", "postcode": "32347", "lat": 30.11877, "long": -83.58455499999998}, {"house_number": "352", "road": "Steinhatchee Drive", "city": "Steinhatchee", "state": "Florida", "postcode": "32359", "lat": 29.679275117342627, "long": -83.36592451563277}, {"house_number": "459", "road": "Granger Drive", "city": "Steinhatchee", "state": "Florida", "postcode": "32359", "lat": 29.66787530317804, "long": -83.36589510437354}, {"house_number": "459", "road": "Granger Drive", "city": "Steinhatchee", "state": "Florida", "postcode": "32359", "lat": 29.66787530317804, "long": -83.36589510437354}, {"house_number": "697", "road": "South Hendry Avenue", "city": "Perry", "state": "Florida", "postcode": "32347", "lat": 30.112787997038996, "long": -83.57544094229569}, {"house_number": "3451", "road": "South Old Dixie Highway", "city": "Perry", "state": "Florida", "postcode": "32348", "lat": 30.082768031252577, "long": -83.56150168557441}, {"house_number": "3451", "road": "South Old Dixie Highway", "city": "Perry", "state": "Florida", "postcode": "32348", "lat": 30.082768031252577, "long": -83.56150168557441}, {"house_number": "3451", "road": "South Old Dixie Highway", "city": "Perry", "state": "Florida", "postcode": "32348", "lat": 30.082768031252577, "long": -83.56150168557441}, {"house_number": "3451", "road": "South Old Dixie Highway", "city": "Perry", "state": "Florida", "postcode": "32348", "lat": 30.082768031252577, "long": -83.56150168557441}, {"house_number": "384", "road": "West Drew Street", "city": "Perry", "state": "Florida", "postcode": "32347", "lat": 30.116324899000052, "long": -83.58442498492842}, {"house_number": "450", "road": "West Lafayette Street", "city": "Perry", "state": "Florida", "postcode": "32347", "lat": 30.12040450154257, "long": -83.5852200048625}, {"house_number": "205", "road": "Hampton Springs Avenue", "city": "Perry", "state": "Florida", "postcode": "32347", "lat": 30.111580129757993, "long": -83.58354750661533}, {"house_number": "1349", "road": "Jefferson Street", "city": "Perry", "state": "Florida", "postcode": "32348", "lat": 30.107679954777662, "long": -83.58211179131557}, {"house_number": "601", "road": "East Lafayette Street", "city": "Perry", "state": "Florida", "postcode": "32347", "lat": 30.120868204513698, "long": -83.57433914563764}, {"house_number": "151", "road": "South Orange Street", "city": "Perry", "state": "Florida", "postcode": "32347", "lat": 30.108717649546435, "long": -83.58028854433954}, {"house_number": "151", "road": "South Orange Street", "city": "Perry", "state": "Florida", "postcode": "32347", "lat": 30.108717649546435, "long": -83.58028854433954}, {"house_number": "753", "road": "Puckett Road", "city": "Perry", "state": "Florida", "postcode": "32348", "lat": 30.088389776233193, "long": -83.58364734214636}, {"house_number": "1348", "road": "South Old Dixie Highway", "city": "Perry", "state": "Florida", "postcode": "32348", "lat": 30.107719273603426, "long": -83.5808109467652}, {"house_number": "1829", "road": "Courtney Road", "city": "Perry", "state": "Florida", "postcode": "32347", "lat": 30.136115776943093, "long": -83.60284575218206}, {"house_number": "301", "road": "Cedar Street", "city": "Steinhatchee", "state": "Florida", "postcode": "32359", "lat": 29.678030409591262, "long": -83.3648171393904}, {"house_number": "250", "road": "12th Street East", "city": "Steinhatchee", "state": "Florida", "postcode": "32359", "lat": 29.670200055652213, "long": -83.37493758596489}, {"house_number": "250", "road": "12th Street East", "city": "Steinhatchee", "state": "Florida", "postcode": "32359", "lat": 29.670200055652213, "long": -83.37493758596489}, {"house_number": "250", "road": "12th Street East", "city": "Steinhatchee", "state": "Florida", "postcode": "32359", "lat": 29.670200055652213, "long": -83.37493758596489}, {"house_number": "250", "road": "12th Street East", "city": "Steinhatchee", "state": "Florida", "postcode": "32359", "lat": 29.670200055652213, "long": -83.37493758596489}, {"house_number": "250", "road": "12th Street East", "city": "Steinhatchee", "state": "Florida", "postcode": "32359", "lat": 29.670200055652213, "long": -83.37493758596489}, {"house_number": "153", "road": "North Cheryl Drive", "city": "Perry", "state": "Florida", "postcode": "32347", "lat": 30.134295999999996, "long": -83.58027}, {"house_number": "548", "road": "Morgan Avenue East", "city": "Perry", "state": "Florida", "postcode": "32347", "lat": 30.115699342218843, "long": -83.57841058427486}, {"house_number": "155", "road": "Donna Drive", "city": "Perry", "state": "Florida", "postcode": "32347", "lat": 30.13428315547978, "long": -83.58125603688981}, {"house_number": "816", "road": "Quail Street", "city": "Perry", "state": "Florida", "postcode": "32348", "lat": 30.10720849999999, "long": -83.57556649999998}, {"house_number": "251", "road": "West Duval Street", "city": "Perry", "state": "Florida", "postcode": "32348", "lat": 30.108542932473664, "long": -83.58434134701594}, {"house_number": "659", "road": "Judson Drive", "city": "Perry", "state": "Florida", "postcode": "32348", "lat": 30.086039636773027, "long": -83.59217148611299}, {"house_number": "659", "road": "Judson Drive", "city": "Perry", "state": "Florida", "postcode": "32348", "lat": 30.086039636773027, "long": -83.59217148611299}, {"house_number": "659", "road": "Judson Drive", "city": "Perry", "state": "Florida", "postcode": "32348", "lat": 30.086039636773027, "long": -83.59217148611299}, {"house_number": "659", "road": "Judson Drive", "city": "Perry", "state": "Florida", "postcode": "32348", "lat": 30.086039636773027, "long": -83.59217148611299}, {"house_number": "659", "road": "Judson Drive", "city": "Perry", "state": "Florida", "postcode": "32348", "lat": 30.086039636773027, "long": -83.59217148611299}, {"house_number": "659", "road": "Judson Drive", "city": "Perry", "state": "Florida", "postcode": "32348", "lat": 30.086039636773027, "long": -83.59217148611299}, {"house_number": "20369", "road": "Beach Road", "city": "Keaton Beach", "state": "Florida", "postcode": "32347", "lat": 29.8271072894241, "long": -83.57727566311878}, {"house_number": "20369", "road": "Beach Road", "city": "Keaton Beach", "state": "Florida", "postcode": "32347", "lat": 29.8271072894241, "long": -83.57727566311878}, {"house_number": "3049", "road": "Puckett Road", "city": "Perry", "state": "Florida", "postcode": "32348", "lat": 30.082637366078192, "long": -83.58387368450299}, {"house_number": "151", "road": "Palmetto Street", "city": "Perry", "state": "Florida", "postcode": "32348", "lat": 30.09685138540575, "long": -83.56679379348056}, {"house_number": "1599", "road": "Central Avenue", "city": "Steinhatchee", "state": "Florida", "postcode": "32359", "lat": 29.674413985811107, "long": -83.36844597009619}, {"house_number": "1399", "road": "South Robin Street", "city": "Perry", "state": "Florida", "postcode": "32348", "lat": 30.107112690894162, "long": -83.57728247984657}, {"house_number": "109", "road": "Pinetree Road", "city": "Perry", "state": "Florida", "postcode": "32348", "lat": 30.09274744421572, "long": -83.55803887684556}, {"house_number": "128", "road": "Pinetree Road", "city": "Perry", "state": "Florida", "postcode": "32348", "lat": 30.092809325905662, "long": -83.55134722320089}, {"house_number": "1601", "road": "1st Avenue Northeast", "city": "Steinhatchee", "state": "Florida", "postcode": "32359", "lat": 29.675852767311977, "long": -83.36793014596216}]