[{"house_number": "1706", "road": "Villa Capri Circle", "city": "Odessa", "state": "Florida", "postcode": "33556", "lat": 28.182519966658322, "long": -82.54193254101622}, {"house_number": "3501", "road": "Alabaster Drive", "city": "Zephyrhills", "state": "Florida", "postcode": "33540", "lat": 28.208388638332615, "long": -82.16213084851027}, {"house_number": "29051", "road": "Landbridge Street", "city": "Wesley Chapel", "state": "Florida", "postcode": "33543", "lat": 28.18127087417724, "long": -82.33590779178587}, {"house_number": "13051", "road": "Clermont Street", "city": "Hudson", "state": "Florida", "postcode": "34667", "lat": 28.346677495472886, "long": -82.69659768128622}, {"house_number": "11250", "road": "Rollingwood Drive", "city": "Bayonet Point", "state": "Florida", "postcode": "34668", "lat": 28.320533260859303, "long": -82.68189026422144}, {"house_number": "3496", "road": "Beryl Lane", "city": "Zephyrhills", "state": "Florida", "postcode": "33540", "lat": 28.208570777614547, "long": -82.16158841422074}, {"house_number": "21063", "road": "Lake Vienna Drive", "city": "Land O' Lakes", "state": "Florida", "postcode": "34638", "lat": 28.20487616833007, "long": -82.46788515933261}, {"house_number": "3099", "road": "Lecanto Street", "city": "Holiday", "state": "Florida", "postcode": "34691", "lat": 28.19826775888049, "long": -82.76269866318204}, {"house_number": "1163", "road": "Toski Drive", "city": "Trinity", "state": "Florida", "postcode": "34655", "lat": 28.17586917900117, "long": -82.66299456011022}, {"house_number": "8951", "road": "Mark Twain Lane", "city": "Jasmine Estates", "state": "Florida", "postcode": "34668", "lat": 28.28747800159533, "long": -82.6843455000035}, {"house_number": "7126", "road": "Arbutus Drive", "city": "Jasmine Estates", "state": "Florida", "postcode": "34668", "lat": 28.310602491798086, "long": -82.69654150077243}, {"house_number": "9417", "road": "Ottawa Street", "city": "Bayonet Point", "state": "Florida", "postcode": "34654", "lat": 28.327010927990415, "long": -82.65893150610492}, {"house_number": "10053", "road": "Appleby Avenue", "city": "Jasmine Estates", "state": "Florida", "postcode": "34668", "lat": 28.303200637350685, "long": -82.70162494528223}, {"house_number": "10053", "road": "Appleby Avenue", "city": "Jasmine Estates", "state": "Florida", "postcode": "34668", "lat": 28.303200637350685, "long": -82.70162494528223}, {"house_number": "8467", "road": "Green Street", "city": "Port Richey", "state": "Florida", "postcode": "34668", "lat": 28.280512994100093, "long": -82.72477449224976}, {"house_number": "14601", "road": "McDonald Lane", "city": "Hudson", "state": "Florida", "postcode": "34667", "lat": 28.369403137152382, "long": -82.70289349090346}, {"house_number": "5566", "road": "Our Lane", "city": "Zephyrhills", "state": "Florida", "postcode": "33542", "lat": 28.238221449730208, "long": -82.18890949031949}, {"house_number": "5064", "road": "16th Street", "city": "Zephyrhills", "state": "Florida", "postcode": "33542", "lat": 28.231291112080733, "long": -82.17581128586038}, {"house_number": "6267", "road": "Ohio Street", "city": "Zephyrhills", "state": "Florida", "postcode": "33542", "lat": 28.249106503975792, "long": -82.17354064627924}, {"house_number": "6161", "road": "Bayberry Street", "city": "Zephyrhills", "state": "Florida", "postcode": "33542", "lat": 28.247362063751467, "long": -82.17872484002442}, {"house_number": "6161", "road": "Bayberry Street", "city": "Zephyrhills", "state": "Florida", "postcode": "33542", "lat": 28.247362063751467, "long": -82.17872484002442}, {"house_number": "4722", "road": "Cottage Street", "city": "Zephyrhills", "state": "Florida", "postcode": "33542", "lat": 28.226635003707983, "long": -82.18688392891343}, {"house_number": "38705", "road": "Remora Avenue", "city": "Zephyrhills", "state": "Florida", "postcode": "33542", "lat": 28.252925804849383, "long": -82.17690300217718}, {"house_number": "5558", "road": "Solie Court", "city": "Port Richey", "state": "Florida", "postcode": "34668", "lat": 28.27451873627347, "long": -82.72224367084722}, {"house_number": "7505", "road": "Chapel Avenue", "city": "Port Richey", "state": "Florida", "postcode": "34668", "lat": 28.26642366802561, "long": -82.72070192978406}, {"house_number": "39450", "road": "South Avenue", "city": "Zephyrhills", "state": "Florida", "postcode": "33542", "lat": 28.232638992913138, "long": -82.16024763612228}, {"house_number": "6148", "road": "Abbott Station Drive", "city": "Zephyrhills", "state": "Florida", "postcode": "33542", "lat": 28.246873764653994, "long": -82.20073147067184}, {"house_number": "38954", "road": "18th Avenue", "city": "Zephyrhills", "state": "Florida", "postcode": "33542", "lat": 28.246435278199495, "long": -82.17202150212277}, {"house_number": "13152", "road": "Williams Road", "city": "Dade City", "state": "Florida", "postcode": "33525", "lat": 28.34692898183222, "long": -82.22002647160043}, {"house_number": "36649", "road": "Howard Avenue", "city": "Dade City", "state": "Florida", "postcode": "33525", "lat": 28.361490080787732, "long": -82.20867550354062}, {"house_number": "1822", "road": "Grand Boulevard", "city": "Holiday", "state": "Florida", "postcode": "34690", "lat": 28.18555153075443, "long": -82.72347609167443}, {"house_number": "6026", "road": "Oak Ridge Avenue", "city": "New Port Richey", "state": "Florida", "postcode": "34653", "lat": 28.242237821678383, "long": -82.71470209179543}, {"house_number": "4942", "road": "Myrtle Oak Drive", "city": "New Port Richey", "state": "Florida", "postcode": "34653", "lat": 28.2309105467552, "long": -82.70779937715673}, {"house_number": "4283", "road": "Admiral Drive", "city": "Elfers", "state": "Florida", "postcode": "34652", "lat": 28.22146361221216, "long": -82.72215375901071}, {"house_number": "5272", "road": "Limestone Drive", "city": "Port Richey", "state": "Florida", "postcode": "34668", "lat": 28.269873066104523, "long": -82.72724646050814}, {"house_number": "7643", "road": "Greystone Drive", "city": "Bayonet Point", "state": "Florida", "postcode": "34667", "lat": 28.340106479442927, "long": -82.69067989137632}, {"house_number": "7643", "road": "Greystone Drive", "city": "Bayonet Point", "state": "Florida", "postcode": "34667", "lat": 28.340106479442927, "long": -82.69067989137632}, {"house_number": "9885", "road": "Marlinton Lane", "city": "Jasmine Estates", "state": "Florida", "postcode": "34668", "lat": 28.30105499989152, "long": -82.68163060999981}, {"house_number": "7467", "road": "Coventry Drive", "city": "Bayonet Point", "state": "Florida", "postcode": "34668", "lat": 28.31351249866667, "long": -82.69112449999345}, {"house_number": "13051", "road": "Avon Street", "city": "Hudson", "state": "Florida", "postcode": "34667", "lat": 28.346685995259655, "long": -82.6978142231455}, {"house_number": "13051", "road": "Bartow Street", "city": "Hudson", "state": "Florida", "postcode": "34667", "lat": 28.346676986582274, "long": -82.69720330027083}, {"house_number": "13050", "road": "Smoketree Way", "city": "Hudson", "state": "Florida", "postcode": "34667", "lat": 28.346966458703434, "long": -82.68714497693023}, {"house_number": "7109", "road": "Edna Avenue", "city": "Bayonet Point", "state": "Florida", "postcode": "34667", "lat": 28.3354438213572, "long": -82.69792050019696}, {"house_number": "6748", "road": "Embassy Boulevard", "city": "Jasmine Estates", "state": "Florida", "postcode": "34668", "lat": 28.293618060693607, "long": -82.7036599748568}, {"house_number": "12353", "road": "Eagleswood Drive", "city": "Bayonet Point", "state": "Florida", "postcode": "34667", "lat": 28.336933213526663, "long": -82.68102736422803}, {"house_number": "13449", "road": "14th Street", "city": "Dade City", "state": "Florida", "postcode": "33525", "lat": 28.353212299665888, "long": -82.19574440738666}, {"house_number": "6501", "road": "Brandon Drive", "city": "New Port Richey", "state": "Florida", "postcode": "34652", "lat": 28.25277300133033, "long": -82.72648766223426}, {"house_number": "4249", "road": "Wiggins Drive", "city": "Elfers", "state": "Florida", "postcode": "34652", "lat": 28.220848995480367, "long": -82.73173006654753}, {"house_number": "1074", "road": "Almondwood Drive", "city": "Trinity", "state": "Florida", "postcode": "34655", "lat": 28.174293170488173, "long": -82.63486163091876}, {"house_number": "7851", "road": "Doral Drive", "city": "Hudson", "state": "Florida", "postcode": "34667", "lat": 28.346972803542023, "long": -82.68517124543105}, {"house_number": "7851", "road": "Doral Drive", "city": "Hudson", "state": "Florida", "postcode": "34667", "lat": 28.346972803542023, "long": -82.68517124543105}, {"house_number": "12750", "road": "Candlewood Way", "city": "Bayonet Point", "state": "Florida", "postcode": "34667", "lat": 28.34338523009763, "long": -82.68862643155646}, {"house_number": "12750", "road": "Candlewood Way", "city": "Bayonet Point", "state": "Florida", "postcode": "34667", "lat": 28.34338523009763, "long": -82.68862643155646}, {"house_number": "12750", "road": "Candlewood Way", "city": "Bayonet Point", "state": "Florida", "postcode": "34667", "lat": 28.34338523009763, "long": -82.68862643155646}, {"house_number": "7148", "road": "Commons Boulevard", "city": "Bayonet Point", "state": "Florida", "postcode": "34668", "lat": 28.32143271164462, "long": -82.69638787877885}, {"house_number": "7670", "road": "Forest Trail", "city": "Jasmine Estates", "state": "Florida", "postcode": "34668", "lat": 28.281898255641043, "long": -82.68700583599497}, {"house_number": "10101", "road": "Floral Way", "city": "Jasmine Estates", "state": "Florida", "postcode": "34668", "lat": 28.303197011878197, "long": -82.70080175899399}, {"house_number": "37699", "road": "Henley Avenue", "city": "Dade City", "state": "Florida", "postcode": "33525", "lat": 28.360582844555466, "long": -82.1926581466941}, {"house_number": "37048", "road": "Old San Ann Road", "city": "Dade City", "state": "Florida", "postcode": "33525", "lat": 28.356621266882343, "long": -82.20126658384068}, {"house_number": "21351", "road": "Durden Road", "city": "Lacoochee", "state": "Florida", "postcode": "33523", "lat": 28.468842481803872, "long": -82.16225726599842}, {"house_number": "6551", "road": "Carly Drive", "city": "New Port Richey", "state": "Florida", "postcode": "34652", "lat": 28.252792000608455, "long": -82.72604680872321}, {"house_number": "6549", "road": "Orchid Lake Road", "city": "New Port Richey", "state": "Florida", "postcode": "34653", "lat": 28.271568583849493, "long": -82.70655838895092}, {"house_number": "3549", "road": "Aquamarine Way", "city": "Zephyrhills", "state": "Florida", "postcode": "33540", "lat": 28.208783453643335, "long": -82.1611694761638}, {"house_number": "7251", "road": "Green Slope Drive", "city": "Zephyrhills", "state": "Florida", "postcode": "33541", "lat": 28.263092331430542, "long": -82.19204464553961}, {"house_number": "3453", "road": "Aquamarine Way", "city": "Zephyrhills", "state": "Florida", "postcode": "33540", "lat": 28.207861445672616, "long": -82.16122988866385}, {"house_number": "13653", "road": "Sheila Lynn Court", "city": "Dade City", "state": "Florida", "postcode": "33525", "lat": 28.356867551510277, "long": -82.20297610619238}, {"house_number": "13653", "road": "Sheila Lynn Court", "city": "Dade City", "state": "Florida", "postcode": "33525", "lat": 28.356867551510277, "long": -82.20297610619238}, {"house_number": "1885", "road": "Dartmouth Drive", "city": "Holiday", "state": "Florida", "postcode": "34691", "lat": 28.186367500934615, "long": -82.76404822211603}, {"house_number": "6600", "road": "Madison Street", "city": "New Port Richey", "state": "Florida", "postcode": "34652", "lat": 28.255486564009065, "long": -82.71390600408984}, {"house_number": "14413", "road": "Ovid Drive", "city": "Hudson", "state": "Florida", "postcode": "34667", "lat": 28.366794996280483, "long": -82.68293190757679}, {"house_number": "6013", "road": "14th Street", "city": "Zephyrhills", "state": "Florida", "postcode": "33542", "lat": 28.24498749920945, "long": -82.17791514609642}, {"house_number": "39543", "road": "Aviation Avenue", "city": "Zephyrhills", "state": "Florida", "postcode": "33542", "lat": 28.227738748297277, "long": -82.16541285959819}, {"house_number": "29421", "road": "Crossland Drive", "city": "Wesley Chapel", "state": "Florida", "postcode": "33543", "lat": 28.173341350895452, "long": -82.3300993951267}, {"house_number": "8394", "road": "Chasco Woods Boulevard", "city": "Jasmine Estates", "state": "Florida", "postcode": "34668", "lat": 28.279064733087186, "long": -82.68843424164565}, {"house_number": "8394", "road": "Chasco Woods Boulevard", "city": "Jasmine Estates", "state": "Florida", "postcode": "34668", "lat": 28.279064733087186, "long": -82.68843424164565}, {"house_number": "8394", "road": "Chasco Woods Boulevard", "city": "Jasmine Estates", "state": "Florida", "postcode": "34668", "lat": 28.279064733087186, "long": -82.68843424164565}, {"house_number": "6449", "road": "Date Palm Boulevard", "city": "Jasmine Estates", "state": "Florida", "postcode": "34668", "lat": 28.282343184161093, "long": -82.70766175051588}, {"house_number": "7849", "road": "Flintlock Drive", "city": "Jasmine Estates", "state": "Florida", "postcode": "34668", "lat": 28.295322846506245, "long": -82.6850244967689}, {"house_number": "16322", "road": "Sea Pines Drive", "city": "Hudson", "state": "Florida", "postcode": "34667", "lat": 28.39372169524537, "long": -82.6781820002868}, {"house_number": "5598", "road": "Laura Street", "city": "Zephyrhills", "state": "Florida", "postcode": "33542", "lat": 28.238147511235585, "long": -82.16544776598847}, {"house_number": "6051", "road": "17th Street", "city": "Zephyrhills", "state": "Florida", "postcode": "33542", "lat": 28.245372839896152, "long": -82.1745938709931}, {"house_number": "6051", "road": "17th Street", "city": "Zephyrhills", "state": "Florida", "postcode": "33542", "lat": 28.245372839896152, "long": -82.1745938709931}, {"house_number": "7448", "road": "Landing Place", "city": "Zephyrhills", "state": "Florida", "postcode": "33541", "lat": 28.26536433927484, "long": -82.19459955462642}, {"house_number": "37448", "road": "Teaberry Loop", "city": "Zephyrhills", "state": "Florida", "postcode": "33542", "lat": 28.244129639890225, "long": -82.19782504802295}, {"house_number": "4550", "road": "Deerhound Drive", "city": "Land O' Lakes", "state": "Florida", "postcode": "34639", "lat": 28.22341299999999, "long": -82.44791099999999}]