[{"house_number": "956", "road": "Baker Street", "city": "Immokalee", "state": "Florida", "postcode": "34142", "lat": 26.430492918188804, "long": -81.44123276381724}, {"house_number": "956", "road": "Baker Street", "city": "Immokalee", "state": "Florida", "postcode": "34142", "lat": 26.430492918188804, "long": -81.44123276381724}, {"house_number": "102", "road": "Estuary Drive", "city": "Naples", "state": "Florida", "postcode": "34105", "lat": 26.178126914586112, "long": -81.77886943225676}, {"house_number": "29", "road": "Las Brisas Way", "city": "Pelican Bay", "state": "Florida", "postcode": "34108", "lat": 26.231120319047292, "long": -81.80340722903269}, {"house_number": "148", "road": "Bay Road", "city": "Naples", "state": "Florida", "postcode": "34102", "lat": 26.095389618271792, "long": -81.8004760001097}, {"house_number": "461", "road": "Short Lane", "city": "Naples", "state": "Florida", "postcode": "34102", "lat": 26.11724148369165, "long": -81.79800999958901}, {"house_number": "16970", "road": "Porta Vecchio Way", "city": "Bonita Springs", "state": "Florida", "postcode": "34110", "lat": 26.316317954098732, "long": -81.7835791335091}, {"house_number": "4049", "road": "Goodlette-Frank Road North", "city": "Naples", "state": "Florida", "postcode": "34103", "lat": 26.196257001849155, "long": -81.7919514280131}, {"house_number": "2198", "road": "Goodlette-Frank Road North", "city": "Naples", "state": "Florida", "postcode": "34102", "lat": 26.173625496341906, "long": -81.79150430106453}, {"house_number": "1239", "road": "Sandpiper Street", "city": "Naples", "state": "Florida", "postcode": "34112", "lat": 26.133154799458037, "long": -81.78276921008239}, {"house_number": "16939", "road": "Verona Lane", "city": "Bonita Springs", "state": "Florida", "postcode": "34110", "lat": 26.31479567780063, "long": -81.7784363626537}, {"house_number": "16990", "road": "Verona Lane", "city": "Bonita Springs", "state": "Florida", "postcode": "34110", "lat": 26.31560369581258, "long": -81.77690490104861}, {"house_number": "351", "road": "South 9th Street", "city": "Immokalee", "state": "Florida", "postcode": "34142", "lat": 26.412996525718693, "long": -81.42544434404495}, {"house_number": "1902", "road": "Danford Street", "city": "Naples", "state": "Florida", "postcode": "34112", "lat": 26.103352182612287, "long": -81.78041801134007}, {"house_number": "1902", "road": "Danford Street", "city": "Naples", "state": "Florida", "postcode": "34112", "lat": 26.103352182612287, "long": -81.78041801134007}, {"house_number": "5971", "road": "Plymouth Place", "city": "Ave Maria", "state": "Florida", "postcode": "34142", "lat": 26.31110423392245, "long": -81.44146748792558}, {"house_number": "506", "road": "Immokalee Road", "city": "Immokalee", "state": "Florida", "postcode": "34142", "lat": 26.410572500681386, "long": -81.41726878267565}, {"house_number": "1934", "road": "Alexander Circle", "city": "Immokalee", "state": "Florida", "postcode": "34142", "lat": 26.407030999150155, "long": -81.39213485975225}, {"house_number": "2699", "road": "Davis Boulevard", "city": "Naples", "state": "Florida", "postcode": "34104", "lat": 26.138434702385727, "long": -81.77272750370891}, {"house_number": "5507", "road": "Rattlesnake Hammock Road", "city": "Lely Country Club", "state": "Florida", "postcode": "34113", "lat": 26.109237670237142, "long": -81.73314449945183}, {"house_number": "1008", "road": "Ridge Street", "city": "Naples", "state": "Florida", "postcode": "34103", "lat": 26.184294210532656, "long": -81.79823300332482}, {"house_number": "1749", "road": "Gulfstar Drive South", "city": "Naples", "state": "Florida", "postcode": "34112", "lat": 26.103830945255993, "long": -81.78118655997628}, {"house_number": "7897", "road": "Cordoba Place", "city": "Lely Resort", "state": "Florida", "postcode": "34113", "lat": 26.089768320521692, "long": -81.69975136938403}, {"house_number": "608", "road": "Doak Avenue", "city": "Immokalee", "state": "Florida", "postcode": "34142", "lat": 26.407998945803794, "long": -81.42336917020599}, {"house_number": "2649", "road": "Marianna Way", "city": "Immokalee", "state": "Florida", "postcode": "34142", "lat": 26.426822260951916, "long": -81.44540693291982}, {"house_number": "174", "road": "Teryl Road", "city": "Naples", "state": "Florida", "postcode": "34112", "lat": 26.132551327178955, "long": -81.75576603212929}, {"house_number": "174", "road": "Teryl Road", "city": "Naples", "state": "Florida", "postcode": "34112", "lat": 26.132551327178955, "long": -81.75576603212929}, {"house_number": "6349", "road": "Pelican Bay Boulevard", "city": "Pelican Bay", "state": "Florida", "postcode": "34108", "lat": 26.225742475029108, "long": -81.81045501850083}, {"house_number": "854", "road": "Collier Court", "city": "Marco Island", "state": "Florida", "postcode": "34145", "lat": 25.913987400580464, "long": -81.71890181576077}, {"house_number": "200", "road": "10th Street South", "city": "Naples", "state": "Florida", "postcode": "34102", "lat": 26.145324621302475, "long": -81.79385959868694}, {"house_number": "1848", "road": "Granada Drive", "city": "Marco Island", "state": "Florida", "postcode": "34145", "lat": 25.931122790186446, "long": -81.6975557299237}, {"house_number": "3975", "road": "Goodlette-Frank Road North", "city": "Naples", "state": "Florida", "postcode": "34103", "lat": 26.19531750529632, "long": -81.79192776556285}, {"house_number": "4201", "road": "Goodlette-Frank Road North", "city": "Naples", "state": "Florida", "postcode": "34103", "lat": 26.197810943406747, "long": -81.7919830061473}, {"house_number": "1808", "road": "Imperial Golf Course Boulevard", "city": "Naples", "state": "Florida", "postcode": "34110", "lat": 26.290173700797432, "long": -81.78984998681976}, {"house_number": "5563", "road": "Crayton Road", "city": "Pelican Bay", "state": "Florida", "postcode": "34108", "lat": 26.215786081535562, "long": -81.80895562722952}]