[{"house_number": "149", "road": "Lype Street", "city": "Greenville", "state": "Florida", "postcode": "32331", "lat": 30.468196980888006, "long": -83.64011249499788}, {"house_number": "330", "road": "South Parramore Avenue", "city": "Madison", "state": "Florida", "postcode": "32340", "lat": 30.46596999999999, "long": -83.41834}, {"house_number": "550", "road": "Southeast Bisbee Loop", "city": "Lee", "state": "Florida", "postcode": "32059", "lat": 30.399369261140908, "long": -83.3072929378721}, {"house_number": "449", "road": "Southeast Bisbee Loop", "city": "Lee", "state": "Florida", "postcode": "32059", "lat": 30.399336821337155, "long": -83.30521600580991}, {"house_number": "6821", "road": "Northeast Colin Kelly Highway", "city": "Pinetta", "state": "Florida", "postcode": "32340", "lat": 30.550509899839046, "long": -83.36745788336529}, {"house_number": "6871", "road": "Northeast Colin Kelly Highway", "city": "Pinetta", "state": "Florida", "postcode": "32340", "lat": 30.550919964872808, "long": -83.3674333833861}, {"house_number": "4636", "road": "Rocky Ford Road", "city": "Madison", "state": "Florida", "postcode": "32340", "lat": 30.536275882055712, "long": -83.39252966071044}, {"house_number": "4686", "road": "Rocky Ford Road", "city": "Madison", "state": "Florida", "postcode": "32340", "lat": 30.53811319137069, "long": -83.39225251076341}, {"house_number": "4263", "road": "Rocky Ford Road", "city": "Madison", "state": "Florida", "postcode": "32340", "lat": 30.532163908308885, "long": -83.39277597206242}, {"house_number": "4497", "road": "Rocky Ford Road", "city": "Madison", "state": "Florida", "postcode": "32340", "lat": 30.53440988802358, "long": -83.39264237634208}]