[{"house_number": "21", "road": "Leyland Court", "city": "Crawfordville", "state": "Florida", "postcode": "32327", "lat": 30.167784999999995, "long": -84.35675999999998}, {"house_number": "150", "road": "Cloer Lane", "city": "Crawfordville", "state": "Florida", "postcode": "32327", "lat": 30.16906607766107, "long": -84.35891754014389}, {"house_number": "50", "road": "Imaginary Lane", "city": "Crawfordville", "state": "Florida", "postcode": "32327", "lat": 30.166949999999993, "long": -84.36012499999998}, {"house_number": "128", "road": "Harvey Mill Road", "city": "Crawfordville", "state": "Florida", "postcode": "32327", "lat": 30.165323472172755, "long": -84.38463204373552}, {"house_number": "71", "road": "Harvey Mill Road", "city": "Crawfordville", "state": "Florida", "postcode": "32327", "lat": 30.166016647051244, "long": -84.38262577762981}, {"house_number": "71", "road": "Harvey Mill Road", "city": "Crawfordville", "state": "Florida", "postcode": "32327", "lat": 30.166016647051244, "long": -84.38262577762981}, {"house_number": "3332", "road": "Crawfordville Highway", "city": "Crawfordville", "state": "Florida", "postcode": "32327", "lat": 30.16500469689877, "long": -84.37958950590208}, {"house_number": "3299", "road": "Crawfordville Highway", "city": "Crawfordville", "state": "Florida", "postcode": "32327", "lat": 30.16588974961429, "long": -84.37899464978587}, {"house_number": "31", "road": "Crawford Avenue", "city": "Crawfordville", "state": "Florida", "postcode": "32327", "lat": 30.164643220139084, "long": -84.36174474991711}, {"house_number": "58", "road": "Crawford Avenue", "city": "Crawfordville", "state": "Florida", "postcode": "32327", "lat": 30.165089999999996, "long": -84.36014499999999}, {"house_number": "176", "road": "Harvey Mill Road", "city": "Crawfordville", "state": "Florida", "postcode": "32327", "lat": 30.164859999999997, "long": -84.38758999999999}, {"house_number": "167", "road": "Council-Moore Road", "city": "Crawfordville", "state": "Florida", "postcode": "32327", "lat": 30.16471, "long": -84.37516}, {"house_number": "129", "road": "Council-Moore Road", "city": "Crawfordville", "state": "Florida", "postcode": "32327", "lat": 30.165352838201674, "long": -84.37496932150748}, {"house_number": "29", "road": "Country Way", "city": "Crawfordville", "state": "Florida", "postcode": "32327", "lat": 30.19012802600741, "long": -84.367823323329}, {"house_number": "12", "road": "Towles Road", "city": "Crawfordville", "state": "Florida", "postcode": "32327", "lat": 30.17797400613006, "long": -84.37882363685691}, {"house_number": "4518", "road": "Crawfordville Highway", "city": "Crawfordville", "state": "Florida", "postcode": "32327", "lat": 30.116280083770835, "long": -84.38322964979666}, {"house_number": "3237", "road": "Coastal Highway", "city": "Crawfordville", "state": "Florida", "postcode": "32327", "lat": 30.107534999999988, "long": -84.37849499999999}, {"house_number": "50", "road": "Wisteria Drive", "city": "Crawfordville", "state": "Florida", "postcode": "32327", "lat": 30.193494999999988, "long": -84.366345}, {"house_number": "164", "road": "Hickory Avenue", "city": "Crawfordville", "state": "Florida", "postcode": "32327", "lat": 30.185129999999994, "long": -84.367165}, {"house_number": "51", "road": "Fleetwood Circle", "city": "Crawfordville", "state": "Florida", "postcode": "32327", "lat": 30.184835517813283, "long": -84.36703335092606}, {"house_number": "150", "road": "Trice Lane", "city": "Crawfordville", "state": "Florida", "postcode": "32327", "lat": 30.192300000000003, "long": -84.36697}, {"house_number": "142", "road": "Midnight Pass", "city": "Crawfordville", "state": "Florida", "postcode": "32327", "lat": 30.19618529991809, "long": -84.34729723229177}, {"house_number": "100", "road": "Savary Lane", "city": "Crawfordville", "state": "Florida", "postcode": "32327", "lat": 30.189673393758603, "long": -84.35283739531154}, {"house_number": "180", "road": "Council-Moore Road", "city": "Crawfordville", "state": "Florida", "postcode": "32327", "lat": 30.164581809281298, "long": -84.37877312333043}, {"house_number": "548", "road": "Rehwinkel Road", "city": "Crawfordville", "state": "Florida", "postcode": "32327", "lat": 30.158394677082367, "long": -84.35063024115168}]