[{"house_number": "10352", "road": "Nina Street", "city": "Seminole", "state": "Florida", "postcode": "33778", "lat": 27.86702993471571, "long": -82.80593751999635}, {"house_number": "7050", "road": "Dicks Creek Road", "city": "Largo", "state": "Florida", "postcode": "33764", "lat": 27.905260992957466, "long": -82.73572022346515}, {"house_number": "1045", "road": "Gasparilla Drive Northeast", "city": "Saint Petersburg", "state": "Florida", "postcode": "33702", "lat": 27.845690236143838, "long": -82.62252081445841}, {"house_number": "2953", "road": "Boxwood Court", "city": "Palm Harbor", "state": "Florida", "postcode": "34684", "lat": 28.06459515432331, "long": -82.71446410874888}, {"house_number": "2158", "road": "Cunningham Drive", "city": "Palm Harbor", "state": "Florida", "postcode": "33763", "lat": 27.99797237943892, "long": -82.75065681545681}, {"house_number": "2648", "road": "Sunset Way", "city": "Saint Pete Beach", "state": "Florida", "postcode": "33706", "lat": 27.701058221639254, "long": -82.73692681782622}, {"house_number": "2648", "road": "Sunset Way", "city": "Saint Pete Beach", "state": "Florida", "postcode": "33706", "lat": 27.701058221639254, "long": -82.73692681782622}, {"house_number": "243", "road": "55th Avenue Northeast", "city": "Saint Petersburg", "state": "Florida", "postcode": "33703", "lat": 27.82181859533907, "long": -82.63328978115523}, {"house_number": "51", "road": "Burton Place", "city": "Tarpon Springs", "state": "Florida", "postcode": "34688", "lat": 28.146959331369228, "long": -82.72843986615736}, {"house_number": "1548", "road": "Kansas Avenue", "city": "Palm Harbor", "state": "Florida", "postcode": "34683", "lat": 28.086245429644315, "long": -82.75861518457288}, {"house_number": "1098", "road": "28th Avenue South", "city": "Saint Petersburg", "state": "Florida", "postcode": "33705", "lat": 27.74347544238367, "long": -82.64939582127835}, {"house_number": "1348", "road": "Oleander Drive", "city": "Tarpon Springs", "state": "Florida", "postcode": "34689", "lat": 28.146880752717212, "long": -82.77633956802266}, {"house_number": "51", "road": "Mangrove Lane", "city": "Palm Harbor", "state": "Florida", "postcode": "34681", "lat": 28.085716617237487, "long": -82.7730731093089}, {"house_number": "7233", "road": "118th Terrace", "city": "Pinellas Park", "state": "Florida", "postcode": "33773", "lat": 27.878282180003843, "long": -82.73891614651588}, {"house_number": "603", "road": "Wooddell Drive", "city": "Palm Harbor", "state": "Florida", "postcode": "34695", "lat": 27.98754699999999, "long": -82.70141449999997}, {"house_number": "603", "road": "Wooddell Drive", "city": "Palm Harbor", "state": "Florida", "postcode": "34695", "lat": 27.98754699999999, "long": -82.70141449999997}, {"house_number": "565", "road": "Wooddell Drive", "city": "Palm Harbor", "state": "Florida", "postcode": "34695", "lat": 27.987635999999995, "long": -82.70141399999999}, {"house_number": "565", "road": "Wooddell Drive", "city": "Palm Harbor", "state": "Florida", "postcode": "34695", "lat": 27.987635999999995, "long": -82.70141399999999}, {"house_number": "565", "road": "Wooddell Drive", "city": "Palm Harbor", "state": "Florida", "postcode": "34695", "lat": 27.987635999999995, "long": -82.70141399999999}, {"house_number": "565", "road": "Wooddell Drive", "city": "Palm Harbor", "state": "Florida", "postcode": "34695", "lat": 27.987635999999995, "long": -82.70141399999999}, {"house_number": "994", "road": "Omaha Street", "city": "Palm Harbor", "state": "Florida", "postcode": "34683", "lat": 28.05292549999999, "long": -82.76232099999999}, {"house_number": "3575", "road": "53rd Street North", "city": "Saint Petersburg", "state": "Florida", "postcode": "33710", "lat": 27.8047935, "long": -82.706167}, {"house_number": "5351", "road": "39th Avenue North", "city": "Saint Petersburg", "state": "Florida", "postcode": "33709", "lat": 27.807343499999995, "long": -82.70619049999999}, {"house_number": "3850", "road": "53rd Street North", "city": "Saint Petersburg", "state": "Florida", "postcode": "33709", "lat": 27.806878999999995, "long": -82.70556450000001}, {"house_number": "5251", "road": "39th Avenue North", "city": "Saint Petersburg", "state": "Florida", "postcode": "33709", "lat": 27.807334499999996, "long": -82.70486149999999}, {"house_number": "3850", "road": "52nd Street North", "city": "Saint Petersburg", "state": "Florida", "postcode": "33709", "lat": 27.806855, "long": -82.704152}, {"house_number": "3570", "road": "52nd Street North", "city": "Saint Petersburg", "state": "Florida", "postcode": "33710", "lat": 27.8047995, "long": -82.7041605}, {"house_number": "5350", "road": "35th Terrace North", "city": "Saint Petersburg", "state": "Florida", "postcode": "33710", "lat": 27.804391924719535, "long": -82.70660173209822}, {"house_number": "3550", "road": "53rd Street North", "city": "Saint Petersburg", "state": "Florida", "postcode": "33710", "lat": 27.8041075, "long": -82.706164}, {"house_number": "5251", "road": "35th Terrace North", "city": "Saint Petersburg", "state": "Florida", "postcode": "33710", "lat": 27.8044565, "long": -82.705162}, {"house_number": "3450", "road": "53rd Street North", "city": "Saint Petersburg", "state": "Florida", "postcode": "33710", "lat": 27.803423000000002, "long": -82.70616749999999}, {"house_number": "5251", "road": "35th Avenue North", "city": "Saint Petersburg", "state": "Florida", "postcode": "33710", "lat": 27.803764, "long": -82.70515}, {"house_number": "3374", "road": "53rd Street North", "city": "Saint Petersburg", "state": "Florida", "postcode": "33710", "lat": 27.802887999999996, "long": -82.70616450000001}, {"house_number": "5251", "road": "34th Avenue North", "city": "Saint Petersburg", "state": "Florida", "postcode": "33710", "lat": 27.803084, "long": -82.705165}, {"house_number": "5351", "road": "33rd Avenue North", "city": "Saint Petersburg", "state": "Florida", "postcode": "33710", "lat": 27.802284280503997, "long": -82.70672390086172}, {"house_number": "5238", "road": "33rd Avenue North", "city": "Saint Petersburg", "state": "Florida", "postcode": "33710", "lat": 27.802294307537686, "long": -82.70561153182571}, {"house_number": "3520", "road": "52nd Street North", "city": "Saint Petersburg", "state": "Florida", "postcode": "33710", "lat": 27.804113, "long": -82.704148}, {"house_number": "3450", "road": "52nd Street North", "city": "Saint Petersburg", "state": "Florida", "postcode": "33710", "lat": 27.803424999999997, "long": -82.7041475}, {"house_number": "3354", "road": "52nd Way North", "city": "Saint Petersburg", "state": "Florida", "postcode": "33710", "lat": 27.801931919625513, "long": -82.70498471535738}, {"house_number": "3374", "road": "52nd Street North", "city": "Saint Petersburg", "state": "Florida", "postcode": "33710", "lat": 27.802514, "long": -82.704151}, {"house_number": "5151", "road": "34th Avenue North", "city": "Saint Petersburg", "state": "Florida", "postcode": "33710", "lat": 27.80309, "long": -82.7034635}, {"house_number": "5151", "road": "33rd Terrace North", "city": "Saint Petersburg", "state": "Florida", "postcode": "33710", "lat": 27.802326, "long": -82.70338100000001}, {"house_number": "5151", "road": "36th Avenue North", "city": "Saint Petersburg", "state": "Florida", "postcode": "33710", "lat": 27.805145, "long": -82.703628}, {"house_number": "5101", "road": "39th Avenue North", "city": "Saint Petersburg", "state": "Florida", "postcode": "33709", "lat": 27.80731783473744, "long": -82.7031275054369}, {"house_number": "3850", "road": "50th Street North", "city": "Saint Petersburg", "state": "Florida", "postcode": "33709", "lat": 27.806862999999993, "long": -82.702103}, {"house_number": "4951", "road": "39th Avenue North", "city": "Saint Petersburg", "state": "Florida", "postcode": "33709", "lat": 27.807322, "long": -82.7010895}, {"house_number": "5098", "road": "35th Terrace North", "city": "Saint Petersburg", "state": "Florida", "postcode": "33710", "lat": 27.804378855984186, "long": -82.70321110253892}, {"house_number": "3360", "road": "51st Street North", "city": "Saint Petersburg", "state": "Florida", "postcode": "33710", "lat": 27.802532999999997, "long": -82.702627}, {"house_number": "3310", "road": "51st Street North", "city": "Saint Petersburg", "state": "Florida", "postcode": "33710", "lat": 27.801940999999996, "long": -82.7026235}, {"house_number": "5127", "road": "35th Avenue North", "city": "Saint Petersburg", "state": "Florida", "postcode": "33710", "lat": 27.80379193718984, "long": -82.70320775425357}, {"house_number": "4998", "road": "33rd Terrace North", "city": "Saint Petersburg", "state": "Florida", "postcode": "33710", "lat": 27.802256238675657, "long": -82.7015770466259}, {"house_number": "4849", "road": "58th Avenue North", "city": "Pinellas Park", "state": "Florida", "postcode": "33714", "lat": 27.824673499999996, "long": -82.69944749999999}, {"house_number": "4803", "road": "58th Avenue North", "city": "Pinellas Park", "state": "Florida", "postcode": "33714", "lat": 27.8246695, "long": -82.698703}, {"house_number": "4803", "road": "58th Avenue North", "city": "Pinellas Park", "state": "Florida", "postcode": "33714", "lat": 27.8246695, "long": -82.698703}, {"house_number": "4651", "road": "58th Avenue North", "city": "Pinellas Park", "state": "Florida", "postcode": "33714", "lat": 27.824674499999997, "long": -82.69770199999999}, {"house_number": "4651", "road": "58th Avenue North", "city": "Pinellas Park", "state": "Florida", "postcode": "33714", "lat": 27.824674499999997, "long": -82.69770199999999}, {"house_number": "4251", "road": "13th Avenue North", "city": "Saint Petersburg", "state": "Florida", "postcode": "33713", "lat": 27.784558483307315, "long": -82.69106248057214}, {"house_number": "1264", "road": "42nd Street North", "city": "Saint Petersburg", "state": "Florida", "postcode": "33713", "lat": 27.784346499999998, "long": -82.69036549999998}, {"house_number": "4150", "road": "13th Avenue North", "city": "Saint Petersburg", "state": "Florida", "postcode": "33713", "lat": 27.784559211723334, "long": -82.68969397839514}, {"house_number": "1150", "road": "42nd Street North", "city": "Saint Petersburg", "state": "Florida", "postcode": "33713", "lat": 27.783184499999994, "long": -82.69036449999999}, {"house_number": "4151", "road": "12th Avenue North", "city": "Saint Petersburg", "state": "Florida", "postcode": "33713", "lat": 27.783637835489355, "long": -82.68968048186731}, {"house_number": "4151", "road": "11th Avenue North", "city": "Saint Petersburg", "state": "Florida", "postcode": "33713", "lat": 27.782735999991445, "long": -82.68968299707606}, {"house_number": "1050", "road": "42nd Street North", "city": "Saint Petersburg", "state": "Florida", "postcode": "33713", "lat": 27.782279499999998, "long": -82.690367}, {"house_number": "1250", "road": "41st Street North", "city": "Saint Petersburg", "state": "Florida", "postcode": "33713", "lat": 27.784098, "long": -82.689011}, {"house_number": "49", "road": "72nd Street South", "city": "Saint Petersburg", "state": "Florida", "postcode": "33707", "lat": 27.7703645, "long": -82.737967}, {"house_number": "7035", "road": "Central Avenue", "city": "Saint Petersburg", "state": "Florida", "postcode": "33710", "lat": 27.7708145, "long": -82.73728599999998}, {"house_number": "7151", "road": "1st Avenue South", "city": "Saint Petersburg", "state": "Florida", "postcode": "33707", "lat": 27.7699395, "long": -82.7372865}, {"house_number": "7151", "road": "2nd Avenue North", "city": "Saint Petersburg", "state": "Florida", "postcode": "33710", "lat": 27.77267549999999, "long": -82.73728399999999}, {"house_number": "49", "road": "71st Street South", "city": "Saint Petersburg", "state": "Florida", "postcode": "33707", "lat": 27.7703895, "long": -82.7366055}, {"house_number": "7051", "road": "1st Avenue South", "city": "Saint Petersburg", "state": "Florida", "postcode": "33707", "lat": 27.769941, "long": -82.7359445}, {"house_number": "149", "road": "71st Street South", "city": "Saint Petersburg", "state": "Florida", "postcode": "33707", "lat": 27.769491000000002, "long": -82.736606}, {"house_number": "6951", "road": "4th Avenue North", "city": "Saint Petersburg", "state": "Florida", "postcode": "33710", "lat": 27.7754125, "long": -82.734543}, {"house_number": "249", "road": "70th Street North", "city": "Saint Petersburg", "state": "Florida", "postcode": "33710", "lat": 27.774044285178302, "long": -82.73517273563316}, {"house_number": "6950", "road": "Burlington Avenue North", "city": "Saint Petersburg", "state": "Florida", "postcode": "33710", "lat": 27.773586260691005, "long": -82.73443499700092}, {"house_number": "349", "road": "69th Street North", "city": "Saint Petersburg", "state": "Florida", "postcode": "33710", "lat": 27.77495352749621, "long": -82.7338823976364}, {"house_number": "6951", "road": "3rd Avenue North", "city": "Saint Petersburg", "state": "Florida", "postcode": "33710", "lat": 27.774503499999998, "long": -82.7345465}, {"house_number": "6851", "road": "3rd Avenue North", "city": "Saint Petersburg", "state": "Florida", "postcode": "33710", "lat": 27.774503, "long": -82.733212}, {"house_number": "197", "road": "69th Street North", "city": "Saint Petersburg", "state": "Florida", "postcode": "33710", "lat": 27.77403497527655, "long": -82.73385720886056}, {"house_number": "253", "road": "Pinellas Way North", "city": "Saint Petersburg", "state": "Florida", "postcode": "33710", "lat": 27.773258961705466, "long": -82.73347958568787}, {"house_number": "124", "road": "Orange Avenue North", "city": "Saint Petersburg", "state": "Florida", "postcode": "33710", "lat": 27.772562, "long": -82.7336325}, {"house_number": "201", "road": "Westwood Terrace North", "city": "Saint Petersburg", "state": "Florida", "postcode": "33710", "lat": 27.772819771802737, "long": -82.73467995286147}, {"house_number": "7035", "road": "Central Avenue", "city": "Saint Petersburg", "state": "Florida", "postcode": "33710", "lat": 27.7708275, "long": -82.735931}, {"house_number": "7000", "road": "Central Avenue", "city": "Saint Petersburg", "state": "Florida", "postcode": "33701", "lat": 27.77083249999999, "long": -82.73480449999998}, {"house_number": "6951", "road": "1st Avenue South", "city": "Saint Petersburg", "state": "Florida", "postcode": "33707", "lat": 27.769945999999997, "long": -82.7343205}, {"house_number": "149", "road": "70th Street South", "city": "Saint Petersburg", "state": "Florida", "postcode": "33707", "lat": 27.769480999999992, "long": -82.735264}, {"house_number": "6951", "road": "1st Avenue North", "city": "Saint Petersburg", "state": "Florida", "postcode": "33710", "lat": 27.771805, "long": -82.7345105}, {"house_number": "12353", "road": "6th Street East", "city": "Treasure Island", "state": "Florida", "postcode": "33706", "lat": 27.783857578645158, "long": -82.76976443459183}, {"house_number": "12224", "road": "7th Street East", "city": "Treasure Island", "state": "Florida", "postcode": "33706", "lat": 27.783862196514292, "long": -82.76776211704919}, {"house_number": "800", "road": "123rd Avenue", "city": "Treasure Island", "state": "Florida", "postcode": "33706", "lat": 27.785245424642095, "long": -82.76669703741157}, {"house_number": "649", "road": "Capri Boulevard", "city": "Treasure Island", "state": "Florida", "postcode": "33706", "lat": 27.782829230166552, "long": -82.76814647733757}, {"house_number": "11998", "road": "7th Street East", "city": "Treasure Island", "state": "Florida", "postcode": "33706", "lat": 27.782518250077374, "long": -82.76696310173045}, {"house_number": "11851", "road": "5th Street East", "city": "Treasure Island", "state": "Florida", "postcode": "33706", "lat": 27.780355030636393, "long": -82.76958044884937}, {"house_number": "549", "road": "Capri Boulevard", "city": "Treasure Island", "state": "Florida", "postcode": "33706", "lat": 27.78211154907766, "long": -82.76967048863808}, {"house_number": "11853", "road": "6th Street East", "city": "Treasure Island", "state": "Florida", "postcode": "33706", "lat": 27.78107936396479, "long": -82.76808653541562}, {"house_number": "11251", "road": "4th Street East", "city": "Treasure Island", "state": "Florida", "postcode": "33706", "lat": 27.775226758345593, "long": -82.76819020008209}, {"house_number": "11748", "road": "7th Street East", "city": "Treasure Island", "state": "Florida", "postcode": "33706", "lat": 27.78118980102257, "long": -82.76615659578393}, {"house_number": "450", "road": "115th Avenue", "city": "Treasure Island", "state": "Florida", "postcode": "33706", "lat": 27.777138055765327, "long": -82.76889675976365}, {"house_number": "11248", "road": "5th Street East", "city": "Treasure Island", "state": "Florida", "postcode": "33706", "lat": 27.775974376637866, "long": -82.76644659524825}, {"house_number": "550", "road": "115th Avenue", "city": "Treasure Island", "state": "Florida", "postcode": "33706", "lat": 27.777896552868313, "long": -82.76719187897359}, {"house_number": "11251", "road": "6th Street East", "city": "Treasure Island", "state": "Florida", "postcode": "33706", "lat": 27.77674725654689, "long": -82.76476633694338}, {"house_number": "650", "road": "115th Avenue", "city": "Treasure Island", "state": "Florida", "postcode": "33706", "lat": 27.778683311234776, "long": -82.76550509876651}, {"house_number": "11253", "road": "7th Street East", "city": "Treasure Island", "state": "Florida", "postcode": "33706", "lat": 27.77756805836892, "long": -82.7630912853176}, {"house_number": "11605", "road": "Gulf Boulevard", "city": "Treasure Island", "state": "Florida", "postcode": "33706", "lat": 27.77473768998623, "long": -82.77514377826765}, {"house_number": "52", "road": "117th Avenue", "city": "Treasure Island", "state": "Florida", "postcode": "33706", "lat": 27.775299999999998, "long": -82.77518349999998}, {"house_number": "11648", "road": "1st Street East", "city": "Treasure Island", "state": "Florida", "postcode": "33706", "lat": 27.7752815, "long": -82.77455549999999}, {"house_number": "11320", "road": "Gulf Boulevard", "city": "Treasure Island", "state": "Florida", "postcode": "33706", "lat": 27.773307704895718, "long": -82.77351695736216}, {"house_number": "52", "road": "116th Avenue", "city": "Treasure Island", "state": "Florida", "postcode": "33706", "lat": 27.774727499999997, "long": -82.7745085}, {"house_number": "18101", "road": "1st Street East", "city": "Redington Shores", "state": "Florida", "postcode": "33708", "lat": 27.83293055488437, "long": -82.83259753396317}, {"house_number": "11407", "road": "1st Street East", "city": "Treasure Island", "state": "Florida", "postcode": "33706", "lat": 27.77409619987319, "long": -82.7720744815915}, {"house_number": "197", "road": "115th Avenue", "city": "Treasure Island", "state": "Florida", "postcode": "33706", "lat": 27.77560711913853, "long": -82.77229119480873}, {"house_number": "11356", "road": "2nd Street East", "city": "Treasure Island", "state": "Florida", "postcode": "33706", "lat": 27.77472716275527, "long": -82.7717857238417}, {"house_number": "347", "road": "115th Avenue", "city": "Treasure Island", "state": "Florida", "postcode": "33706", "lat": 27.776198519422994, "long": -82.77069280691266}, {"house_number": "250", "road": "112th Avenue B", "city": "Treasure Island", "state": "Florida", "postcode": "33706", "lat": 27.774384499999993, "long": -82.770758}, {"house_number": "11218", "road": "3rd Street East", "city": "Treasure Island", "state": "Florida", "postcode": "33706", "lat": 27.774163499999997, "long": -82.77031649999999}, {"house_number": "189", "road": "112th Avenue B", "city": "Treasure Island", "state": "Florida", "postcode": "33706", "lat": 27.773814499999986, "long": -82.77080699999999}, {"house_number": "11160", "road": "1st Street East", "city": "Treasure Island", "state": "Florida", "postcode": "33706", "lat": 27.77258398934296, "long": -82.77025464618166}, {"house_number": "150", "road": "112th Avenue A", "city": "Treasure Island", "state": "Florida", "postcode": "33706", "lat": 27.773545648073526, "long": -82.7705091230073}, {"house_number": "11103", "road": "2nd Street East", "city": "Treasure Island", "state": "Florida", "postcode": "33706", "lat": 27.772915073761897, "long": -82.7696539697257}, {"house_number": "252", "road": "112th Avenue A", "city": "Treasure Island", "state": "Florida", "postcode": "33706", "lat": 27.773659499999987, "long": -82.77001849999999}, {"house_number": "1258", "road": "Robin Road South", "city": "Saint Petersburg", "state": "Florida", "postcode": "33707", "lat": 27.75615448422172, "long": -82.73019089183124}, {"house_number": "1351", "road": "Robin Road South", "city": "Saint Petersburg", "state": "Florida", "postcode": "33707", "lat": 27.755615, "long": -82.7296915}, {"house_number": "1331", "road": "Robin Road South", "city": "Saint Petersburg", "state": "Florida", "postcode": "33707", "lat": 27.755096, "long": -82.729154}, {"house_number": "6554", "road": "Debbie Lane South", "city": "Saint Petersburg", "state": "Florida", "postcode": "33707", "lat": 27.7532985, "long": -82.73119249999999}, {"house_number": "6507", "road": "Debbie Lane South", "city": "Saint Petersburg", "state": "Florida", "postcode": "33707", "lat": 27.75316239984271, "long": -82.73010583135705}, {"house_number": "6557", "road": "Mockingbird Way South", "city": "Saint Petersburg", "state": "Florida", "postcode": "33707", "lat": 27.753692785434392, "long": -82.73027283419036}, {"house_number": "6549", "road": "Dolphin Boulevard", "city": "Saint Petersburg", "state": "Florida", "postcode": "33707", "lat": 27.753767499999995, "long": -82.72953399999997}, {"house_number": "6452", "road": "Mockingbird Way South", "city": "Saint Petersburg", "state": "Florida", "postcode": "33707", "lat": 27.754432313458906, "long": -82.72934357585251}, {"house_number": "1449", "road": "Royal Palm Drive South", "city": "Saint Petersburg", "state": "Florida", "postcode": "33707", "lat": 27.754667607683853, "long": -82.72819486760181}, {"house_number": "6596", "road": "Fairway View Boulevard South", "city": "Saint Petersburg", "state": "Florida", "postcode": "33707", "lat": 27.751678614380438, "long": -82.72727226907422}, {"house_number": "6323", "road": "Lake Shore Drive North", "city": "Saint Petersburg", "state": "Florida", "postcode": "33710", "lat": 27.774992710480774, "long": -82.72544296025971}, {"house_number": "6323", "road": "Lake Shore Drive North", "city": "Saint Petersburg", "state": "Florida", "postcode": "33710", "lat": 27.774992710480774, "long": -82.72544296025971}, {"house_number": "6323", "road": "Lake Shore Drive North", "city": "Saint Petersburg", "state": "Florida", "postcode": "33710", "lat": 27.774992710480774, "long": -82.72544296025971}, {"house_number": "6323", "road": "Lake Shore Drive North", "city": "Saint Petersburg", "state": "Florida", "postcode": "33710", "lat": 27.774992710480774, "long": -82.72544296025971}, {"house_number": "6323", "road": "Lake Shore Drive North", "city": "Saint Petersburg", "state": "Florida", "postcode": "33710", "lat": 27.774992710480774, "long": -82.72544296025971}, {"house_number": "6410", "road": "Lake Shore Drive North", "city": "Saint Petersburg", "state": "Florida", "postcode": "33710", "lat": 27.774531, "long": -82.72604}, {"house_number": "6410", "road": "Lake Shore Drive North", "city": "Saint Petersburg", "state": "Florida", "postcode": "33710", "lat": 27.774531, "long": -82.72604}, {"house_number": "6473", "road": "Lake Shore Drive North", "city": "Saint Petersburg", "state": "Florida", "postcode": "33710", "lat": 27.774169495529623, "long": -82.72485987328251}, {"house_number": "6473", "road": "Lake Shore Drive North", "city": "Saint Petersburg", "state": "Florida", "postcode": "33710", "lat": 27.774169495529623, "long": -82.72485987328251}, {"house_number": "6462", "road": "Lake Shore Drive North", "city": "Saint Petersburg", "state": "Florida", "postcode": "33710", "lat": 27.775659151081374, "long": -82.72476389169773}, {"house_number": "6355", "road": "Lake Shore Drive North", "city": "Saint Petersburg", "state": "Florida", "postcode": "33710", "lat": 27.775696635234667, "long": -82.72378483808667}, {"house_number": "353", "road": "Lake Shore Drive North", "city": "Saint Petersburg", "state": "Florida", "postcode": "33710", "lat": 27.774973180852673, "long": -82.72330817916887}, {"house_number": "263", "road": "64th Street North", "city": "Saint Petersburg", "state": "Florida", "postcode": "33710", "lat": 27.773843499999998, "long": -82.724324}, {"house_number": "188", "road": "64th Street North", "city": "Saint Petersburg", "state": "Florida", "postcode": "33710", "lat": 27.7732215, "long": -82.72431999999999}, {"house_number": "1002", "road": "Jungle Avenue North", "city": "Saint Petersburg", "state": "Florida", "postcode": "33710", "lat": 27.781666825018693, "long": -82.7465518037063}, {"house_number": "7724", "road": "16th Avenue North", "city": "Saint Petersburg", "state": "Florida", "postcode": "33710", "lat": 27.788128999999998, "long": -82.74493849999999}, {"house_number": "7599", "road": "17th Avenue North", "city": "Saint Petersburg", "state": "Florida", "postcode": "33710", "lat": 27.788433414472923, "long": -82.7437290061358}, {"house_number": "1448", "road": "77th Street North", "city": "Saint Petersburg", "state": "Florida", "postcode": "33710", "lat": 27.786339999999996, "long": -82.7451945}, {"house_number": "1358", "road": "77th Street North", "city": "Saint Petersburg", "state": "Florida", "postcode": "33710", "lat": 27.785625999999997, "long": -82.7450055}, {"house_number": "1680", "road": "74th Street North", "city": "Saint Petersburg", "state": "Florida", "postcode": "33710", "lat": 27.787919, "long": -82.74265299999999}, {"house_number": "1550", "road": "Russell Drive North", "city": "Saint Petersburg", "state": "Florida", "postcode": "33710", "lat": 27.787211000000003, "long": -82.74266449999999}, {"house_number": "7600", "road": "15th Avenue North", "city": "Saint Petersburg", "state": "Florida", "postcode": "33710", "lat": 27.78681893847567, "long": -82.74398335653207}, {"house_number": "7600", "road": "14th Avenue North", "city": "Saint Petersburg", "state": "Florida", "postcode": "33710", "lat": 27.78610031159507, "long": -82.74388239231817}, {"house_number": "1360", "road": "Russell Drive North", "city": "Saint Petersburg", "state": "Florida", "postcode": "33710", "lat": 27.7857655, "long": -82.74265499999998}, {"house_number": "7749", "road": "Par Avenue North", "city": "Saint Petersburg", "state": "Florida", "postcode": "33710", "lat": 27.785185, "long": -82.745306}, {"house_number": "1308", "road": "77th Street North", "city": "Saint Petersburg", "state": "Florida", "postcode": "33710", "lat": 27.784877999999996, "long": -82.74481449999999}, {"house_number": "7749", "road": "13th Avenue North", "city": "Saint Petersburg", "state": "Florida", "postcode": "33710", "lat": 27.78439772393603, "long": -82.74510786372042}, {"house_number": "7649", "road": "13th Avenue North", "city": "Saint Petersburg", "state": "Florida", "postcode": "33710", "lat": 27.784500106789736, "long": -82.74424916647536}, {"house_number": "1203", "road": "77th Street North", "city": "Saint Petersburg", "state": "Florida", "postcode": "33710", "lat": 27.78359375141118, "long": -82.74432978463565}, {"house_number": "1253", "road": "76th Street North", "city": "Saint Petersburg", "state": "Florida", "postcode": "33710", "lat": 27.783792315007386, "long": -82.74352533781968}, {"house_number": "7600", "road": "Par Avenue North", "city": "Saint Petersburg", "state": "Florida", "postcode": "33710", "lat": 27.785370146845022, "long": -82.74378392811167}, {"house_number": "1310", "road": "Russell Drive North", "city": "Saint Petersburg", "state": "Florida", "postcode": "33710", "lat": 27.784951, "long": -82.7426455}, {"house_number": "7477", "road": "13th Avenue North", "city": "Saint Petersburg", "state": "Florida", "postcode": "33710", "lat": 27.784498447626962, "long": -82.74224937915021}, {"house_number": "1110", "road": "Russell Drive North", "city": "Saint Petersburg", "state": "Florida", "postcode": "33710", "lat": 27.782576763412063, "long": -82.74413250528906}, {"house_number": "1246", "road": "Russell Drive North", "city": "Saint Petersburg", "state": "Florida", "postcode": "33710", "lat": 27.7837444018859, "long": -82.74273354494917}, {"house_number": "1160", "road": "Russell Drive North", "city": "Saint Petersburg", "state": "Florida", "postcode": "33710", "lat": 27.782955499999996, "long": -82.743444}]