[{"house_number": "1080", "road": "Southeast Letha Circle", "city": "Stuart", "state": "Florida", "postcode": "34994", "lat": 27.17115882996357, "long": -80.23590387787807}, {"house_number": "5500", "road": "SW Bellflower Court", "city": "Palm City", "state": "Florida", "postcode": "34990", "lat": 27.137986255246005, "long": -80.2828943421}, {"house_number": "2355", "road": "Southwest Murphy Road", "city": "Palm City", "state": "Florida", "postcode": "34990", "lat": 27.186848116251397, "long": -80.29433746121805}, {"house_number": "4564", "road": "Southwest Hammock Creek Drive", "city": "Palm City", "state": "Florida", "postcode": "34990", "lat": 27.153569722251643, "long": -80.29440801518889}, {"house_number": "2146", "road": "Northeast Pine Ridge Street", "city": "Jensen Beach", "state": "Florida", "postcode": "34957", "lat": 27.22763201907975, "long": -80.22328297562944}, {"house_number": "2399", "road": "Southwest Murphy Road", "city": "Palm City", "state": "Florida", "postcode": "34990", "lat": 27.187381773640347, "long": -80.29521087213429}, {"house_number": "4299", "road": "Northeast Savannah Road", "city": "Jensen Beach", "state": "Florida", "postcode": "34957", "lat": 27.257840363508986, "long": -80.23623192828364}, {"house_number": "4429", "road": "Northeast Savannah Road", "city": "Jensen Beach", "state": "Florida", "postcode": "34957", "lat": 27.258794730271024, "long": -80.23768106007019}, {"house_number": "4453", "road": "Northeast Skyline Drive", "city": "Jensen Beach", "state": "Florida", "postcode": "34957", "lat": 27.258624027506404, "long": -80.23563542005863}, {"house_number": "4549", "road": "Northeast Skyline Drive", "city": "Jensen Beach", "state": "Florida", "postcode": "34957", "lat": 27.259521338300996, "long": -80.23592508222441}, {"house_number": "4715", "road": "Southeast Desoto Avenue", "city": "Stuart", "state": "Florida", "postcode": "34997", "lat": 27.147249732065617, "long": -80.19663855851314}, {"house_number": "14990", "road": "Southwest Cherokee Drive", "city": "Indiantown", "state": "Florida", "postcode": "34956", "lat": 27.024367628749218, "long": -80.45987611629216}, {"house_number": "15146", "road": "Southwest Fox Street", "city": "Indiantown", "state": "Florida", "postcode": "34956", "lat": 27.02359699711822, "long": -80.46031214812382}, {"house_number": "15249", "road": "Southwest Fox Street", "city": "Indiantown", "state": "Florida", "postcode": "34956", "lat": 27.02488289927227, "long": -80.46147401858802}, {"house_number": "14898", "road": "Southwest Johnston Avenue", "city": "Indiantown", "state": "Florida", "postcode": "34956", "lat": 27.024325319459237, "long": -80.46244027702585}, {"house_number": "15353", "road": "Southwest Yalaha Street", "city": "Indiantown", "state": "Florida", "postcode": "34956", "lat": 27.0237917474382, "long": -80.46340052484247}, {"house_number": "14949", "road": "Southwest 172nd Avenue", "city": "Indiantown", "state": "Florida", "postcode": "34956", "lat": 27.024555028401892, "long": -80.48811621464021}, {"house_number": "14949", "road": "Southwest 172nd Avenue", "city": "Indiantown", "state": "Florida", "postcode": "34956", "lat": 27.024555028401892, "long": -80.48811621464021}, {"house_number": "14948", "road": "Southwest 173rd Avenue", "city": "Indiantown", "state": "Florida", "postcode": "34956", "lat": 27.024562027365427, "long": -80.4888864316565}, {"house_number": "14923", "road": "Southwest 171st Drive", "city": "Indiantown", "state": "Florida", "postcode": "34956", "lat": 27.02460218048321, "long": -80.48735209412497}, {"house_number": "17149", "road": "Southwest Palm Beach Street", "city": "Indiantown", "state": "Florida", "postcode": "34956", "lat": 27.025075378156693, "long": -80.48772446274582}, {"house_number": "14949", "road": "Southwest 170th Avenue", "city": "Indiantown", "state": "Florida", "postcode": "34956", "lat": 27.024452617946817, "long": -80.48505695079952}, {"house_number": "16981", "road": "Southwest Charleston Street", "city": "Indiantown", "state": "Florida", "postcode": "34956", "lat": 27.023829000000003, "long": -80.4852205}, {"house_number": "16948", "road": "Southwest 169th Drive", "city": "Indiantown", "state": "Florida", "postcode": "34956", "lat": 27.024444973178948, "long": -80.48430210696883}, {"house_number": "16948", "road": "Southwest 169th Drive", "city": "Indiantown", "state": "Florida", "postcode": "34956", "lat": 27.024444973178948, "long": -80.48430210696883}, {"house_number": "1451", "road": "Southwest Charleston Street", "city": "Indiantown", "state": "Florida", "postcode": "34956", "lat": 27.023832499999997, "long": -80.48390999999998}, {"house_number": "1451", "road": "Southwest Charleston Street", "city": "Indiantown", "state": "Florida", "postcode": "34956", "lat": 27.023832499999997, "long": -80.48390999999998}, {"house_number": "1451", "road": "Southwest Charleston Street", "city": "Indiantown", "state": "Florida", "postcode": "34956", "lat": 27.023832499999997, "long": -80.48390999999998}, {"house_number": "14948", "road": "Southwest Jefferson Avenue", "city": "Indiantown", "state": "Florida", "postcode": "34956", "lat": 27.0243951510733, "long": -80.46838036791131}, {"house_number": "15826", "road": "Southwest Osceola Street", "city": "Indiantown", "state": "Florida", "postcode": "34956", "lat": 27.024392186409692, "long": -80.46930070077067}, {"house_number": "14952", "road": "Southwest Washington Avenue", "city": "Indiantown", "state": "Florida", "postcode": "34956", "lat": 27.024384104328444, "long": -80.46655865746116}, {"house_number": "14998", "road": "Southwest Lee Avenue", "city": "Indiantown", "state": "Florida", "postcode": "34956", "lat": 27.023899338996067, "long": -80.46176366960191}, {"house_number": "14998", "road": "Southwest Lee Avenue", "city": "Indiantown", "state": "Florida", "postcode": "34956", "lat": 27.023899338996067, "long": -80.46176366960191}, {"house_number": "14948", "road": "Southwest Indian Avenue", "city": "Indiantown", "state": "Florida", "postcode": "34956", "lat": 27.023809350054766, "long": -80.46569411389403}, {"house_number": "15048", "road": "Southwest Washington Avenue", "city": "Indiantown", "state": "Florida", "postcode": "34956", "lat": 27.023603991826505, "long": -80.46719317601011}, {"house_number": "15753", "road": "Southwest Osceola Street", "city": "Indiantown", "state": "Florida", "postcode": "34956", "lat": 27.02360184407939, "long": -80.46811626410967}, {"house_number": "15848", "road": "Southwest 153rd Street", "city": "Indiantown", "state": "Florida", "postcode": "34956", "lat": 27.02371522395967, "long": -80.46986920417989}, {"house_number": "848", "road": "Southwest Stratford Court", "city": "Palm City", "state": "Florida", "postcode": "34990", "lat": 27.194965999999983, "long": -80.2789785}, {"house_number": "1892", "road": "Southwest Stratford Way", "city": "Palm City", "state": "Florida", "postcode": "34990", "lat": 27.194963593977832, "long": -80.28010405554389}, {"house_number": "2169", "road": "Southwest Shoal Creek Trace", "city": "Palm City", "state": "Florida", "postcode": "34990", "lat": 27.170408832212605, "long": -80.28302742926647}, {"house_number": "2273", "road": "Southwest Shoal Creek Trace", "city": "Palm City", "state": "Florida", "postcode": "34990", "lat": 27.17038812479757, "long": -80.2844376131398}, {"house_number": "2086", "road": "Southwest Olympic Club Terrace", "city": "Palm City", "state": "Florida", "postcode": "34990", "lat": 27.171406299147694, "long": -80.28426176792715}, {"house_number": "2086", "road": "Southwest Olympic Club Terrace", "city": "Palm City", "state": "Florida", "postcode": "34990", "lat": 27.171406299147694, "long": -80.28426176792715}, {"house_number": "3018", "road": "Southwest Virginia Avenue", "city": "Palm City", "state": "Florida", "postcode": "34990", "lat": 27.168349499999998, "long": -80.2826655}, {"house_number": "3010", "road": "Southwest Hollis Avenue", "city": "Palm City", "state": "Florida", "postcode": "34990", "lat": 27.16836549504459, "long": -80.28363135662148}, {"house_number": "2829", "road": "Southwest Willowood Circle", "city": "Palm City", "state": "Florida", "postcode": "34990", "lat": 27.172067010132043, "long": -80.30193352775397}, {"house_number": "5101", "road": "Southeast Miles Grant Road", "city": "Port Salerno", "state": "Florida", "postcode": "34997", "lat": 27.152177590460298, "long": -80.17253730713607}, {"house_number": "3357", "road": "Southwest Villa Place", "city": "Palm City", "state": "Florida", "postcode": "34990", "lat": 27.16501106982011, "long": -80.29817064291862}, {"house_number": "4869", "road": "Southwest Sensation Street", "city": "Palm City", "state": "Florida", "postcode": "34990", "lat": 27.19701100193029, "long": -80.32012835860415}, {"house_number": "1825", "road": "Northeast Jensen Beach Boulevard", "city": "Jensen Beach", "state": "Florida", "postcode": "34957", "lat": 27.243649043033223, "long": -80.22807252929427}, {"house_number": "5583", "road": "Southwest Longspur Lane", "city": "Palm City", "state": "Florida", "postcode": "34990", "lat": 27.136764461317867, "long": -80.28453481087111}, {"house_number": "3759", "road": "Southwest Whispering Sound Drive", "city": "Palm City", "state": "Florida", "postcode": "34990", "lat": 27.158458600180513, "long": -80.27501770929881}, {"house_number": "406", "road": "Southwest Sun Circle", "city": "Palm City", "state": "Florida", "postcode": "34990", "lat": 27.19433724178771, "long": -80.32406042354323}, {"house_number": "5705", "road": "Southwest Longspur Lane", "city": "Palm City", "state": "Florida", "postcode": "34990", "lat": 27.1353849793178, "long": -80.28297436425056}, {"house_number": "814", "road": "Southwest Sun Circle", "city": "Palm City", "state": "Florida", "postcode": "34990", "lat": 27.196103277732814, "long": -80.32392575616551}, {"house_number": "3306", "road": "Northeast Candice Avenue", "city": "Jensen Beach", "state": "Florida", "postcode": "34957", "lat": 27.24442035588754, "long": -80.22768792889835}, {"house_number": "5001", "road": "Southwest Sensation Street", "city": "Palm City", "state": "Florida", "postcode": "34990", "lat": 27.19735782759892, "long": -80.3222471436428}, {"house_number": "5001", "road": "Southwest Sensation Street", "city": "Palm City", "state": "Florida", "postcode": "34990", "lat": 27.19735782759892, "long": -80.3222471436428}, {"house_number": "795", "road": "Southwest Habitat Lane", "city": "Palm City", "state": "Florida", "postcode": "34990", "lat": 27.19596523968869, "long": -80.32112588939272}]