[{"house_number": "1201", "road": "Prospect Promenade", "city": "Panama City Beach", "state": "Florida", "postcode": "32413", "lat": 30.275882821661476, "long": -85.97351487899789}, {"house_number": "2234", "road": "Laurie Avenue", "city": "Upper Grand Lagoon", "state": "Florida", "postcode": "32408", "lat": 30.180757999999997, "long": -85.78237899999999}, {"house_number": "1702", "road": "Thomas Drive", "city": "Upper Grand Lagoon", "state": "Florida", "postcode": "32408", "lat": 30.169147456694013, "long": -85.75796745172569}, {"house_number": "1513", "road": "Hickory Avenue", "city": "Panama City", "state": "Florida", "postcode": "32405", "lat": 30.176310995625013, "long": -85.69733779294847}, {"house_number": "1509", "road": "Little Hawk Lane", "city": "Panama City Beach", "state": "Florida", "postcode": "32413", "lat": 30.283236049725893, "long": -85.97309199485626}, {"house_number": "1307", "road": "Salamander Trail", "city": "Panama City Beach", "state": "Florida", "postcode": "32413", "lat": 30.280833874406945, "long": -85.9722448503373}, {"house_number": "1335", "road": "Salamander Trail", "city": "Panama City Beach", "state": "Florida", "postcode": "32413", "lat": 30.282518665558467, "long": -85.97222753640987}, {"house_number": "1710", "road": "Skimmer Court", "city": "Panama City Beach", "state": "Florida", "postcode": "32413", "lat": 30.286469964423667, "long": -85.9734066758236}, {"house_number": "1710", "road": "Skimmer Court", "city": "Panama City Beach", "state": "Florida", "postcode": "32413", "lat": 30.286469964423667, "long": -85.9734066758236}, {"house_number": "7206", "road": "Quail Hollow Drive", "city": "Panama City Beach", "state": "Florida", "postcode": "32408", "lat": 30.183341539998228, "long": -85.76157767287056}, {"house_number": "2211", "road": "West 24th Street", "city": "Panama City", "state": "Florida", "postcode": "32405", "lat": 30.191886669606497, "long": -85.6941064281403}, {"house_number": "7104", "road": "Laird Street", "city": "Panama City Beach", "state": "Florida", "postcode": "32408", "lat": 30.178613184461746, "long": -85.7617490008793}, {"house_number": "201", "road": "Terrapin Circle", "city": "Panama City Beach", "state": "Florida", "postcode": "32413", "lat": 30.263637999999993, "long": -85.95751799999998}, {"house_number": "1950", "road": "Liberty Lane", "city": "Panama City", "state": "Florida", "postcode": "32405", "lat": 30.181549329617066, "long": -85.66761236631373}, {"house_number": "1549", "road": "Montana Avenue", "city": "Lynn Haven", "state": "Florida", "postcode": "32444", "lat": 30.235410359866375, "long": -85.66022895548302}, {"house_number": "7123", "road": "Melissa Elaine Drive", "city": "Panama City Beach", "state": "Florida", "postcode": "32407", "lat": 30.195435587607495, "long": -85.76379719787833}, {"house_number": "21014", "road": "McEachern Street", "city": "Panama City Beach", "state": "Florida", "postcode": "32413", "lat": 30.250051811164308, "long": -85.94619807868268}, {"house_number": "21014", "road": "McEachern Street", "city": "Panama City Beach", "state": "Florida", "postcode": "32413", "lat": 30.250051811164308, "long": -85.94619807868268}, {"house_number": "213", "road": "3rd Place", "city": "Panama City", "state": "Florida", "postcode": "32401", "lat": 30.151735991454125, "long": -85.65545691719774}, {"house_number": "98", "road": "Paddock Club Drive", "city": "Panama City Beach", "state": "Florida", "postcode": "32407", "lat": 30.189756132061405, "long": -85.81374688501177}, {"house_number": "98", "road": "Paddock Club Drive", "city": "Panama City Beach", "state": "Florida", "postcode": "32407", "lat": 30.189756132061405, "long": -85.81374688501177}, {"house_number": "98", "road": "Paddock Club Drive", "city": "Panama City Beach", "state": "Florida", "postcode": "32407", "lat": 30.189756132061405, "long": -85.81374688501177}, {"house_number": "98", "road": "Paddock Club Drive", "city": "Panama City Beach", "state": "Florida", "postcode": "32407", "lat": 30.189756132061405, "long": -85.81374688501177}, {"house_number": "98", "road": "Paddock Club Drive", "city": "Panama City Beach", "state": "Florida", "postcode": "32407", "lat": 30.189756132061405, "long": -85.81374688501177}, {"house_number": "98", "road": "Paddock Club Drive", "city": "Panama City Beach", "state": "Florida", "postcode": "32407", "lat": 30.189756132061405, "long": -85.81374688501177}, {"house_number": "98", "road": "Paddock Club Drive", "city": "Panama City Beach", "state": "Florida", "postcode": "32407", "lat": 30.189756132061405, "long": -85.81374688501177}, {"house_number": "98", "road": "Paddock Club Drive", "city": "Panama City Beach", "state": "Florida", "postcode": "32407", "lat": 30.189756132061405, "long": -85.81374688501177}, {"house_number": "98", "road": "Paddock Club Drive", "city": "Panama City Beach", "state": "Florida", "postcode": "32407", "lat": 30.189756132061405, "long": -85.81374688501177}, {"house_number": "98", "road": "Paddock Club Drive", "city": "Panama City Beach", "state": "Florida", "postcode": "32407", "lat": 30.189756132061405, "long": -85.81374688501177}, {"house_number": "98", "road": "Paddock Club Drive", "city": "Panama City Beach", "state": "Florida", "postcode": "32407", "lat": 30.189756132061405, "long": -85.81374688501177}, {"house_number": "98", "road": "Paddock Club Drive", "city": "Panama City Beach", "state": "Florida", "postcode": "32407", "lat": 30.189756132061405, "long": -85.81374688501177}, {"house_number": "98", "road": "Paddock Club Drive", "city": "Panama City Beach", "state": "Florida", "postcode": "32407", "lat": 30.189756132061405, "long": -85.81374688501177}, {"house_number": "98", "road": "Paddock Club Drive", "city": "Panama City Beach", "state": "Florida", "postcode": "32407", "lat": 30.189756132061405, "long": -85.81374688501177}, {"house_number": "98", "road": "Paddock Club Drive", "city": "Panama City Beach", "state": "Florida", "postcode": "32407", "lat": 30.189756132061405, "long": -85.81374688501177}, {"house_number": "4435", "road": "Pratt Avenue", "city": "Parker", "state": "Florida", "postcode": "32404", "lat": 30.127307864776505, "long": -85.6101187775021}, {"house_number": "153", "road": "North 39th Street", "city": "Mexico Beach", "state": "Florida", "postcode": "32456", "lat": 29.95343759680234, "long": -85.4234271254726}, {"house_number": "4907", "road": "Lake Drive", "city": "Parker", "state": "Florida", "postcode": "32404", "lat": 30.134706999999995, "long": -85.60176349999999}, {"house_number": "706", "road": "North 9th Street", "city": "Parker", "state": "Florida", "postcode": "32404", "lat": 30.134418999999994, "long": -85.60216049999998}, {"house_number": "712", "road": "Gilstrap Drive", "city": "Parker", "state": "Florida", "postcode": "32404", "lat": 30.134253, "long": -85.601371}, {"house_number": "712", "road": "Gilstrap Drive", "city": "Parker", "state": "Florida", "postcode": "32404", "lat": 30.134253, "long": -85.601371}, {"house_number": "4938", "road": "Lake Drive", "city": "Parker", "state": "Florida", "postcode": "32404", "lat": 30.134716499999996, "long": -85.6004555}, {"house_number": "743", "road": "North 9th Street", "city": "Parker", "state": "Florida", "postcode": "32404", "lat": 30.132914950735596, "long": -85.60216207221329}, {"house_number": "4839", "road": "Pridgen Street", "city": "Parker", "state": "Florida", "postcode": "32404", "lat": 30.131697291890568, "long": -85.6026614870832}, {"house_number": "4841", "road": "North 9th Street", "city": "Parker", "state": "Florida", "postcode": "32404", "lat": 30.131390999999983, "long": -85.60218349999998}, {"house_number": "525", "road": "Magnolia", "city": "Parker", "state": "Florida", "postcode": "32404", "lat": 30.132641, "long": -85.6123195}, {"house_number": "543", "road": "Ralph Hughes Court", "city": "Panama City", "state": "Florida", "postcode": "32404", "lat": 30.157440047647537, "long": -85.56322269011497}, {"house_number": "1212", "road": "Yale Avenue", "city": "Panama City", "state": "Florida", "postcode": "32405", "lat": 30.196582488537366, "long": -85.6796795096606}, {"house_number": "7544", "road": "Pittsburgh Street", "city": "Panama City", "state": "Florida", "postcode": "32404", "lat": 30.158518000000004, "long": -85.56164499999998}, {"house_number": "7544", "road": "Pittsburgh Street", "city": "Panama City", "state": "Florida", "postcode": "32404", "lat": 30.158518000000004, "long": -85.56164499999998}, {"house_number": "8500", "road": "Wewa Highway", "city": "Panama City", "state": "Florida", "postcode": "32404", "lat": 30.152812499999992, "long": -85.545268}, {"house_number": "8500", "road": "Wewa Highway", "city": "Panama City", "state": "Florida", "postcode": "32404", "lat": 30.152812499999992, "long": -85.545268}, {"house_number": "1350", "road": "19th Street", "city": "Panama City", "state": "Florida", "postcode": "32405", "lat": 30.182548999999995, "long": -85.68140749999999}, {"house_number": "2429", "road": "Flower Avenue", "city": "Panama City", "state": "Florida", "postcode": "32405", "lat": 30.19404921345115, "long": -85.68898811008806}, {"house_number": "507", "road": "Candlewick Drive", "city": "Panama City", "state": "Florida", "postcode": "32405", "lat": 30.2252205, "long": -85.66824650000001}, {"house_number": "607", "road": "Kristanna Drive", "city": "Panama City", "state": "Florida", "postcode": "32405", "lat": 30.225220207940815, "long": -85.67158243696674}, {"house_number": "4076", "road": "Woodridge Road", "city": "Panama City", "state": "Florida", "postcode": "32405", "lat": 30.223683423564083, "long": -85.66547391006942}, {"house_number": "122", "road": "Candlewick Place", "city": "Panama City", "state": "Florida", "postcode": "32405", "lat": 30.2228305, "long": -85.66772399999999}, {"house_number": "516", "road": "Candlewick Drive", "city": "Panama City", "state": "Florida", "postcode": "32405", "lat": 30.225227694435283, "long": -85.66970902803912}, {"house_number": "106", "road": "Candlewick Court", "city": "Panama City", "state": "Florida", "postcode": "32405", "lat": 30.223886000000004, "long": -85.667701}, {"house_number": "704", "road": "Monty Circle", "city": "Panama City", "state": "Florida", "postcode": "32405", "lat": 30.225226138453706, "long": -85.67329558674253}, {"house_number": "125", "road": "North Church Avenue", "city": "Panama City", "state": "Florida", "postcode": "32401", "lat": 30.14884149999999, "long": -85.627487}, {"house_number": "2401", "road": "West 27th Street", "city": "Panama City", "state": "Florida", "postcode": "32405", "lat": 30.196989499999987, "long": -85.69499149999999}, {"house_number": "2820", "road": "Longleaf Road", "city": "Panama City", "state": "Florida", "postcode": "32405", "lat": 30.199063679097915, "long": -85.69694177504779}, {"house_number": "3458", "road": "Monica Road", "city": "Springfield", "state": "Florida", "postcode": "32405", "lat": 30.195671499999996, "long": -85.6095235}, {"house_number": "3721", "road": "West 25th Street", "city": "Panama City", "state": "Florida", "postcode": "32405", "lat": 30.193471499999987, "long": -85.70645449999998}, {"house_number": "3407", "road": "Ten Acre Road", "city": "Springfield", "state": "Florida", "postcode": "32405", "lat": 30.194869499999992, "long": -85.609779}, {"house_number": "349", "road": "Twin Lakes Drive", "city": "Panama City Beach", "state": "Florida", "postcode": "32413", "lat": 30.252485883347, "long": -85.93907707305907}, {"house_number": "3363", "road": "Game Farm Road", "city": "Springfield", "state": "Florida", "postcode": "32405", "lat": 30.198476356317798, "long": -85.61029800249544}, {"house_number": "1648", "road": "Maryland Avenue", "city": "Lynn Haven", "state": "Florida", "postcode": "32444", "lat": 30.234082, "long": -85.669376}, {"house_number": "3415", "road": "Orlando Road", "city": "Springfield", "state": "Florida", "postcode": "32405", "lat": 30.20028149999999, "long": -85.609512}, {"house_number": "500", "road": "Beachside Gardens", "city": "Panama City Beach", "state": "Florida", "postcode": "32413", "lat": 30.262363891477218, "long": -85.97560077083823}, {"house_number": "401", "road": "Beachside Drive", "city": "Panama City Beach", "state": "Florida", "postcode": "32413", "lat": 30.262067901429205, "long": -85.97595289312947}, {"house_number": "2556", "road": "Canal Avenue", "city": "Lynn Haven", "state": "Florida", "postcode": "32444", "lat": 30.219076488226975, "long": -85.63304526952784}, {"house_number": "2556", "road": "Canal Avenue", "city": "Lynn Haven", "state": "Florida", "postcode": "32444", "lat": 30.219076488226975, "long": -85.63304526952784}, {"house_number": "605", "road": "North Kimbrel Avenue", "city": "Panama City", "state": "Florida", "postcode": "32404", "lat": 30.158385530293316, "long": -85.58267059500488}, {"house_number": "1618", "road": "Sherman Avenue", "city": "Panama City", "state": "Florida", "postcode": "32405", "lat": 30.176683000000004, "long": -85.633361}, {"house_number": "2219", "road": "East 16th Street", "city": "Panama City", "state": "Florida", "postcode": "32405", "lat": 30.1763805, "long": -85.634418}, {"house_number": "1603", "road": "Sherman Avenue", "city": "Panama City", "state": "Florida", "postcode": "32405", "lat": 30.175613, "long": -85.633365}, {"house_number": "1399", "road": "Maryland Avenue", "city": "Lynn Haven", "state": "Florida", "postcode": "32444", "lat": 30.237923499999987, "long": -85.6701385}, {"house_number": "2016", "road": "West 24th Street", "city": "Panama City", "state": "Florida", "postcode": "32405", "lat": 30.192587339108734, "long": -85.69018199359896}, {"house_number": "3357", "road": "Orlando Road", "city": "Springfield", "state": "Florida", "postcode": "32405", "lat": 30.200303499999993, "long": -85.61082049999999}, {"house_number": "20208", "road": "Front Beach Road", "city": "Panama City Beach", "state": "Florida", "postcode": "32413", "lat": 30.24453899999999, "long": -85.93542399999998}, {"house_number": "19610", "road": "Alta Vista Drive", "city": "Panama City Beach", "state": "Florida", "postcode": "32413", "lat": 30.243740499999998, "long": -85.92419}, {"house_number": "19445", "road": "Plaza Avenue", "city": "Panama City Beach", "state": "Florida", "postcode": "32413", "lat": 30.24342849999999, "long": -85.92151999999999}, {"house_number": "19706", "road": "Del Mar Drive", "city": "Panama City Beach", "state": "Florida", "postcode": "32413", "lat": 30.2426655, "long": -85.926166}, {"house_number": "211", "road": "Corto Place", "city": "Panama City Beach", "state": "Florida", "postcode": "32413", "lat": 30.2423614982397, "long": -85.92347918935506}, {"house_number": "4001", "road": "Sabal Street", "city": "Panama City Beach", "state": "Florida", "postcode": "32408", "lat": 30.163708023375754, "long": -85.78051499779836}, {"house_number": "8010", "road": "South Lagoon Drive", "city": "Panama City Beach", "state": "Florida", "postcode": "32408", "lat": 30.16367298495841, "long": -85.77938368202389}, {"house_number": "3712", "road": "Walnut Street", "city": "Panama City Beach", "state": "Florida", "postcode": "32408", "lat": 30.1591915, "long": -85.77546250000002}, {"house_number": "3403", "road": "Game Farm Road", "city": "Springfield", "state": "Florida", "postcode": "32405", "lat": 30.19846249999999, "long": -85.60949949999998}, {"house_number": "2751", "road": "Densie Drive", "city": "Springfield", "state": "Florida", "postcode": "32405", "lat": 30.197703999999995, "long": -85.61500899999997}, {"house_number": "3563", "road": "Lane Road", "city": "Springfield", "state": "Florida", "postcode": "32404", "lat": 30.19429149999999, "long": -85.606235}, {"house_number": "6351", "road": "Tram Road", "city": "Panama City", "state": "Florida", "postcode": "32404", "lat": 30.193639091855864, "long": -85.54599937339847}, {"house_number": "3128", "road": "Douglas Road", "city": "Springfield", "state": "Florida", "postcode": "32405", "lat": 30.19131799999999, "long": -85.61524149999998}, {"house_number": "18301", "road": "Panama City Beach Parkway", "city": "Panama City Beach", "state": "Florida", "postcode": "32413", "lat": 30.240536999999996, "long": -85.91331799999998}, {"house_number": "18301", "road": "Panama City Beach Parkway", "city": "Panama City Beach", "state": "Florida", "postcode": "32413", "lat": 30.240536999999996, "long": -85.91331799999998}, {"house_number": "613", "road": "Le Grand Drive", "city": "Panama City Beach", "state": "Florida", "postcode": "32413", "lat": 30.256920499999993, "long": -85.9501755}, {"house_number": "4052", "road": "US 98", "city": "Mexico Beach", "state": "Florida", "postcode": "32456", "lat": 29.952125999999993, "long": -85.42476999999997}, {"house_number": "148", "road": "South 32nd Street", "city": "Mexico Beach", "state": "Florida", "postcode": "32456", "lat": 29.948458499999997, "long": -85.41995949999998}, {"house_number": "2749", "road": "US 98", "city": "Mexico Beach", "state": "Florida", "postcode": "32456", "lat": 29.947075499999993, "long": -85.41656449999999}, {"house_number": "221", "road": "Nannook Road", "city": "Mexico Beach", "state": "Florida", "postcode": "32456", "lat": 29.94360479020962, "long": -85.40857232318167}, {"house_number": "3504", "road": "Rosewood Circle", "city": "Lynn Haven", "state": "Florida", "postcode": "32444", "lat": 30.2069052354822, "long": -85.6368515159837}, {"house_number": "311", "road": "Lyonia Lane", "city": "Panama City Beach", "state": "Florida", "postcode": "32408", "lat": 30.173608999999992, "long": -85.7703205}, {"house_number": "118", "road": "Kelly Street", "city": "Panama City Beach", "state": "Florida", "postcode": "32413", "lat": 30.255036, "long": -85.95804150000001}, {"house_number": "123", "road": "4th Street", "city": "Panama City Beach", "state": "Florida", "postcode": "32413", "lat": 30.251546999999995, "long": -85.94859999999998}, {"house_number": "748", "road": "East 4th Street", "city": "Lynn Haven", "state": "Florida", "postcode": "32444", "lat": 30.251485499999994, "long": -85.6410935}, {"house_number": "2451", "road": "Harrison Avenue", "city": "Panama City", "state": "Florida", "postcode": "32405", "lat": 30.192179994566445, "long": -85.65831043757547}, {"house_number": "3511", "road": "Florida Avenue", "city": "Panama City", "state": "Florida", "postcode": "32405", "lat": 30.212247501368516, "long": -85.66848358194476}, {"house_number": "1014", "road": "Cornell Drive", "city": "Panama City", "state": "Florida", "postcode": "32405", "lat": 30.196019499999995, "long": -85.6778175}, {"house_number": "1009", "road": "Cornell Drive", "city": "Panama City", "state": "Florida", "postcode": "32405", "lat": 30.19653423351523, "long": -85.6766638488804}, {"house_number": "251", "road": "East Woodland Road", "city": "Panama City", "state": "Florida", "postcode": "32409", "lat": 30.398950375926116, "long": -85.67493328669799}, {"house_number": "251", "road": "East Woodland Road", "city": "Panama City", "state": "Florida", "postcode": "32409", "lat": 30.398950375926116, "long": -85.67493328669799}, {"house_number": "251", "road": "East Woodland Road", "city": "Panama City", "state": "Florida", "postcode": "32409", "lat": 30.398950375926116, "long": -85.67493328669799}, {"house_number": "251", "road": "East Woodland Road", "city": "Panama City", "state": "Florida", "postcode": "32409", "lat": 30.398950375926116, "long": -85.67493328669799}, {"house_number": "251", "road": "East Woodland Road", "city": "Panama City", "state": "Florida", "postcode": "32409", "lat": 30.398950375926116, "long": -85.67493328669799}, {"house_number": "251", "road": "East Woodland Road", "city": "Panama City", "state": "Florida", "postcode": "32409", "lat": 30.398950375926116, "long": -85.67493328669799}]