[{"house_number": "7358", "road": "Old Wolf Bay Road", "city": "Palatka", "state": "Florida", "postcode": "32177", "lat": 29.641085780978738, "long": -81.70002397736113}, {"house_number": "7396", "road": "Old Wolf Bay Road", "city": "Palatka", "state": "Florida", "postcode": "32177", "lat": 29.641127783094795, "long": -81.69600499910722}, {"house_number": "2406", "road": "Tommy Avenue", "city": "Palatka", "state": "Florida", "postcode": "32177", "lat": 29.62633152816702, "long": -81.65480250023512}, {"house_number": "68", "road": "Edgewood Avenue", "city": "Crescent City", "state": "Florida", "postcode": "32112", "lat": 29.433957462369506, "long": -81.50658737847596}, {"house_number": "3841", "road": "Reid Street", "city": "Palatka", "state": "Florida", "postcode": "32177", "lat": 29.660418632115928, "long": -81.67527328797226}, {"house_number": "134", "road": "Alligator Circle", "city": "Fruitland", "state": "Florida", "postcode": "32112", "lat": 29.416119031654755, "long": -81.64008708054644}, {"house_number": "150", "road": "Putnam County Boulevard", "city": "East Palatka", "state": "Florida", "postcode": "32131", "lat": 29.649906055981415, "long": -81.6009609616366}, {"house_number": "1668", "road": "Huntington Road", "city": "Fruitland", "state": "Florida", "postcode": "32112", "lat": 29.43377015500929, "long": -81.59413292782251}, {"house_number": "1668", "road": "Huntington Road", "city": "Fruitland", "state": "Florida", "postcode": "32112", "lat": 29.43377015500929, "long": -81.59413292782251}, {"house_number": "123", "road": "Alligator Circle", "city": "Fruitland", "state": "Florida", "postcode": "32112", "lat": 29.416351560404003, "long": -81.64084546087689}, {"house_number": "298", "road": "Hubers Fish Camp Road", "city": "Fruitland", "state": "Florida", "postcode": "32112", "lat": 29.43068182431713, "long": -81.6476282422481}, {"house_number": "175", "road": "Beecher Springs Road", "city": "Fruitland", "state": "Florida", "postcode": "32181", "lat": 29.474512419615, "long": -81.64598185418146}, {"house_number": "252", "road": "US 17;FL 100", "city": "East Palatka", "state": "Florida", "postcode": "32131", "lat": 29.64697802557198, "long": -81.59963001659057}, {"house_number": "178", "road": "Grand Avenue", "city": "Interlachen", "state": "Florida", "postcode": "32148", "lat": 29.61689900317777, "long": -81.8864883421987}, {"house_number": "1886", "road": "FL 20", "city": "Interlachen", "state": "Florida", "postcode": "32640", "lat": 29.60943203876638, "long": -82.00895811045021}, {"house_number": "2648", "road": "Lundy Road", "city": "Palatka", "state": "Florida", "postcode": "32177", "lat": 29.625722497048788, "long": -81.6475339927}, {"house_number": "618", "road": "Old Welaka Road", "city": "Welaka", "state": "Florida", "postcode": "32189", "lat": 29.48978888565498, "long": -81.6676235313205}, {"house_number": "110", "road": "A Street", "city": "Pomona Park", "state": "Florida", "postcode": "32181", "lat": 29.49671073986588, "long": -81.6051229924256}, {"house_number": "110", "road": "A Street", "city": "Pomona Park", "state": "Florida", "postcode": "32181", "lat": 29.49671073986588, "long": -81.6051229924256}, {"house_number": "366", "road": "Beecher Springs Road", "city": "Fruitland", "state": "Florida", "postcode": "32112", "lat": 29.448866279357322, "long": -81.64423305825589}, {"house_number": "63", "road": "South Broward Avenue", "city": "Pomona Park", "state": "Florida", "postcode": "32181", "lat": 29.492300149654913, "long": -81.59122899276359}, {"house_number": "1224", "road": "CR 309", "city": "Fruitland", "state": "Florida", "postcode": "32112", "lat": 29.414805998825198, "long": -81.64337851039045}, {"house_number": "142", "road": "East River Road", "city": "East Palatka", "state": "Florida", "postcode": "32131", "lat": 29.661929765786606, "long": -81.60770295475766}, {"house_number": "1070", "road": "FL 20", "city": "Interlachen", "state": "Florida", "postcode": "32148", "lat": 29.629168182244566, "long": -81.87252083983873}, {"house_number": "1070", "road": "FL 20", "city": "Interlachen", "state": "Florida", "postcode": "32148", "lat": 29.629168182244566, "long": -81.87252083983873}, {"house_number": "1941", "road": "FL 20", "city": "Interlachen", "state": "Florida", "postcode": "32640", "lat": 29.609586487679778, "long": -82.01818494218816}, {"house_number": "1024", "road": "FL 20", "city": "Interlachen", "state": "Florida", "postcode": "32148", "lat": 29.627801294815065, "long": -81.86598457364931}, {"house_number": "1024", "road": "FL 20", "city": "Interlachen", "state": "Florida", "postcode": "32148", "lat": 29.627801294815065, "long": -81.86598457364931}, {"house_number": "400", "road": "3rd Avenue", "city": "Palatka", "state": "Florida", "postcode": "32177", "lat": 29.63782238795004, "long": -81.67352855080262}, {"house_number": "450", "road": "Holly Avenue", "city": "Pomona Park", "state": "Florida", "postcode": "32181", "lat": 29.49438649199739, "long": -81.5996281792469}, {"house_number": "151", "road": "Prospect Street", "city": "Pomona Park", "state": "Florida", "postcode": "32181", "lat": 29.495269469536478, "long": -81.59527099726162}, {"house_number": "73", "road": "Scott", "city": "Welaka", "state": "Florida", "postcode": "32193", "lat": 29.489687055231514, "long": -81.67699135021859}, {"house_number": "73", "road": "Scott", "city": "Welaka", "state": "Florida", "postcode": "32193", "lat": 29.489687055231514, "long": -81.67699135021859}, {"house_number": "151", "road": "South Broward Avenue", "city": "Pomona Park", "state": "Florida", "postcode": "32181", "lat": 29.491159547717952, "long": -81.59009499139847}, {"house_number": "550", "road": "1st Avenue", "city": "Welaka", "state": "Florida", "postcode": "32193", "lat": 29.481358303998224, "long": -81.67352988321275}, {"house_number": "550", "road": "1st Avenue", "city": "Welaka", "state": "Florida", "postcode": "32193", "lat": 29.481358303998224, "long": -81.67352988321275}, {"house_number": "1010", "road": "Front Street", "city": "Welaka", "state": "Florida", "postcode": "32193", "lat": 29.474083998115038, "long": -81.67361006004356}, {"house_number": "976", "road": "Front Street", "city": "Welaka", "state": "Florida", "postcode": "32193", "lat": 29.475064278143726, "long": -81.67362856265525}, {"house_number": "217", "road": "Sportsman Drive", "city": "Welaka", "state": "Florida", "postcode": "32193", "lat": 29.49110921797644, "long": -81.68225071282748}, {"house_number": "2861", "road": "Lundy Road", "city": "Palatka", "state": "Florida", "postcode": "32177", "lat": 29.620720508165522, "long": -81.64771910049593}, {"house_number": "1748", "road": "FL 20", "city": "Interlachen", "state": "Florida", "postcode": "32640", "lat": 29.61419049571258, "long": -81.98024415616824}]