[{"house_number": "2948", "road": "Hickory Court", "city": "Zolfo Springs", "state": "Florida", "postcode": "33890", "lat": 27.497391417889244, "long": -81.78926581588684}, {"house_number": "497", "road": "Peace Drive", "city": "Wauchula", "state": "Florida", "postcode": "33873", "lat": 27.539214217360225, "long": -81.81521381818443}, {"house_number": "347", "road": "Diana Avenue", "city": "Wauchula", "state": "Florida", "postcode": "33873", "lat": 27.552248580557276, "long": -81.80642182942833}, {"house_number": "221", "road": "Lemon", "city": "Bowling Green", "state": "Florida", "postcode": "33834", "lat": 27.635373559491576, "long": -81.82260643660518}, {"house_number": "1301", "road": "Sparrow Road", "city": "Charlie Creek", "state": "Florida", "postcode": "33873", "lat": 27.568237999494386, "long": -81.64807898961438}, {"house_number": "4549", "road": "South Avenue", "city": "Bowling Green", "state": "Florida", "postcode": "33834", "lat": 27.636603805913712, "long": -81.82710601938332}, {"house_number": "651", "road": "East Palmetto Street", "city": "Wauchula", "state": "Florida", "postcode": "33873", "lat": 27.55004204180664, "long": -81.80578475290322}, {"house_number": "1249", "road": "Cardial Road", "city": "Charlie Creek", "state": "Florida", "postcode": "33873", "lat": 27.56822552421217, "long": -81.64899573432517}, {"house_number": "251", "road": "Cocoanut Street", "city": "Bowling Green", "state": "Florida", "postcode": "33834", "lat": 27.632494227348733, "long": -81.82246453451916}, {"house_number": "245", "road": "Hardee Street", "city": "Bowling Green", "state": "Florida", "postcode": "33834", "lat": 27.631285499999994, "long": -81.82314249999999}, {"house_number": "543", "road": "Lake Branch Road Northeast", "city": "Bowling Green", "state": "Florida", "postcode": "33834", "lat": 27.62916922672895, "long": -81.81635510961479}, {"house_number": "543", "road": "Lake Branch Road Northeast", "city": "Bowling Green", "state": "Florida", "postcode": "33834", "lat": 27.62916922672895, "long": -81.81635510961479}, {"house_number": "153", "road": "Orange Street", "city": "Bowling Green", "state": "Florida", "postcode": "33834", "lat": 27.643867970435, "long": -81.82329300907615}, {"house_number": "201", "road": "Bell Street", "city": "Wauchula", "state": "Florida", "postcode": "33873", "lat": 27.557392999999994, "long": -81.81304799999998}, {"house_number": "1250", "road": "CR 664", "city": "Bowling Green", "state": "Florida", "postcode": "33834", "lat": 27.638469999999998, "long": -81.83548699999999}, {"house_number": "1166", "road": "Martin Luther King Jr Avenue", "city": "Wauchula", "state": "Florida", "postcode": "33873", "lat": 27.531315999999997, "long": -81.80114699999999}, {"house_number": "502", "road": "South 7th Avenue", "city": "Wauchula", "state": "Florida", "postcode": "33873", "lat": 27.542847504967092, "long": -81.81158789546261}, {"house_number": "256", "road": "West Palmetto Street", "city": "Wauchula", "state": "Florida", "postcode": "33873", "lat": 27.548469590114387, "long": -81.81404891445368}, {"house_number": "206", "road": "West Palmetto Street", "city": "Wauchula", "state": "Florida", "postcode": "33873", "lat": 27.54857705291921, "long": -81.81350141788594}, {"house_number": "308", "road": "West Oak Street", "city": "Wauchula", "state": "Florida", "postcode": "33873", "lat": 27.549531812551944, "long": -81.81537096191538}, {"house_number": "302", "road": "West Oak Street", "city": "Wauchula", "state": "Florida", "postcode": "33873", "lat": 27.54961837817818, "long": -81.81491147827717}, {"house_number": "350", "road": "West Townsend Street", "city": "Wauchula", "state": "Florida", "postcode": "33873", "lat": 27.55407488750115, "long": -81.8160160003703}, {"house_number": "305", "road": "Goolsby Street", "city": "Wauchula", "state": "Florida", "postcode": "33873", "lat": 27.552961195893534, "long": -81.81541249938687}, {"house_number": "350", "road": "Goolsby Street", "city": "Wauchula", "state": "Florida", "postcode": "33873", "lat": 27.55295959247504, "long": -81.81603449887425}, {"house_number": "349", "road": "7th Avenue", "city": "Zolfo Springs", "state": "Florida", "postcode": "33890", "lat": 27.49128445425847, "long": -81.79310447953019}, {"house_number": "353", "road": "6th Avenue", "city": "Zolfo Springs", "state": "Florida", "postcode": "33890", "lat": 27.493469732885956, "long": -81.79311650151928}, {"house_number": "353", "road": "6th Avenue", "city": "Zolfo Springs", "state": "Florida", "postcode": "33890", "lat": 27.493469732885956, "long": -81.79311650151928}, {"house_number": "356", "road": "5th Avenue", "city": "Zolfo Springs", "state": "Florida", "postcode": "33890", "lat": 27.494477190659442, "long": -81.79312649937881}, {"house_number": "349", "road": "5th Avenue", "city": "Zolfo Springs", "state": "Florida", "postcode": "33890", "lat": 27.49447465967838, "long": -81.7937504978397}, {"house_number": "247", "road": "3rd Street East", "city": "Zolfo Springs", "state": "Florida", "postcode": "33890", "lat": 27.49650400577611, "long": -81.79433650628769}, {"house_number": "139", "road": "2nd Street", "city": "Zolfo Springs", "state": "Florida", "postcode": "33890", "lat": 27.49856118139788, "long": -81.79602209919888}, {"house_number": "191", "road": "2nd Street", "city": "Zolfo Springs", "state": "Florida", "postcode": "33890", "lat": 27.498551710346863, "long": -81.79548600200137}, {"house_number": "3350", "road": "Elm Street", "city": "Zolfo Springs", "state": "Florida", "postcode": "33890", "lat": 27.493197001258434, "long": -81.79045287501366}, {"house_number": "751", "road": "6th Avenue", "city": "Zolfo Springs", "state": "Florida", "postcode": "33890", "lat": 27.49348492544851, "long": -81.78848549969682}, {"house_number": "751", "road": "6th Avenue", "city": "Zolfo Springs", "state": "Florida", "postcode": "33890", "lat": 27.49348492544851, "long": -81.78848549969682}, {"house_number": "3349", "road": "Poplar Street", "city": "Zolfo Springs", "state": "Florida", "postcode": "33890", "lat": 27.49319350372981, "long": -81.79159386805041}, {"house_number": "948", "road": "Loblolly Loop", "city": "Zolfo Springs", "state": "Florida", "postcode": "33890", "lat": 27.494524455936595, "long": -81.78520004676062}, {"house_number": "3215", "road": "Schoolhouse Road", "city": "Zolfo Springs", "state": "Florida", "postcode": "33890", "lat": 27.49473064052431, "long": -81.78515549419666}, {"house_number": "739", "road": "Martin Luther King Jr Avenue", "city": "Wauchula", "state": "Florida", "postcode": "33873", "lat": 27.537789499999995, "long": -81.80116049999998}, {"house_number": "308", "road": "4th Avenue", "city": "Zolfo Springs", "state": "Florida", "postcode": "33890", "lat": 27.495478278966747, "long": -81.7937724996469}, {"house_number": "3562", "road": "South Palmetto Street", "city": "Zolfo Springs", "state": "Florida", "postcode": "33890", "lat": 27.490253999999993, "long": -81.79276949999999}, {"house_number": "3577", "road": "Poplar Street", "city": "Zolfo Springs", "state": "Florida", "postcode": "33890", "lat": 27.489535999912935, "long": -81.79157043122288}, {"house_number": "651", "road": "West Grape Street", "city": "Bowling Green", "state": "Florida", "postcode": "33834", "lat": 27.64224565669955, "long": -81.82919754707213}, {"house_number": "651", "road": "West Grape Street", "city": "Bowling Green", "state": "Florida", "postcode": "33834", "lat": 27.64224565669955, "long": -81.82919754707213}, {"house_number": "751", "road": "West Grape Street", "city": "Bowling Green", "state": "Florida", "postcode": "33834", "lat": 27.642219399710548, "long": -81.82984309221919}, {"house_number": "751", "road": "West Grape Street", "city": "Bowling Green", "state": "Florida", "postcode": "33834", "lat": 27.642219399710548, "long": -81.82984309221919}, {"house_number": "616", "road": "Palmetto Street", "city": "Bowling Green", "state": "Florida", "postcode": "33834", "lat": 27.641433499999994, "long": -81.82778849999998}, {"house_number": "4919", "road": "Mason Dixon Avenue", "city": "Bowling Green", "state": "Florida", "postcode": "33834", "lat": 27.642049503349323, "long": -81.82604129033871}, {"house_number": "4908", "road": "Mason Dixon Avenue", "city": "Bowling Green", "state": "Florida", "postcode": "33834", "lat": 27.641633001200233, "long": -81.82603540791051}, {"house_number": "750", "road": "Palmetto Street", "city": "Bowling Green", "state": "Florida", "postcode": "33834", "lat": 27.641426999999993, "long": -81.8287555}, {"house_number": "705", "road": "Palmetto Street", "city": "Bowling Green", "state": "Florida", "postcode": "33834", "lat": 27.64141944453784, "long": -81.82981599971457}, {"house_number": "4653", "road": "Maple Avenue", "city": "Bowling Green", "state": "Florida", "postcode": "33834", "lat": 27.63756350065617, "long": -81.83098341960466}, {"house_number": "4503", "road": "Maple Avenue", "city": "Bowling Green", "state": "Florida", "postcode": "33834", "lat": 27.63576800440779, "long": -81.83096608892414}, {"house_number": "4605", "road": "Dixiana Drive", "city": "Bowling Green", "state": "Florida", "postcode": "33834", "lat": 27.63756800651885, "long": -81.83009658289383}, {"house_number": "4505", "road": "Dixiana Drive", "city": "Bowling Green", "state": "Florida", "postcode": "33834", "lat": 27.6363805014125, "long": -81.83007743789423}, {"house_number": "504", "road": "West Jones Street", "city": "Bowling Green", "state": "Florida", "postcode": "33834", "lat": 27.6398784436194, "long": -81.82768399962686}, {"house_number": "504", "road": "West Jones Street", "city": "Bowling Green", "state": "Florida", "postcode": "33834", "lat": 27.6398784436194, "long": -81.82768399962686}, {"house_number": "560", "road": "West Jones Street", "city": "Bowling Green", "state": "Florida", "postcode": "33834", "lat": 27.639876999999988, "long": -81.82803299999999}, {"house_number": "560", "road": "West Jones Street", "city": "Bowling Green", "state": "Florida", "postcode": "33834", "lat": 27.639876999999988, "long": -81.82803299999999}, {"house_number": "220", "road": "Possum Trot", "city": "Zolfo Springs", "state": "Florida", "postcode": "33890", "lat": 27.49834, "long": -81.7928345}, {"house_number": "3450", "road": "Hickory Street", "city": "Zolfo Springs", "state": "Florida", "postcode": "33890", "lat": 27.49238428111169, "long": -81.78930162773567}, {"house_number": "3448", "road": "Elm Street", "city": "Zolfo Springs", "state": "Florida", "postcode": "33890", "lat": 27.492345499999985, "long": -81.79044399999998}, {"house_number": "3548", "road": "Elm Street", "city": "Zolfo Springs", "state": "Florida", "postcode": "33890", "lat": 27.490249, "long": -81.79042249999999}, {"house_number": "3509", "road": "Poplar Street", "city": "Zolfo Springs", "state": "Florida", "postcode": "33890", "lat": 27.491013543457257, "long": -81.79157032719068}, {"house_number": "3536", "road": "Poplar Street", "city": "Zolfo Springs", "state": "Florida", "postcode": "33890", "lat": 27.49025299999999, "long": -81.79156949999998}, {"house_number": "139", "road": "Grape Street", "city": "Bowling Green", "state": "Florida", "postcode": "33834", "lat": 27.6422465, "long": -81.82196798873198}, {"house_number": "206", "road": "Grape Street", "city": "Bowling Green", "state": "Florida", "postcode": "33834", "lat": 27.642241375026718, "long": -81.8215900017932}, {"house_number": "146", "road": "Griffin Road", "city": "Wauchula", "state": "Florida", "postcode": "33873", "lat": 27.547745915588337, "long": -81.80016345942482}, {"house_number": "8748", "road": "FL 64", "city": "Charlie Creek", "state": "Florida", "postcode": "33890", "lat": 27.583137286920273, "long": -81.60780266537957}, {"house_number": "649", "road": "3rd Avenue", "city": "Zolfo Springs", "state": "Florida", "postcode": "33890", "lat": 27.496463938549336, "long": -81.79010800033183}, {"house_number": "562", "road": "3rd Avenue", "city": "Zolfo Springs", "state": "Florida", "postcode": "33890", "lat": 27.496467043287968, "long": -81.79061050340809}, {"house_number": "3148", "road": "Elm Street", "city": "Zolfo Springs", "state": "Florida", "postcode": "33890", "lat": 27.495979499999994, "long": -81.79046799999998}, {"house_number": "357", "road": "4th Avenue", "city": "Zolfo Springs", "state": "Florida", "postcode": "33890", "lat": 27.495482278870732, "long": -81.79315399762619}, {"house_number": "153", "road": "West Bay Street", "city": "Wauchula", "state": "Florida", "postcode": "33873", "lat": 27.544881876563696, "long": -81.81201247563807}, {"house_number": "103", "road": "East Main Street", "city": "Wauchula", "state": "Florida", "postcode": "33873", "lat": 27.547619552171998, "long": -81.81151240697301}, {"house_number": "119", "road": "East Main Street", "city": "Wauchula", "state": "Florida", "postcode": "33873", "lat": 27.547717477493, "long": -81.81102390093437}, {"house_number": "150", "road": "West Palmetto Street", "city": "Wauchula", "state": "Florida", "postcode": "33873", "lat": 27.54868186704508, "long": -81.81294247468169}, {"house_number": "403", "road": "North 8th Avenue", "city": "Wauchula", "state": "Florida", "postcode": "33873", "lat": 27.550974999999987, "long": -81.815094}, {"house_number": "800", "road": "Stenstrom Road", "city": "Wauchula", "state": "Florida", "postcode": "33873", "lat": 27.53280892685667, "long": -81.81872199687403}, {"house_number": "148", "road": "7th Avenue", "city": "Zolfo Springs", "state": "Florida", "postcode": "33890", "lat": 27.49127632543861, "long": -81.79574247131465}, {"house_number": "148", "road": "6th Avenue", "city": "Zolfo Springs", "state": "Florida", "postcode": "33890", "lat": 27.493460601348076, "long": -81.79605849741925}, {"house_number": "1120", "road": "North Florida Avenue", "city": "Wauchula", "state": "Florida", "postcode": "33873", "lat": 27.56143303164249, "long": -81.81755051099965}, {"house_number": "3215", "road": "Schoolhouse Road", "city": "Zolfo Springs", "state": "Florida", "postcode": "33890", "lat": 27.494484053460095, "long": -81.78630298884447}, {"house_number": "448", "road": "Tulane Avenue", "city": "Wauchula", "state": "Florida", "postcode": "33873", "lat": 27.544517176577745, "long": -81.80240449748109}]