[{"house_number": "629", "road": "Forest Street", "city": "Santa Rosa Beach", "state": "Florida", "postcode": "32459", "lat": 30.322288999999987, "long": -86.13753749999998}, {"house_number": "60", "road": "Village Lane", "city": "Freeport", "state": "Florida", "postcode": "32439", "lat": 30.521847372438977, "long": -86.13113039872819}, {"house_number": "1700", "road": "US Highway 98 West", "city": "Santa Rosa Beach", "state": "Florida", "postcode": "32459", "lat": 30.37085650464426, "long": -86.20155585933364}, {"house_number": "981", "road": "Cocobolo Drive", "city": "Santa Rosa Beach", "state": "Florida", "postcode": "32459", "lat": 30.41129039898067, "long": -86.31500177644709}, {"house_number": "1353", "road": "Ravens Run West", "city": "Miramar Beach", "state": "Florida", "postcode": "32550", "lat": 30.3879950522112, "long": -86.31414685047599}, {"house_number": "104", "road": "Spotted Dolphin Road", "city": "Santa Rosa Beach", "state": "Florida", "postcode": "32459", "lat": 30.359690244702964, "long": -86.25498633593457}, {"house_number": "1083", "road": "Coastal Cove Circle", "city": "Santa Rosa Beach", "state": "Florida", "postcode": "32459", "lat": 30.368576771824074, "long": -86.27865533482672}, {"house_number": "57", "road": "Starfish Cove", "city": "Miramar Beach", "state": "Florida", "postcode": "32550", "lat": 30.380719681047353, "long": -86.3754996700066}, {"house_number": "25451", "road": "US Highway 331 South", "city": "Santa Rosa Beach", "state": "Florida", "postcode": "32459", "lat": 30.371758819108063, "long": -86.180159588657}, {"house_number": "332", "road": "Fish or Cut Bait Road", "city": "DeFuniak Springs", "state": "Florida", "postcode": "32433", "lat": 30.785800334995717, "long": -86.14089981084093}, {"house_number": "674", "road": "Shoemaker Drive", "city": "DeFuniak Springs", "state": "Florida", "postcode": "32433", "lat": 30.737985532236017, "long": -86.13373651580041}, {"house_number": "2377", "road": "State Highway 20 West", "city": "Freeport", "state": "Florida", "postcode": "32439", "lat": 30.51072319547106, "long": -86.17330193723366}, {"house_number": "2698", "road": "State Highway 85", "city": "Laurel Hill", "state": "Florida", "postcode": "32567", "lat": 30.967500585657707, "long": -86.36447350337463}, {"house_number": "171", "road": "Water Oaks Loop", "city": "Santa Rosa Beach", "state": "Florida", "postcode": "32459", "lat": 30.377040376982187, "long": -86.25712680953296}, {"house_number": "293", "road": "Locklear Lane", "city": "DeFuniak Springs", "state": "Florida", "postcode": "32435", "lat": 30.72224540762344, "long": -86.1608999858205}, {"house_number": "980", "road": "Rock Hill Road", "city": "DeFuniak Springs", "state": "Florida", "postcode": "32435", "lat": 30.60251542868898, "long": -86.09567047235728}, {"house_number": "980", "road": "Rock Hill Road", "city": "DeFuniak Springs", "state": "Florida", "postcode": "32435", "lat": 30.60251542868898, "long": -86.09567047235728}, {"house_number": "17", "road": "Villa Drive", "city": "Miramar Beach", "state": "Florida", "postcode": "32550", "lat": 30.37374763357898, "long": -86.33974963760625}, {"house_number": "17", "road": "Villa Drive", "city": "Miramar Beach", "state": "Florida", "postcode": "32550", "lat": 30.37374763357898, "long": -86.33974963760625}, {"house_number": "337", "road": "Shady Creek Lane", "city": "DeFuniak Springs", "state": "Florida", "postcode": "32435", "lat": 30.709760276150643, "long": -86.14208136597699}, {"house_number": "100", "road": "South Zander Way", "city": "Santa Rosa Beach", "state": "Florida", "postcode": "32459", "lat": 30.375659375639223, "long": -86.23464354156876}, {"house_number": "100", "road": "South Zander Way", "city": "Santa Rosa Beach", "state": "Florida", "postcode": "32459", "lat": 30.375659375639223, "long": -86.23464354156876}, {"house_number": "100", "road": "South Zander Way", "city": "Santa Rosa Beach", "state": "Florida", "postcode": "32459", "lat": 30.375659375639223, "long": -86.23464354156876}, {"house_number": "505", "road": "Flowersview Boulevard", "city": "Laurel Hill", "state": "Florida", "postcode": "32567", "lat": 30.96025788957365, "long": -86.3384934967882}, {"house_number": "514", "road": "Seabreeze Circle", "city": "Alys Beach", "state": "Florida", "postcode": "32461", "lat": 30.293381418665636, "long": -86.0530680525546}, {"house_number": "402", "road": "Hugh Adams Road", "city": "DeFuniak Springs", "state": "Florida", "postcode": "32435", "lat": 30.694189543294225, "long": -86.1193881897532}, {"house_number": "402", "road": "Hugh Adams Road", "city": "DeFuniak Springs", "state": "Florida", "postcode": "32435", "lat": 30.694189543294225, "long": -86.1193881897532}, {"house_number": "402", "road": "Hugh Adams Road", "city": "DeFuniak Springs", "state": "Florida", "postcode": "32435", "lat": 30.694189543294225, "long": -86.1193881897532}, {"house_number": "405", "road": "Eden Drive", "city": "Santa Rosa Beach", "state": "Florida", "postcode": "32459", "lat": 30.36906363314941, "long": -86.10977822919003}, {"house_number": "26", "road": "Eagles Landing", "city": "Rosemary Beach", "state": "Florida", "postcode": "32461", "lat": 30.27654812612537, "long": -86.00627453548185}, {"house_number": "102", "road": "Lauren Lane", "city": "Santa Rosa Beach", "state": "Florida", "postcode": "32459", "lat": 30.38193282507523, "long": -86.28616241071248}, {"house_number": "79", "road": "Chelsea Loop Road", "city": "Santa Rosa Beach", "state": "Florida", "postcode": "32459", "lat": 30.308145390338833, "long": -86.09933235052364}, {"house_number": "79", "road": "Chelsea Loop Road", "city": "Santa Rosa Beach", "state": "Florida", "postcode": "32459", "lat": 30.308145390338833, "long": -86.09933235052364}, {"house_number": "79", "road": "Chelsea Loop Road", "city": "Santa Rosa Beach", "state": "Florida", "postcode": "32459", "lat": 30.308145390338833, "long": -86.09933235052364}, {"house_number": "79", "road": "Chelsea Loop Road", "city": "Santa Rosa Beach", "state": "Florida", "postcode": "32459", "lat": 30.308145390338833, "long": -86.09933235052364}, {"house_number": "203", "road": "Seabreeze Boulevard", "city": "Alys Beach", "state": "Florida", "postcode": "32461", "lat": 30.29423692607713, "long": -86.04982117094708}, {"house_number": "229", "road": "US Highway 90 East", "city": "DeFuniak Springs", "state": "Florida", "postcode": "32433", "lat": 30.728662633544097, "long": -86.06119177938164}, {"house_number": "3", "road": "Banfill Street", "city": "Santa Rosa Beach", "state": "Florida", "postcode": "32459", "lat": 30.331255440825906, "long": -86.16446168165596}, {"house_number": "17", "road": "Gulfview Heights Street", "city": "Santa Rosa Beach", "state": "Florida", "postcode": "32459", "lat": 30.34650694294406, "long": -86.22098373680545}, {"house_number": "76", "road": "Gulfview Heights Street", "city": "Santa Rosa Beach", "state": "Florida", "postcode": "32459", "lat": 30.34579001839062, "long": -86.22101485288158}, {"house_number": "27", "road": "Sandcastle Court", "city": "Santa Rosa Beach", "state": "Florida", "postcode": "32459", "lat": 30.340246094631667, "long": -86.20190962345825}, {"house_number": "34", "road": "Marlin Street", "city": "Santa Rosa Beach", "state": "Florida", "postcode": "32459", "lat": 30.342902711747787, "long": -86.20524653175292}, {"house_number": "74", "road": "Triggerfish Street", "city": "Santa Rosa Beach", "state": "Florida", "postcode": "32459", "lat": 30.34477729281342, "long": -86.20571170623171}, {"house_number": "22", "road": "Grande Beach", "city": "Santa Rosa Beach", "state": "Florida", "postcode": "32459", "lat": 30.33979488526319, "long": -86.20282031210459}, {"house_number": "682", "road": "Churchill Bayou Road", "city": "Santa Rosa Beach", "state": "Florida", "postcode": "32459", "lat": 30.38903588847877, "long": -86.23965895094716}, {"house_number": "25", "road": "18th Street", "city": "Santa Rosa Beach", "state": "Florida", "postcode": "32459", "lat": 30.389719544991785, "long": -86.23808940754986}, {"house_number": "29", "road": "17th Street", "city": "Santa Rosa Beach", "state": "Florida", "postcode": "32459", "lat": 30.38970977779965, "long": -86.23708199291872}, {"house_number": "28", "road": "Mill Creek Drive", "city": "DeFuniak Springs", "state": "Florida", "postcode": "32433", "lat": 30.770634073525123, "long": -86.30629095902718}, {"house_number": "134", "road": "Spring Hill Road", "city": "DeFuniak Springs", "state": "Florida", "postcode": "32433", "lat": 30.766266499999997, "long": -86.3046565}, {"house_number": "62", "road": "Spring Hill Road", "city": "DeFuniak Springs", "state": "Florida", "postcode": "32433", "lat": 30.7662755, "long": -86.30683649999999}, {"house_number": "416", "road": "Woodlands Boulevard", "city": "DeFuniak Springs", "state": "Florida", "postcode": "32433", "lat": 30.765284813078576, "long": -86.273333591829}, {"house_number": "416", "road": "Woodlands Boulevard", "city": "DeFuniak Springs", "state": "Florida", "postcode": "32433", "lat": 30.765284813078576, "long": -86.273333591829}, {"house_number": "189", "road": "Watson Road", "city": "DeFuniak Springs", "state": "Florida", "postcode": "32433", "lat": 30.7541765, "long": -86.2783565}, {"house_number": "47", "road": "Guinrvere Lane", "city": "DeFuniak Springs", "state": "Florida", "postcode": "32433", "lat": 30.753709999999995, "long": -86.27609599999998}, {"house_number": "1325", "road": "Martin Road", "city": "DeFuniak Springs", "state": "Florida", "postcode": "32433", "lat": 30.769044999999988, "long": -86.1749385}, {"house_number": "70", "road": "Bream Lane", "city": "DeFuniak Springs", "state": "Florida", "postcode": "32433", "lat": 30.782956261592663, "long": -86.17783463465719}, {"house_number": "390", "road": "Holley King Road", "city": "DeFuniak Springs", "state": "Florida", "postcode": "32433", "lat": 30.780902189287566, "long": -86.18064119448185}, {"house_number": "194", "road": "Red Eye Lane", "city": "DeFuniak Springs", "state": "Florida", "postcode": "32433", "lat": 30.764086713720047, "long": -86.12578821468564}, {"house_number": "2959", "road": "Clarks Landing Road", "city": "DeFuniak Springs", "state": "Florida", "postcode": "32433", "lat": 30.76526439081546, "long": -86.11252174673274}, {"house_number": "2332", "road": "Juniper Lake Road", "city": "DeFuniak Springs", "state": "Florida", "postcode": "32433", "lat": 30.758727615425332, "long": -86.11423795370494}, {"house_number": "455", "road": "Davis Drive", "city": "DeFuniak Springs", "state": "Florida", "postcode": "32433", "lat": 30.7531695, "long": -86.1065055}, {"house_number": "455", "road": "Davis Drive", "city": "DeFuniak Springs", "state": "Florida", "postcode": "32433", "lat": 30.7531695, "long": -86.1065055}, {"house_number": "310", "road": "Twin Lakes Drive", "city": "DeFuniak Springs", "state": "Florida", "postcode": "32433", "lat": 30.738380999999993, "long": -86.14567149999999}, {"house_number": "383", "road": "Carol Lane", "city": "DeFuniak Springs", "state": "Florida", "postcode": "32433", "lat": 30.74932103506724, "long": -86.30235608646272}, {"house_number": "135", "road": "Henderson Road", "city": "DeFuniak Springs", "state": "Florida", "postcode": "32433", "lat": 30.758952499999992, "long": -86.3021335}, {"house_number": "1318", "road": "Donna Lane", "city": "DeFuniak Springs", "state": "Florida", "postcode": "32433", "lat": 30.753673499999994, "long": -86.29114549999997}, {"house_number": "195", "road": "Howell Avenue", "city": "DeFuniak Springs", "state": "Florida", "postcode": "32433", "lat": 30.731276578630997, "long": -86.09196750742012}, {"house_number": "6236", "road": "US Highway 331 South", "city": "DeFuniak Springs", "state": "Florida", "postcode": "32435", "lat": 30.633790999999988, "long": -86.11590199999999}, {"house_number": "114", "road": "Mann Street", "city": "DeFuniak Springs", "state": "Florida", "postcode": "32435", "lat": 30.633559030841493, "long": -86.11722743555269}, {"house_number": "114", "road": "Mann Street", "city": "DeFuniak Springs", "state": "Florida", "postcode": "32435", "lat": 30.633559030841493, "long": -86.11722743555269}, {"house_number": "5531", "road": "Bob Sikes Road", "city": "DeFuniak Springs", "state": "Florida", "postcode": "32435", "lat": 30.707356311217506, "long": -86.21658371373242}, {"house_number": "414", "road": "Pugh Road", "city": "DeFuniak Springs", "state": "Florida", "postcode": "32435", "lat": 30.679985017366125, "long": -86.02497898574455}, {"house_number": "55", "road": "Whispering Wind Way", "city": "Santa Rosa Beach", "state": "Florida", "postcode": "32459", "lat": 30.336088649422308, "long": -86.18763366364014}, {"house_number": "150", "road": "Bannerman Beach Lane", "city": "Santa Rosa Beach", "state": "Florida", "postcode": "32459", "lat": 30.335547153131955, "long": -86.18684420378341}, {"house_number": "538", "road": "Augusta Circle", "city": "Miramar Beach", "state": "Florida", "postcode": "32550", "lat": 30.380258356809563, "long": -86.3357230885378}, {"house_number": "538", "road": "Augusta Circle", "city": "Miramar Beach", "state": "Florida", "postcode": "32550", "lat": 30.380258356809563, "long": -86.3357230885378}, {"house_number": "150", "road": "Black Jack Drive", "city": "Freeport", "state": "Florida", "postcode": "32439", "lat": 30.522850322959645, "long": -86.1935351194833}, {"house_number": "92", "road": "Stagecoach Road", "city": "DeFuniak Springs", "state": "Florida", "postcode": "32435", "lat": 30.609491999999992, "long": -86.10951749999998}, {"house_number": "25", "road": "Stagecoach Road", "city": "DeFuniak Springs", "state": "Florida", "postcode": "32435", "lat": 30.608310499999995, "long": -86.1095395}, {"house_number": "96", "road": "High Lonesome Road", "city": "DeFuniak Springs", "state": "Florida", "postcode": "32435", "lat": 30.592105304134826, "long": -86.05259231017644}, {"house_number": "3392", "road": "Rock Hill Road", "city": "DeFuniak Springs", "state": "Florida", "postcode": "32435", "lat": 30.590197355918942, "long": -86.0603592757335}, {"house_number": "31", "road": "Coral Cove", "city": "Miramar Beach", "state": "Florida", "postcode": "32550", "lat": 30.380315203309856, "long": -86.37567394312725}, {"house_number": "45", "road": "Cypress Cove", "city": "Miramar Beach", "state": "Florida", "postcode": "32550", "lat": 30.37984564397222, "long": -86.37567250673942}, {"house_number": "144", "road": "North Driftwood Bay", "city": "Miramar Beach", "state": "Florida", "postcode": "32550", "lat": 30.379080130585674, "long": -86.37509076593656}, {"house_number": "124", "road": "North Driftwood Bay", "city": "Miramar Beach", "state": "Florida", "postcode": "32550", "lat": 30.378686330950757, "long": -86.37489677918215}, {"house_number": "46", "road": "Seagull Cove", "city": "Miramar Beach", "state": "Florida", "postcode": "32550", "lat": 30.378942126726674, "long": -86.37569036170483}, {"house_number": "21", "road": "Port of Call", "city": "Miramar Beach", "state": "Florida", "postcode": "32550", "lat": 30.379643323379593, "long": -86.38587077747607}, {"house_number": "452", "road": "North Driftwood Bay", "city": "Miramar Beach", "state": "Florida", "postcode": "32550", "lat": 30.383007206882702, "long": -86.37360962355466}, {"house_number": "313", "road": "Sunset Bay", "city": "Miramar Beach", "state": "Florida", "postcode": "32550", "lat": 30.381924064971983, "long": -86.37145960911934}, {"house_number": "47", "road": "Golf Tee Lane", "city": "Miramar Beach", "state": "Florida", "postcode": "32550", "lat": 30.38198643117128, "long": -86.37261910947892}, {"house_number": "556", "road": "Seascape Drive", "city": "Miramar Beach", "state": "Florida", "postcode": "32550", "lat": 30.378659756563216, "long": -86.36993564610772}, {"house_number": "167", "road": "Driftwood Road", "city": "Miramar Beach", "state": "Florida", "postcode": "32550", "lat": 30.380603500000003, "long": -86.38684699999999}, {"house_number": "329", "road": "North Holiday Road", "city": "Miramar Beach", "state": "Florida", "postcode": "32550", "lat": 30.388406535725327, "long": -86.37834312048912}, {"house_number": "836", "road": "Shore Drive", "city": "Miramar Beach", "state": "Florida", "postcode": "32550", "lat": 30.392275024320888, "long": -86.38336288222365}, {"house_number": "1180", "road": "Forest Shore Drive", "city": "Miramar Beach", "state": "Florida", "postcode": "32550", "lat": 30.39146951222975, "long": -86.38368824257597}, {"house_number": "979", "road": "Shore Drive", "city": "Miramar Beach", "state": "Florida", "postcode": "32550", "lat": 30.392899864116153, "long": -86.38547973064662}, {"house_number": "1332", "road": "Forest Shore Drive", "city": "Miramar Beach", "state": "Florida", "postcode": "32550", "lat": 30.392192396288657, "long": -86.38609937663}, {"house_number": "50", "road": "Hidden Lakes Drive", "city": "Miramar Beach", "state": "Florida", "postcode": "32550", "lat": 30.391644450152047, "long": -86.3852040089458}, {"house_number": "195", "road": "Walton Way", "city": "Miramar Beach", "state": "Florida", "postcode": "32550", "lat": 30.39345075619061, "long": -86.3885460575468}, {"house_number": "20", "road": "Garden Bay Court", "city": "Miramar Beach", "state": "Florida", "postcode": "32550", "lat": 30.3938712903272, "long": -86.38826146322582}, {"house_number": "535", "road": "Walton Way", "city": "Miramar Beach", "state": "Florida", "postcode": "32550", "lat": 30.395279823394713, "long": -86.39312623735381}, {"house_number": "535", "road": "Walton Way", "city": "Miramar Beach", "state": "Florida", "postcode": "32550", "lat": 30.395279823394713, "long": -86.39312623735381}, {"house_number": "535", "road": "Walton Way", "city": "Miramar Beach", "state": "Florida", "postcode": "32550", "lat": 30.395279823394713, "long": -86.39312623735381}, {"house_number": "33", "road": "Private Court", "city": "Miramar Beach", "state": "Florida", "postcode": "32550", "lat": 30.393364871223472, "long": -86.39011342029137}, {"house_number": "60", "road": "Walton Way", "city": "Miramar Beach", "state": "Florida", "postcode": "32550", "lat": 30.393025040167295, "long": -86.3870995221273}, {"house_number": "3", "road": "Walton Way", "city": "Miramar Beach", "state": "Florida", "postcode": "32550", "lat": 30.392172000000002, "long": -86.38712399999999}, {"house_number": "601", "road": "Forest Shore Drive", "city": "Miramar Beach", "state": "Florida", "postcode": "32550", "lat": 30.38825899999999, "long": -86.37518800000001}, {"house_number": "16", "road": "Walton Shores Court", "city": "Miramar Beach", "state": "Florida", "postcode": "32550", "lat": 30.388297499999993, "long": -86.3746275}, {"house_number": "533", "road": "Forest Shore Drive", "city": "Miramar Beach", "state": "Florida", "postcode": "32550", "lat": 30.38791849999999, "long": -86.374327}, {"house_number": "9000", "road": "Heron Walk Drive East", "city": "Miramar Beach", "state": "Florida", "postcode": "32550", "lat": 30.38111362616461, "long": -86.32645640346709}, {"house_number": "512", "road": "Magnolia Place", "city": "Miramar Beach", "state": "Florida", "postcode": "32550", "lat": 30.37966257310701, "long": -86.3319689276572}, {"house_number": "589", "road": "Bob-O-Link Place", "city": "Miramar Beach", "state": "Florida", "postcode": "32550", "lat": 30.379990577859036, "long": -86.33242047471312}, {"house_number": "529", "road": "Augusta Court", "city": "Miramar Beach", "state": "Florida", "postcode": "32550", "lat": 30.380135861665895, "long": -86.33473248349152}, {"house_number": "662", "road": "Bayou Drive", "city": "Miramar Beach", "state": "Florida", "postcode": "32550", "lat": 30.382215598197796, "long": -86.33344611089689}, {"house_number": "662", "road": "Bayou Drive", "city": "Miramar Beach", "state": "Florida", "postcode": "32550", "lat": 30.382215598197796, "long": -86.33344611089689}, {"house_number": "662", "road": "Bayou Drive", "city": "Miramar Beach", "state": "Florida", "postcode": "32550", "lat": 30.382215598197796, "long": -86.33344611089689}, {"house_number": "662", "road": "Bayou Drive", "city": "Miramar Beach", "state": "Florida", "postcode": "32550", "lat": 30.382215598197796, "long": -86.33344611089689}, {"house_number": "662", "road": "Bayou Drive", "city": "Miramar Beach", "state": "Florida", "postcode": "32550", "lat": 30.382215598197796, "long": -86.33344611089689}, {"house_number": "643", "road": "Bayou Lane", "city": "Miramar Beach", "state": "Florida", "postcode": "32550", "lat": 30.381015679146497, "long": -86.33388823359519}, {"house_number": "54", "road": "Windrift Drive", "city": "Miramar Beach", "state": "Florida", "postcode": "32550", "lat": 30.377073499999995, "long": -86.35774149999997}, {"house_number": "2175", "road": "US Highway 331 North", "city": "DeFuniak Springs", "state": "Florida", "postcode": "32433", "lat": 30.76499599999999, "long": -86.15394999999998}, {"house_number": "335", "road": "Black Creek Boulevard", "city": "Freeport", "state": "Florida", "postcode": "32439", "lat": 30.474372178954297, "long": -86.0902797362246}, {"house_number": "99", "road": "Timpoochee Trail", "city": "Santa Rosa Beach", "state": "Florida", "postcode": "32459", "lat": 30.35172899999999, "long": -86.24605999999999}, {"house_number": "134", "road": "Hollywood Street", "city": "Miramar Beach", "state": "Florida", "postcode": "32550", "lat": 30.379175234810535, "long": -86.3790224898175}, {"house_number": "87", "road": "Dvorak Drive", "city": "DeFuniak Springs", "state": "Florida", "postcode": "32433", "lat": 30.77229812570956, "long": -86.14571029483945}, {"house_number": "87", "road": "Dvorak Drive", "city": "DeFuniak Springs", "state": "Florida", "postcode": "32433", "lat": 30.77229812570956, "long": -86.14571029483945}, {"house_number": "199", "road": "Lee Place", "city": "Santa Rosa Beach", "state": "Florida", "postcode": "32459", "lat": 30.3143507286423, "long": -86.10538139657181}, {"house_number": "515", "road": "Peacock Road", "city": "DeFuniak Springs", "state": "Florida", "postcode": "32433", "lat": 30.747499499999996, "long": -86.1858705}, {"house_number": "122", "road": "Choctaw Drive", "city": "Freeport", "state": "Florida", "postcode": "32439", "lat": 30.48065263444557, "long": -86.2913932170005}, {"house_number": "122", "road": "Choctaw Drive", "city": "Freeport", "state": "Florida", "postcode": "32439", "lat": 30.48065263444557, "long": -86.2913932170005}, {"house_number": "126", "road": "Beach Retreat Place", "city": "Miramar Beach", "state": "Florida", "postcode": "32550", "lat": 30.380548172526133, "long": -86.3931558724614}, {"house_number": "7228", "road": "FL 20", "city": "Freeport", "state": "Florida", "postcode": "32439", "lat": 30.48496649999999, "long": -86.24562549999999}, {"house_number": "7228", "road": "FL 20", "city": "Freeport", "state": "Florida", "postcode": "32439", "lat": 30.48496649999999, "long": -86.24562549999999}, {"house_number": "1230", "road": "Allen Loop Drive", "city": "Santa Rosa Beach", "state": "Florida", "postcode": "32459", "lat": 30.35260796145938, "long": -86.2487540959198}, {"house_number": "1230", "road": "Allen Loop Drive", "city": "Santa Rosa Beach", "state": "Florida", "postcode": "32459", "lat": 30.35260796145938, "long": -86.2487540959198}, {"house_number": "161", "road": "Walnut Street", "city": "Santa Rosa Beach", "state": "Florida", "postcode": "32459", "lat": 30.351109870619496, "long": -86.2188050362701}, {"house_number": "145", "road": "Acacia Street", "city": "Santa Rosa Beach", "state": "Florida", "postcode": "32459", "lat": 30.349142904686072, "long": -86.21950759116946}, {"house_number": "3754", "road": "County Highway 30A", "city": "Santa Rosa Beach", "state": "Florida", "postcode": "32459", "lat": 30.346974499999995, "long": -86.2194605}, {"house_number": "2421", "road": "County Highway 30A", "city": "Santa Rosa Beach", "state": "Florida", "postcode": "32459", "lat": 30.341169041007266, "long": -86.20584926027671}, {"house_number": "751", "road": "Lake Drive", "city": "Florala", "state": "Florida", "postcode": "32567", "lat": 30.99051535361741, "long": -86.31859400185085}, {"house_number": "751", "road": "Lake Drive", "city": "Florala", "state": "Florida", "postcode": "32567", "lat": 30.99051535361741, "long": -86.31859400185085}, {"house_number": "375", "road": "Raley Road", "city": "DeFuniak Springs", "state": "Florida", "postcode": "32433", "lat": 30.80268734830494, "long": -86.21630462585321}, {"house_number": "113", "road": "Short Avenue", "city": "Freeport", "state": "Florida", "postcode": "32439", "lat": 30.43579997000225, "long": -86.15379082528293}, {"house_number": "20552", "road": "US Highway 331 South", "city": "Freeport", "state": "Florida", "postcode": "32439", "lat": 30.436774437847237, "long": -86.15110543484192}, {"house_number": "20552", "road": "US Highway 331 South", "city": "Freeport", "state": "Florida", "postcode": "32439", "lat": 30.436774437847237, "long": -86.15110543484192}, {"house_number": "408", "road": "North Church Street", "city": "Santa Rosa Beach", "state": "Florida", "postcode": "32459", "lat": 30.408635266308313, "long": -86.23660876329946}, {"house_number": "408", "road": "North Church Street", "city": "Santa Rosa Beach", "state": "Florida", "postcode": "32459", "lat": 30.408635266308313, "long": -86.23660876329946}, {"house_number": "2520", "road": "East County Highway 30A", "city": "Santa Rosa Beach", "state": "Florida", "postcode": "32459", "lat": 30.31839099999999, "long": -86.13354899999999}, {"house_number": "2520", "road": "East County Highway 30A", "city": "Santa Rosa Beach", "state": "Florida", "postcode": "32459", "lat": 30.31839099999999, "long": -86.13354899999999}, {"house_number": "2734", "road": "East County Highway 30A", "city": "Santa Rosa Beach", "state": "Florida", "postcode": "32459", "lat": 30.317215999999995, "long": -86.129943}, {"house_number": "1126", "road": "Oakwood Lakes Boulevard", "city": "DeFuniak Springs", "state": "Florida", "postcode": "32433", "lat": 30.742512499999993, "long": -86.1664675}]