[{"house_number": "6329", "road": "Commerce Street", "city": "Jacksonville", "state": "Florida", "postcode": "32211", "lat": 30.334783293729398, "long": -81.59424358085457}, {"house_number": "1200", "road": "Maitland Avenue", "city": "Jacksonville", "state": "Florida", "postcode": "32211", "lat": 30.3328295, "long": -81.59460949999999}, {"house_number": "6318", "road": "Arlington Road", "city": "Jacksonville", "state": "Florida", "postcode": "32211", "lat": 30.333601019619984, "long": -81.59422000826167}, {"house_number": "1110", "road": "Whitlock Avenue", "city": "Jacksonville", "state": "Florida", "postcode": "32211", "lat": 30.33167867840502, "long": -81.59521011337846}, {"house_number": "6053", "road": "Lone Star Road", "city": "Jacksonville", "state": "Florida", "postcode": "32211", "lat": 30.32979245491187, "long": -81.59671662337524}, {"house_number": "900", "road": "Killarney Avenue", "city": "Jacksonville", "state": "Florida", "postcode": "32211", "lat": 30.328770500985613, "long": -81.59642495859535}, {"house_number": "6150", "road": "Lone Star Road", "city": "Jacksonville", "state": "Florida", "postcode": "32211", "lat": 30.33007, "long": -81.5960565}, {"house_number": "900", "road": "Whitlock Avenue", "city": "Jacksonville", "state": "Florida", "postcode": "32211", "lat": 30.328933, "long": -81.5956535}, {"house_number": "6227", "road": "Pine Bluff Drive", "city": "Jacksonville", "state": "Florida", "postcode": "32211", "lat": 30.33201915534388, "long": -81.59494373484762}, {"house_number": "6253", "road": "Pine Bluff Drive", "city": "Jacksonville", "state": "Florida", "postcode": "32211", "lat": 30.332084587342884, "long": -81.59422400697937}, {"house_number": "1110", "road": "Westdale Drive", "city": "Jacksonville", "state": "Florida", "postcode": "32211", "lat": 30.331788653058364, "long": -81.59375750045945}, {"house_number": "6249", "road": "Pinelock Drive", "city": "Jacksonville", "state": "Florida", "postcode": "32211", "lat": 30.331370459864093, "long": -81.59439412363886}, {"house_number": "1050", "road": "Westdale Drive", "city": "Jacksonville", "state": "Florida", "postcode": "32211", "lat": 30.330518487199477, "long": -81.5933816454353}, {"house_number": "6202", "road": "Lone Star Road", "city": "Jacksonville", "state": "Florida", "postcode": "32211", "lat": 30.330475, "long": -81.5950875}, {"house_number": "864", "road": "Arlington River Drive", "city": "Jacksonville", "state": "Florida", "postcode": "32211", "lat": 30.326778499999996, "long": -81.598778}, {"house_number": "7108", "road": "Prestwick Circle North", "city": "Jacksonville", "state": "Florida", "postcode": "32244", "lat": 30.193161755618004, "long": -81.75992626371455}, {"house_number": "851", "road": "Cesery Terrace", "city": "Jacksonville", "state": "Florida", "postcode": "32211", "lat": 30.328927294430592, "long": -81.5978091057111}, {"house_number": "851", "road": "Cesery Terrace", "city": "Jacksonville", "state": "Florida", "postcode": "32211", "lat": 30.328927294430592, "long": -81.5978091057111}, {"house_number": "5951", "road": "Lone Star Road", "city": "Jacksonville", "state": "Florida", "postcode": "32211", "lat": 30.329506499999997, "long": -81.59739749999999}, {"house_number": "866", "road": "Cesery Boulevard", "city": "Jacksonville", "state": "Florida", "postcode": "32211", "lat": 30.328646999999997, "long": -81.59698}, {"house_number": "644", "road": "Cesery Boulevard", "city": "Jacksonville", "state": "Florida", "postcode": "32211", "lat": 30.32466395207634, "long": -81.5969413007657}, {"house_number": "846", "road": "Leonie Circle", "city": "Jacksonville", "state": "Florida", "postcode": "32211", "lat": 30.326117378561005, "long": -81.59381676814876}, {"house_number": "845", "road": "Seabrook Cove Road", "city": "Jacksonville", "state": "Florida", "postcode": "32211", "lat": 30.325915449652882, "long": -81.59421508431875}, {"house_number": "610", "road": "Seabrook Cove Road", "city": "Jacksonville", "state": "Florida", "postcode": "32211", "lat": 30.324570995158037, "long": -81.5935636501167}, {"house_number": "11709", "road": "Merra Lee Court", "city": "Jacksonville", "state": "Florida", "postcode": "32256", "lat": 30.234647679430985, "long": -81.50201831067609}, {"house_number": "6388", "road": "Commerce Street", "city": "Jacksonville", "state": "Florida", "postcode": "32211", "lat": 30.33478370519215, "long": -81.59344898709479}, {"house_number": "435", "road": "Magnolia Street", "city": "Jacksonville", "state": "Florida", "postcode": "32204", "lat": 30.32151249999999, "long": -81.67595649999998}, {"house_number": "540", "road": "Oak Street", "city": "Jacksonville", "state": "Florida", "postcode": "32204", "lat": 30.32027952480434, "long": -81.67710913761711}, {"house_number": "741", "road": "Edison Avenue", "city": "Jacksonville", "state": "Florida", "postcode": "32204", "lat": 30.3209515, "long": -81.676206}, {"house_number": "649", "road": "Edison Avenue", "city": "Jacksonville", "state": "Florida", "postcode": "32202", "lat": 30.320611999999997, "long": -81.67526699999999}, {"house_number": "333", "road": "Magnolia Street", "city": "Jacksonville", "state": "Florida", "postcode": "32204", "lat": 30.32243389353348, "long": -81.67474481570714}, {"house_number": "557", "road": "Riverside Avenue", "city": "Jacksonville", "state": "Florida", "postcode": "32204", "lat": 30.319587450673737, "long": -81.6751598669164}, {"house_number": "450", "road": "Riverside Avenue", "city": "Jacksonville", "state": "Florida", "postcode": "32202", "lat": 30.32076004451717, "long": -81.67459543352722}, {"house_number": "561", "road": "Alfred duPont Place", "city": "Jacksonville", "state": "Florida", "postcode": "32202", "lat": 30.320711626495214, "long": -81.67396048584703}, {"house_number": "630", "road": "May Street", "city": "Jacksonville", "state": "Florida", "postcode": "32204", "lat": 30.318372300013877, "long": -81.67690134677919}, {"house_number": "643", "road": "Rosselle Street", "city": "Jacksonville", "state": "Florida", "postcode": "32204", "lat": 30.318923256365075, "long": -81.67607244840147}, {"house_number": "645", "road": "Riverside Avenue", "city": "Jacksonville", "state": "Florida", "postcode": "32204", "lat": 30.31801399999999, "long": -81.6758945}, {"house_number": "618", "road": "Jackson Street", "city": "Jacksonville", "state": "Florida", "postcode": "32202", "lat": 30.322864999999993, "long": -81.6721435}, {"house_number": "247", "road": "Riverside Avenue", "city": "Jacksonville", "state": "Florida", "postcode": "32202", "lat": 30.32220686294763, "long": -81.6726166577546}, {"house_number": "10195", "road": "Wood Dove Way", "city": "Jacksonville", "state": "Florida", "postcode": "32221", "lat": 30.29633877762638, "long": -81.82355749733836}, {"house_number": "950", "road": "Wood Dove Court", "city": "Jacksonville", "state": "Florida", "postcode": "32221", "lat": 30.2968525, "long": -81.82253850000001}, {"house_number": "10133", "road": "Meadow Point Drive", "city": "Jacksonville", "state": "Florida", "postcode": "32221", "lat": 30.294477999999994, "long": -81.82094}, {"house_number": "1032", "road": "Fox Chapel Lane", "city": "Jacksonville", "state": "Florida", "postcode": "32221", "lat": 30.295527940579525, "long": -81.82083755220398}, {"house_number": "930", "road": "Fox Chapel Lane", "city": "Jacksonville", "state": "Florida", "postcode": "32221", "lat": 30.297266671427646, "long": -81.82080043453038}, {"house_number": "650", "road": "Sprague Street", "city": "Jacksonville", "state": "Florida", "postcode": "32205", "lat": 30.3317585, "long": -81.7030765}, {"house_number": "2431", "road": "Edwards Avenue", "city": "Jacksonville", "state": "Florida", "postcode": "32254", "lat": 30.331222886592112, "long": -81.70428122225009}, {"house_number": "111", "road": "Spring Street", "city": "Jacksonville", "state": "Florida", "postcode": "32254", "lat": 30.329464, "long": -81.703067}, {"house_number": "3150", "road": "Warrington Street", "city": "Jacksonville", "state": "Florida", "postcode": "32254", "lat": 30.327239999999996, "long": -81.70861649999999}, {"house_number": "237", "road": "Shearer Avenue", "city": "Jacksonville", "state": "Florida", "postcode": "32254", "lat": 30.326938499999997, "long": -81.7075735}, {"house_number": "3153", "road": "Thomas Street", "city": "Jacksonville", "state": "Florida", "postcode": "32254", "lat": 30.326610000000002, "long": -81.708619}, {"house_number": "3033", "road": "Thomas Street", "city": "Jacksonville", "state": "Florida", "postcode": "32254", "lat": 30.326628000000003, "long": -81.70653999999999}, {"house_number": "243", "road": "Shearer Avenue", "city": "Jacksonville", "state": "Florida", "postcode": "32254", "lat": 30.326288499999997, "long": -81.707572}, {"house_number": "164", "road": "South McDuff Avenue", "city": "Jacksonville", "state": "Florida", "postcode": "32254", "lat": 30.327493499999996, "long": -81.705518}, {"house_number": "182", "road": "South McDuff Avenue", "city": "Jacksonville", "state": "Florida", "postcode": "32254", "lat": 30.327350499999998, "long": -81.70551499999999}, {"house_number": "2975", "road": "Warrington Street", "city": "Jacksonville", "state": "Florida", "postcode": "32254", "lat": 30.327419926517326, "long": -81.70457197869837}, {"house_number": "708", "road": "Shearer Avenue", "city": "Jacksonville", "state": "Florida", "postcode": "32205", "lat": 30.318728999999998, "long": -81.70750799999999}, {"house_number": "2983", "road": "Rexford Street", "city": "Jacksonville", "state": "Florida", "postcode": "32254", "lat": 30.326782605281483, "long": -81.70455948210245}, {"house_number": "234", "road": "South McDuff Avenue", "city": "Jacksonville", "state": "Florida", "postcode": "32254", "lat": 30.32624, "long": -81.7055005}, {"house_number": "234", "road": "South McDuff Avenue", "city": "Jacksonville", "state": "Florida", "postcode": "32254", "lat": 30.32624, "long": -81.7055005}, {"house_number": "2970", "road": "Thomas Street", "city": "Jacksonville", "state": "Florida", "postcode": "32254", "lat": 30.326510729449993, "long": -81.70455654326342}, {"house_number": "3135", "road": "Dignan Street", "city": "Jacksonville", "state": "Florida", "postcode": "32254", "lat": 30.325169499999998, "long": -81.70899349999999}, {"house_number": "308", "road": "Shearer Avenue", "city": "Jacksonville", "state": "Florida", "postcode": "32254", "lat": 30.32483998404927, "long": -81.7083090633337}, {"house_number": "3030", "road": "Fitzgerald Street", "city": "Jacksonville", "state": "Florida", "postcode": "32254", "lat": 30.32597564009868, "long": -81.70653452514237}, {"house_number": "3159", "road": "Cecelia Street", "city": "Jacksonville", "state": "Florida", "postcode": "32254", "lat": 30.323840499999996, "long": -81.708974}, {"house_number": "3113", "road": "Cecelia Street", "city": "Jacksonville", "state": "Florida", "postcode": "32254", "lat": 30.323851807049042, "long": -81.70792496295952}, {"house_number": "449", "road": "Shearer Avenue", "city": "Jacksonville", "state": "Florida", "postcode": "32254", "lat": 30.323665999999996, "long": -81.70754699999999}, {"house_number": "248", "road": "Arney Street", "city": "Jacksonville", "state": "Florida", "postcode": "32254", "lat": 30.325276, "long": -81.7066105}, {"house_number": "280", "road": "Arney Street", "city": "Jacksonville", "state": "Florida", "postcode": "32254", "lat": 30.324966, "long": -81.7066115}, {"house_number": "262", "road": "South McDuff Avenue", "city": "Jacksonville", "state": "Florida", "postcode": "32254", "lat": 30.3255885, "long": -81.70549049999998}, {"house_number": "2975", "road": "Fitzgerald Street", "city": "Jacksonville", "state": "Florida", "postcode": "32254", "lat": 30.32582644173498, "long": -81.70446703252729}, {"house_number": "305", "road": "South McDuff Avenue", "city": "Jacksonville", "state": "Florida", "postcode": "32254", "lat": 30.324915999999995, "long": -81.7054845}, {"house_number": "2975", "road": "Dignan Street", "city": "Jacksonville", "state": "Florida", "postcode": "32254", "lat": 30.325104701575736, "long": -81.70445453539085}, {"house_number": "313", "road": "Arney Street", "city": "Jacksonville", "state": "Florida", "postcode": "32254", "lat": 30.32463899999999, "long": -81.70661449999999}, {"house_number": "3011", "road": "Nolan Street", "city": "Jacksonville", "state": "Florida", "postcode": "32254", "lat": 30.32473630266527, "long": -81.70605098698994}, {"house_number": "3061", "road": "Nolan Street", "city": "Jacksonville", "state": "Florida", "postcode": "32254", "lat": 30.32452849999999, "long": -81.7074585}, {"house_number": "3035", "road": "Cecelia Street", "city": "Jacksonville", "state": "Florida", "postcode": "32254", "lat": 30.323870999999997, "long": -81.70707149999998}, {"house_number": "316", "road": "South McDuff Avenue", "city": "Jacksonville", "state": "Florida", "postcode": "32254", "lat": 30.324563999999995, "long": -81.70548149999999}, {"house_number": "442", "road": "South McDuff Avenue", "city": "Jacksonville", "state": "Florida", "postcode": "32254", "lat": 30.323605008763497, "long": -81.70547181363358}, {"house_number": "2969", "road": "Hunt Street", "city": "Jacksonville", "state": "Florida", "postcode": "32254", "lat": 30.323739133338922, "long": -81.7044350082547}, {"house_number": "433", "road": "South McDuff Avenue", "city": "Jacksonville", "state": "Florida", "postcode": "32254", "lat": 30.3232875, "long": -81.70546599999999}, {"house_number": "123", "road": "Mott Street", "city": "Jacksonville", "state": "Florida", "postcode": "32254", "lat": 30.328619401138358, "long": -81.70472533272985}, {"house_number": "123", "road": "Mott Street", "city": "Jacksonville", "state": "Florida", "postcode": "32254", "lat": 30.328619401138358, "long": -81.70472533272985}, {"house_number": "2961", "road": "Burke Street", "city": "Jacksonville", "state": "Florida", "postcode": "32254", "lat": 30.328161499999997, "long": -81.70431049999999}, {"house_number": "134", "road": "Willow Branch Avenue", "city": "Jacksonville", "state": "Florida", "postcode": "32254", "lat": 30.328122499999996, "long": -81.7036505}, {"house_number": "2979", "road": "Burke Street", "city": "Jacksonville", "state": "Florida", "postcode": "32254", "lat": 30.327761954921638, "long": -81.70511358403414}, {"house_number": "138", "road": "Spring Street", "city": "Jacksonville", "state": "Florida", "postcode": "32254", "lat": 30.328319999999998, "long": -81.702909}, {"house_number": "132", "road": "Shortreed Street", "city": "Jacksonville", "state": "Florida", "postcode": "32254", "lat": 30.32851499939376, "long": -81.70215108548908}, {"house_number": "203", "road": "Willow Branch Avenue", "city": "Jacksonville", "state": "Florida", "postcode": "32254", "lat": 30.3275975, "long": -81.70363}, {"house_number": "2975", "road": "Webster Street", "city": "Jacksonville", "state": "Florida", "postcode": "32254", "lat": 30.327765499999998, "long": -81.7032615}, {"house_number": "230", "road": "Willow Branch Avenue", "city": "Jacksonville", "state": "Florida", "postcode": "32254", "lat": 30.327115999999997, "long": -81.7036185}, {"house_number": "240", "road": "Willow Branch Avenue", "city": "Jacksonville", "state": "Florida", "postcode": "32254", "lat": 30.326662, "long": -81.7036095}, {"house_number": "224", "road": "Spring Street", "city": "Jacksonville", "state": "Florida", "postcode": "32254", "lat": 30.327154999999998, "long": -81.702873}, {"house_number": "2935", "road": "Thomas Street", "city": "Jacksonville", "state": "Florida", "postcode": "32254", "lat": 30.326533499999993, "long": -81.7031565}, {"house_number": "2908", "road": "Thomas Street", "city": "Jacksonville", "state": "Florida", "postcode": "32254", "lat": 30.32654033018734, "long": -81.70247648397263}, {"house_number": "2889", "road": "Fitzgerald Street", "city": "Jacksonville", "state": "Florida", "postcode": "32254", "lat": 30.325858800840052, "long": -81.70168488591318}, {"house_number": "850", "road": "West 26th Street", "city": "Jacksonville", "state": "Florida", "postcode": "32209", "lat": 30.360385955470335, "long": -81.66707455553599}, {"house_number": "951", "road": "West 24th Street", "city": "Jacksonville", "state": "Florida", "postcode": "32209", "lat": 30.35899899999999, "long": -81.66781249999998}, {"house_number": "3350", "road": "North Davis Street", "city": "Jacksonville", "state": "Florida", "postcode": "32209", "lat": 30.358664531608834, "long": -81.66729462322999}, {"house_number": "11524", "road": "Coral Ridge Avenue", "city": "Jacksonville", "state": "Florida", "postcode": "32218", "lat": 30.443008581005703, "long": -81.67376582444388}, {"house_number": "11560", "road": "Coral Ridge Avenue", "city": "Jacksonville", "state": "Florida", "postcode": "32218", "lat": 30.443568070930827, "long": -81.67324383266566}, {"house_number": "11536", "road": "Longwood Key Drive East", "city": "Jacksonville", "state": "Florida", "postcode": "32218", "lat": 30.443734901314325, "long": -81.67236821700634}, {"house_number": "951", "road": "West 23rd Street", "city": "Jacksonville", "state": "Florida", "postcode": "32209", "lat": 30.3583075, "long": -81.66777149999999}, {"house_number": "3154", "road": "North Davis Street", "city": "Jacksonville", "state": "Florida", "postcode": "32209", "lat": 30.357835470065805, "long": -81.66728655130231}, {"house_number": "951", "road": "West 22nd Street", "city": "Jacksonville", "state": "Florida", "postcode": "32209", "lat": 30.357619499999988, "long": -81.66755950000001}, {"house_number": "12270", "road": "Harts Road", "city": "Jacksonville", "state": "Florida", "postcode": "32218", "lat": 30.457330186022073, "long": -81.65913762502814}, {"house_number": "741", "road": "Heritage Lakes Drive", "city": "Jacksonville", "state": "Florida", "postcode": "32218", "lat": 30.456738851078637, "long": -81.65822260763001}, {"house_number": "823", "road": "Heritage Lakes Drive", "city": "Jacksonville", "state": "Florida", "postcode": "32218", "lat": 30.45669431924262, "long": -81.66004323257988}, {"house_number": "11424", "road": "Sarasota Lane", "city": "Jacksonville", "state": "Florida", "postcode": "32218", "lat": 30.439785014803583, "long": -81.67261551298917}, {"house_number": "930", "road": "Kings Road", "city": "Jacksonville", "state": "Florida", "postcode": "32204", "lat": 30.336222328726496, "long": -81.66767385738143}, {"house_number": "715", "road": "Sunken Meadow Lane", "city": "Jacksonville", "state": "Florida", "postcode": "32218", "lat": 30.446946135104607, "long": -81.65447338717932}, {"house_number": "1008", "road": "Cherry Point Way", "city": "Jacksonville", "state": "Florida", "postcode": "32218", "lat": 30.458777647902846, "long": -81.66218207580586}, {"house_number": "1348", "road": "North Davis Street", "city": "Jacksonville", "state": "Florida", "postcode": "32209", "lat": 30.340966459596537, "long": -81.66685787436997}, {"house_number": "51", "road": "West 66th Street", "city": "Jacksonville", "state": "Florida", "postcode": "32208", "lat": 30.3869905, "long": -81.6489515}, {"house_number": "151", "road": "West 63rd Street", "city": "Jacksonville", "state": "Florida", "postcode": "32208", "lat": 30.385157999999997, "long": -81.65036900000001}, {"house_number": "51", "road": "West 63rd Street", "city": "Jacksonville", "state": "Florida", "postcode": "32208", "lat": 30.384977999999997, "long": -81.64948799999999}, {"house_number": "14736", "road": "Fern Hammock Drive", "city": "Jacksonville", "state": "Florida", "postcode": "32258", "lat": 30.10937700992803, "long": -81.49865090070146}, {"house_number": "6222", "road": "Apopka Court", "city": "Jacksonville", "state": "Florida", "postcode": "32258", "lat": 30.109910999999993, "long": -81.49849099999997}, {"house_number": "12029", "road": "West Liberty Lake Drive", "city": "Jacksonville", "state": "Florida", "postcode": "32258", "lat": 30.151793579138634, "long": -81.57295699939691}, {"house_number": "5071", "road": "Whitewater Court", "city": "Jacksonville", "state": "Florida", "postcode": "32258", "lat": 30.151046499999993, "long": -81.57292349999999}, {"house_number": "9282", "road": "Redtail Drive", "city": "Jacksonville", "state": "Florida", "postcode": "32222", "lat": 30.205667632043724, "long": -81.81707004291526}, {"house_number": "9232", "road": "Redtail Drive", "city": "Jacksonville", "state": "Florida", "postcode": "32222", "lat": 30.20564406277426, "long": -81.81512140471946}, {"house_number": "9232", "road": "Redtail Drive", "city": "Jacksonville", "state": "Florida", "postcode": "32222", "lat": 30.20564406277426, "long": -81.81512140471946}, {"house_number": "7448", "road": "Hawks Cliff Court", "city": "Jacksonville", "state": "Florida", "postcode": "32222", "lat": 30.20536249999999, "long": -81.81351699999999}, {"house_number": "6648", "road": "Autumn Bluff Lane", "city": "Jacksonville", "state": "Florida", "postcode": "32222", "lat": 30.2284445, "long": -81.80952099999999}, {"house_number": "6568", "road": "South Gentle Oaks Drive", "city": "Jacksonville", "state": "Florida", "postcode": "32244", "lat": 30.22735600894847, "long": -81.75337106250127}, {"house_number": "6568", "road": "South Gentle Oaks Drive", "city": "Jacksonville", "state": "Florida", "postcode": "32244", "lat": 30.22735600894847, "long": -81.75337106250127}, {"house_number": "6557", "road": "Skyler Jean Drive", "city": "Jacksonville", "state": "Florida", "postcode": "32244", "lat": 30.229990499999992, "long": -81.75419}, {"house_number": "6499", "road": "Crimson Leaf Lane", "city": "Jacksonville", "state": "Florida", "postcode": "32244", "lat": 30.23128249499143, "long": -81.75522432810317}, {"house_number": "3810", "road": "Nonie Way", "city": "Jacksonville", "state": "Florida", "postcode": "32257", "lat": 30.17813999999999, "long": -81.61634749999997}, {"house_number": "6950", "road": "Golfview Street", "city": "Jacksonville", "state": "Florida", "postcode": "32210", "lat": 30.286552499999996, "long": -81.75994399999999}, {"house_number": "6951", "road": "Muncie Avenue", "city": "Jacksonville", "state": "Florida", "postcode": "32210", "lat": 30.278194499999998, "long": -81.76093599999999}, {"house_number": "6951", "road": "Muncie Avenue", "city": "Jacksonville", "state": "Florida", "postcode": "32210", "lat": 30.277695, "long": -81.7609265}, {"house_number": "2443", "road": "Ormsby Court", "city": "Jacksonville", "state": "Florida", "postcode": "32210", "lat": 30.274212803151173, "long": -81.73743694386194}, {"house_number": "2347", "road": "Cedar Shore Circle", "city": "Jacksonville", "state": "Florida", "postcode": "32210", "lat": 30.2766005, "long": -81.741704}, {"house_number": "7352", "road": "Laura Street North", "city": "Jacksonville", "state": "Florida", "postcode": "32208", "lat": 30.385323000000003, "long": -81.64989449999999}, {"house_number": "51", "road": "West 64th Street", "city": "Jacksonville", "state": "Florida", "postcode": "32208", "lat": 30.3854885, "long": -81.6493495}, {"house_number": "7552", "road": "Main Street", "city": "Jacksonville", "state": "Florida", "postcode": "32208", "lat": 30.386638499999997, "long": -81.648557}, {"house_number": "49", "road": "East 65th Street", "city": "Jacksonville", "state": "Florida", "postcode": "32208", "lat": 30.386387, "long": -81.6481675}, {"house_number": "7526", "road": "Penrose Street", "city": "Jacksonville", "state": "Florida", "postcode": "32208", "lat": 30.386781, "long": -81.64764399999999}, {"house_number": "7374", "road": "Penrose Street", "city": "Jacksonville", "state": "Florida", "postcode": "32208", "lat": 30.385636499999997, "long": -81.64785049999998}, {"house_number": "7200", "road": "Main Street", "city": "Jacksonville", "state": "Florida", "postcode": "32208", "lat": 30.3842798262269, "long": -81.64917422259346}, {"house_number": "49", "road": "East 63rd Street", "city": "Jacksonville", "state": "Florida", "postcode": "32208", "lat": 30.3848865, "long": -81.64849899999999}, {"house_number": "6913", "road": "Main Street", "city": "Jacksonville", "state": "Florida", "postcode": "32208", "lat": 30.382142942981588, "long": -81.64973883774685}, {"house_number": "49", "road": "East 61st Street", "city": "Jacksonville", "state": "Florida", "postcode": "32208", "lat": 30.38352347683023, "long": -81.64827798721447}, {"house_number": "125", "road": "East 65th Street", "city": "Jacksonville", "state": "Florida", "postcode": "32208", "lat": 30.38638999999999, "long": -81.64746599999998}, {"house_number": "175", "road": "East 65th Street", "city": "Jacksonville", "state": "Florida", "postcode": "32208", "lat": 30.3863915, "long": -81.64706449999998}, {"house_number": "7250", "road": "Oakwood Street", "city": "Jacksonville", "state": "Florida", "postcode": "32208", "lat": 30.385268499999988, "long": -81.64712899999998}, {"house_number": "249", "road": "East 65th Street", "city": "Jacksonville", "state": "Florida", "postcode": "32208", "lat": 30.386397999999993, "long": -81.64647699999998}, {"house_number": "149", "road": "East 63rd Street", "city": "Jacksonville", "state": "Florida", "postcode": "32208", "lat": 30.3848835, "long": -81.64759799999999}, {"house_number": "7151", "road": "Oakwood Street", "city": "Jacksonville", "state": "Florida", "postcode": "32208", "lat": 30.38419407606529, "long": -81.64726150698594}, {"house_number": "7154", "road": "Wilder Avenue", "city": "Jacksonville", "state": "Florida", "postcode": "32208", "lat": 30.384733999999995, "long": -81.64626849999999}, {"house_number": "10423", "road": "Wellington Springs Way", "city": "Jacksonville", "state": "Florida", "postcode": "32221", "lat": 30.299598547673366, "long": -81.83298327042101}, {"house_number": "349", "road": "East 65th Street", "city": "Jacksonville", "state": "Florida", "postcode": "32208", "lat": 30.386407, "long": -81.64568399999999}, {"house_number": "7400", "road": "Wakefield Avenue", "city": "Jacksonville", "state": "Florida", "postcode": "32208", "lat": 30.3856525, "long": -81.64542}, {"house_number": "449", "road": "East 65th Street", "city": "Jacksonville", "state": "Florida", "postcode": "32208", "lat": 30.3864145, "long": -81.6449095}, {"house_number": "7420", "road": "Bloxham Avenue", "city": "Jacksonville", "state": "Florida", "postcode": "32208", "lat": 30.386090499999998, "long": -81.644542}, {"house_number": "7320", "road": "Bloxham Avenue", "city": "Jacksonville", "state": "Florida", "postcode": "32208", "lat": 30.385325, "long": -81.644644}, {"house_number": "349", "road": "East 63rd Street", "city": "Jacksonville", "state": "Florida", "postcode": "32208", "lat": 30.384894999999997, "long": -81.64588249999998}, {"house_number": "449", "road": "East 63rd Street", "city": "Jacksonville", "state": "Florida", "postcode": "32208", "lat": 30.384891500000002, "long": -81.64511049999999}, {"house_number": "7164", "road": "Bloxham Avenue", "city": "Jacksonville", "state": "Florida", "postcode": "32208", "lat": 30.384299499999997, "long": -81.64477199999999}, {"house_number": "501", "road": "East 63rd Street", "city": "Jacksonville", "state": "Florida", "postcode": "32208", "lat": 30.384845499999997, "long": -81.644325}, {"house_number": "6998", "road": "Oakwood Street", "city": "Jacksonville", "state": "Florida", "postcode": "32208", "lat": 30.38250599999999, "long": -81.64706249999998}, {"house_number": "7149", "road": "Wakefield Avenue", "city": "Jacksonville", "state": "Florida", "postcode": "32208", "lat": 30.383778722563203, "long": -81.64553984955138}]