[{"house_number": "913", "road": "Ohio Avenue", "city": "Englewood", "state": "Florida", "postcode": "34223", "lat": 26.976903133800484, "long": -82.37147349942002}, {"house_number": "602", "road": "San Jose Street", "city": "North Port", "state": "Florida", "postcode": "34287", "lat": 27.062142489051585, "long": -82.25916696738875}, {"house_number": "1050", "road": "Innovation Avenue", "city": "North Port", "state": "Florida", "postcode": "34289", "lat": 27.088128645934574, "long": -82.15665006266968}, {"house_number": "641", "road": "Exuma Avenue", "city": "Venice", "state": "Florida", "postcode": "34285", "lat": 27.114177997679704, "long": -82.43029291656514}, {"house_number": "293", "road": "Hidden Bay Drive", "city": "Osprey", "state": "Florida", "postcode": "34229", "lat": 27.19301069405866, "long": -82.49063872895309}, {"house_number": "293", "road": "Hidden Bay Drive", "city": "Osprey", "state": "Florida", "postcode": "34229", "lat": 27.19301069405866, "long": -82.49063872895309}, {"house_number": "2704", "road": "Central Avenue", "city": "Sarasota", "state": "Florida", "postcode": "34234", "lat": 27.360756201780372, "long": -82.54267429959137}, {"house_number": "2001", "road": "Pinebrook Road", "city": "Venice", "state": "Florida", "postcode": "34292", "lat": 27.126133500766585, "long": -82.41879291494412}, {"house_number": "50", "road": "Palm Grove Avenue", "city": "Englewood", "state": "Florida", "postcode": "34223", "lat": 26.956584, "long": -82.35412149999999}, {"house_number": "1300", "road": "Allegheny Lane", "city": "North Port", "state": "Florida", "postcode": "34286", "lat": 27.0473518677815, "long": -82.16767470761742}, {"house_number": "2450", "road": "Allegheny Lane", "city": "North Port", "state": "Florida", "postcode": "34286", "lat": 27.0533144075529, "long": -82.17761562605503}, {"house_number": "3098", "road": "Jeannin Drive", "city": "North Port", "state": "Florida", "postcode": "34288", "lat": 27.05264159005612, "long": -82.14261378956752}, {"house_number": "8233", "road": "West Price Boulevard", "city": "North Port", "state": "Florida", "postcode": "34291", "lat": 27.078000499999998, "long": -82.24872299999998}, {"house_number": "2379", "road": "West Price Boulevard", "city": "North Port", "state": "Florida", "postcode": "34286", "lat": 27.068585844897104, "long": -82.17355100161234}, {"house_number": "2663", "road": "East Price Boulevard", "city": "North Port", "state": "Florida", "postcode": "34288", "lat": 27.068996378994903, "long": -82.12580749960188}, {"house_number": "2613", "road": "East Price Boulevard", "city": "North Port", "state": "Florida", "postcode": "34288", "lat": 27.068997999999993, "long": -82.12690149999999}, {"house_number": "3738", "road": "East Price Boulevard", "city": "North Port", "state": "Florida", "postcode": "34288", "lat": 27.068974499999996, "long": -82.11432149999999}, {"house_number": "3638", "road": "East Price Boulevard", "city": "North Port", "state": "Florida", "postcode": "34288", "lat": 27.068981499999996, "long": -82.11738399999999}, {"house_number": "2806", "road": "North Biscayne Drive", "city": "North Port", "state": "Florida", "postcode": "34291", "lat": 27.086327499999996, "long": -82.24706699999999}, {"house_number": "7248", "road": "Meroni Boulevard", "city": "North Port", "state": "Florida", "postcode": "34291", "lat": 27.08986649999999, "long": -82.241353}, {"house_number": "5212", "road": "Heron Way", "city": "Siesta Key", "state": "Florida", "postcode": "34231", "lat": 27.276594101407728, "long": -82.53784357422234}, {"house_number": "5229", "road": "Heron Way", "city": "Siesta Key", "state": "Florida", "postcode": "34231", "lat": 27.276317999999993, "long": -82.53821599999999}, {"house_number": "6014", "road": "Hillsborough Boulevard", "city": "North Port", "state": "Florida", "postcode": "34288", "lat": 27.03237049999999, "long": -82.103061}, {"house_number": "1015", "road": "South Calera Street", "city": "North Port", "state": "Florida", "postcode": "34287", "lat": 27.07791749999999, "long": -82.25397799999999}, {"house_number": "401", "road": "Firethorn Avenue", "city": "Englewood", "state": "Florida", "postcode": "34223", "lat": 26.995314384586955, "long": -82.38448843152922}, {"house_number": "949", "road": "US 41 By-Pass", "city": "Venice", "state": "Florida", "postcode": "34285", "lat": 27.108442223106966, "long": -82.44278540995828}, {"house_number": "653", "road": "Tropical Circle", "city": "Siesta Key", "state": "Florida", "postcode": "34242", "lat": 27.281177995816584, "long": -82.55131807606085}, {"house_number": "4651", "road": "Jody Avenue", "city": "North Port", "state": "Florida", "postcode": "34288", "lat": 27.0410190900658, "long": -82.11658564948894}, {"house_number": "7630", "road": "Raptor Court", "city": "North Port", "state": "Florida", "postcode": "34287", "lat": 27.035583142357144, "long": -82.25761983888039}, {"house_number": "7630", "road": "Raptor Court", "city": "North Port", "state": "Florida", "postcode": "34287", "lat": 27.035583142357144, "long": -82.25761983888039}, {"house_number": "732", "road": "Tropical Circle", "city": "Siesta Key", "state": "Florida", "postcode": "34242", "lat": 27.2834371070708, "long": -82.55308616741392}, {"house_number": "2849", "road": "Courtland Street", "city": "Sarasota", "state": "Florida", "postcode": "34237", "lat": 27.326440929152355, "long": -82.51279749991141}, {"house_number": "1171", "road": "Lake House Circle", "city": "Siesta Key", "state": "Florida", "postcode": "34242", "lat": 27.267486370376666, "long": -82.54708322560477}, {"house_number": "1222", "road": "Jonah Drive", "city": "North Port", "state": "Florida", "postcode": "34289", "lat": 27.077039045831626, "long": -82.1495766979333}, {"house_number": "250", "road": "Englewood Isles Parkway", "city": "Englewood", "state": "Florida", "postcode": "34223", "lat": 26.99841976374576, "long": -82.37918791030685}, {"house_number": "250", "road": "Englewood Isles Parkway", "city": "Englewood", "state": "Florida", "postcode": "34223", "lat": 26.99841976374576, "long": -82.37918791030685}, {"house_number": "1600", "road": "Englewood Road", "city": "Englewood", "state": "Florida", "postcode": "34223", "lat": 26.99531608714936, "long": -82.3723724967079}, {"house_number": "1256", "road": "Cove II Place", "city": "Siesta Key", "state": "Florida", "postcode": "34242", "lat": 27.25480006775424, "long": -82.5358766642358}, {"house_number": "1122", "road": "Midnight Pass Road", "city": "Siesta Key", "state": "Florida", "postcode": "34242", "lat": 27.257647871923776, "long": -82.53957171434516}, {"house_number": "3375", "road": "San Marino Avenue", "city": "North Port", "state": "Florida", "postcode": "34286", "lat": 27.095876411353924, "long": -82.1782446260083}, {"house_number": "430", "road": "Dover Drive South", "city": "Englewood", "state": "Florida", "postcode": "34223", "lat": 26.994710450138307, "long": -82.38451457437995}, {"house_number": "4394", "road": "Hungary Road", "city": "North Port", "state": "Florida", "postcode": "34288", "lat": 27.037359574544105, "long": -82.12005799147845}, {"house_number": "4115", "road": "Adelaide Avenue", "city": "North Port", "state": "Florida", "postcode": "34288", "lat": 27.033920454842075, "long": -82.13218346243467}, {"house_number": "3250", "road": "Commerce Parkway", "city": "North Port", "state": "Florida", "postcode": "34289", "lat": 27.092748785328723, "long": -82.15829642393219}, {"house_number": "1978", "road": "Bay Road", "city": "Sarasota", "state": "Florida", "postcode": "34239", "lat": 27.29883699999999, "long": -82.53079499999998}, {"house_number": "3916", "road": "Brown Avenue", "city": "Sarasota", "state": "Florida", "postcode": "34231", "lat": 27.29810599999999, "long": -82.53183049999998}, {"house_number": "4088", "road": "West Price Boulevard", "city": "North Port", "state": "Florida", "postcode": "34286", "lat": 27.069042999999986, "long": -82.19864949999999}, {"house_number": "4301", "road": "West Price Boulevard", "city": "North Port", "state": "Florida", "postcode": "34286", "lat": 27.069186499999986, "long": -82.20043799999999}]