[{"house_number": "13689", "road": "County Road 101", "city": "The Villages", "state": "Florida", "postcode": "32162", "lat": 28.955900999999997, "long": -82.01632999999998}, {"house_number": "608", "road": "Spanish Moss Drive", "city": "Wildwood", "state": "Florida", "postcode": "34785", "lat": 28.843876499999986, "long": -82.04037249999999}, {"house_number": "608", "road": "Spanish Moss Drive", "city": "Wildwood", "state": "Florida", "postcode": "34785", "lat": 28.843876499999986, "long": -82.04037249999999}, {"house_number": "3407", "road": "Alwyne Avenue", "city": "The Villages", "state": "Florida", "postcode": "34785", "lat": 28.850648, "long": -82.02009899999999}, {"house_number": "3452", "road": "Alwyne Avenue", "city": "The Villages", "state": "Florida", "postcode": "34785", "lat": 28.849579499999997, "long": -82.02010499999999}, {"house_number": "2626", "road": "Young Lane", "city": "The Villages", "state": "Florida", "postcode": "34785", "lat": 28.849590999999993, "long": -82.019792}, {"house_number": "2596", "road": "Young Lane", "city": "The Villages", "state": "Florida", "postcode": "34785", "lat": 28.849381499999993, "long": -82.01927649999999}, {"house_number": "6278", "road": "County Road 630", "city": "Bushnell", "state": "Florida", "postcode": "33513", "lat": 28.636904766974503, "long": -82.20764124977623}, {"house_number": "6278", "road": "County Road 630", "city": "Bushnell", "state": "Florida", "postcode": "33513", "lat": 28.636904766974503, "long": -82.20764124977623}, {"house_number": "6278", "road": "County Road 630", "city": "Bushnell", "state": "Florida", "postcode": "33513", "lat": 28.636904766974503, "long": -82.20764124977623}, {"house_number": "6278", "road": "County Road 630", "city": "Bushnell", "state": "Florida", "postcode": "33513", "lat": 28.636904766974503, "long": -82.20764124977623}, {"house_number": "1857", "road": "Dalton Drive", "city": "The Villages", "state": "Florida", "postcode": "32162", "lat": 28.958713828728904, "long": -82.00610803861308}, {"house_number": "4350", "road": "Northeast 44th Place", "city": "Wildwood", "state": "Florida", "postcode": "34785", "lat": 28.82248553720285, "long": -82.03107501607153}, {"house_number": "1825", "road": "Dalton Drive", "city": "The Villages", "state": "Florida", "postcode": "32162", "lat": 28.958625775515817, "long": -82.00771050372153}, {"house_number": "6032", "road": "County Road 44A", "city": "Lady Lake", "state": "Florida", "postcode": "34785", "lat": 28.83727623015679, "long": -82.00347095976097}, {"house_number": "6201", "road": "CR 476", "city": "Bushnell", "state": "Florida", "postcode": "33513", "lat": 28.640093080262176, "long": -82.20642878356949}, {"house_number": "504", "road": "Cammarano Place", "city": "The Villages", "state": "Florida", "postcode": "32162", "lat": 28.918488304539668, "long": -81.96114050406689}, {"house_number": "5295", "road": "County Road 472", "city": "Wildwood", "state": "Florida", "postcode": "34484", "lat": 28.909068953247164, "long": -82.01635050067861}, {"house_number": "10199", "road": "Julia Isles", "city": "Wildwood", "state": "Florida", "postcode": "32162", "lat": 28.904435669930848, "long": -82.02182117597472}, {"house_number": "1950", "road": "Dipper Loop", "city": "The Villages", "state": "Florida", "postcode": "32163", "lat": 28.88411988813824, "long": -81.9660491919182}, {"house_number": "2287", "road": "Bramble Terrace", "city": "The Villages", "state": "Florida", "postcode": "32163", "lat": 28.877524499999993, "long": -81.9755615}, {"house_number": "2279", "road": "County Road 673", "city": "Bushnell", "state": "Florida", "postcode": "33513", "lat": 28.610535056638454, "long": -82.14141989575135}, {"house_number": "2838", "road": "County Road 726", "city": "Webster", "state": "Florida", "postcode": "33597", "lat": 28.622813690009135, "long": -82.05780459211041}, {"house_number": "1423", "road": "County Road 650", "city": "Bushnell", "state": "Florida", "postcode": "33513", "lat": 28.650373838044004, "long": -82.12711032137736}, {"house_number": "1423", "road": "County Road 650", "city": "Bushnell", "state": "Florida", "postcode": "33513", "lat": 28.650373838044004, "long": -82.12711032137736}, {"house_number": "4390", "road": "County Road 156", "city": "Wildwood", "state": "Florida", "postcode": "34785", "lat": 28.83986619760647, "long": -82.03214100206272}, {"house_number": "1202", "road": "Augustine Drive", "city": "The Villages", "state": "Florida", "postcode": "32162", "lat": 28.943158041218442, "long": -81.97185940013054}, {"house_number": "13612", "road": "County Road 103", "city": "Wildwood", "state": "Florida", "postcode": "34484", "lat": 28.954692341231105, "long": -82.0288784486874}, {"house_number": "1202", "road": "Chaparral Drive", "city": "The Villages", "state": "Florida", "postcode": "32162", "lat": 28.94383755290355, "long": -81.97567253625279}, {"house_number": "899", "road": "Braemar Place", "city": "The Villages", "state": "Florida", "postcode": "32163", "lat": 28.87409651606123, "long": -81.97208000121516}, {"house_number": "522", "road": "San Marino Drive", "city": "The Villages", "state": "Florida", "postcode": "32162", "lat": 28.928174989098473, "long": -81.96048489045863}, {"house_number": "300", "road": "North Old Wire Road", "city": "Wildwood", "state": "Florida", "postcode": "34785", "lat": 28.862859986076504, "long": -82.03716849802696}, {"house_number": "339", "road": "San Marino Drive", "city": "The Villages", "state": "Florida", "postcode": "32159", "lat": 28.923401759245323, "long": -81.95789031239654}, {"house_number": "1405", "road": "Huey Street", "city": "Wildwood", "state": "Florida", "postcode": "34785", "lat": 28.858041441579722, "long": -82.02477843760329}, {"house_number": "4272", "road": "County Road 181", "city": "Wildwood", "state": "Florida", "postcode": "34785", "lat": 28.833475763808767, "long": -82.03681551640734}, {"house_number": "2016", "road": "Duxbury Lane", "city": "The Villages", "state": "Florida", "postcode": "32162", "lat": 28.891697672445325, "long": -82.00299017759288}, {"house_number": "810", "road": "San Marino Drive", "city": "The Villages", "state": "Florida", "postcode": "32162", "lat": 28.93558143596341, "long": -81.97140791648276}, {"house_number": "3120", "road": "Northeast 37th Place", "city": "Wildwood", "state": "Florida", "postcode": "34785", "lat": 28.8109550844327, "long": -82.05261786402671}, {"house_number": "8549", "road": "Northeast 136th Avenue", "city": "The Villages", "state": "Florida", "postcode": "32159", "lat": 28.95499487539256, "long": -81.9592843160086}, {"house_number": "1555", "road": "Martinez Dr", "city": "The Villages", "state": "Florida", "postcode": "32159", "lat": 28.93742378168906, "long": -81.95967294824628}, {"house_number": "508", "road": "San Marino Drive", "city": "The Villages", "state": "Florida", "postcode": "32159", "lat": 28.927108156355093, "long": -81.95952488638957}, {"house_number": "1307", "road": "Pinto Lane", "city": "The Villages", "state": "Florida", "postcode": "32162", "lat": 28.94644449941243, "long": -81.9732033024443}, {"house_number": "3594", "road": "US 301", "city": "Wildwood", "state": "Florida", "postcode": "34785", "lat": 28.80814353178892, "long": -82.04561060598193}, {"house_number": "7233", "road": "County Road 619", "city": "Bushnell", "state": "Florida", "postcode": "33513", "lat": 28.651430322205446, "long": -82.16188879787113}, {"house_number": "2227", "road": "County Road 526", "city": "Sumterville", "state": "Florida", "postcode": "33585", "lat": 28.741400861774032, "long": -82.06699147020541}, {"house_number": "564", "road": "East Belt Avenue", "city": "Bushnell", "state": "Florida", "postcode": "33513", "lat": 28.66850361762662, "long": -82.10127445306439}, {"house_number": "5190", "road": "CR 48", "city": "Bushnell", "state": "Florida", "postcode": "33513", "lat": 28.677416099829966, "long": -82.19442685531104}, {"house_number": "2561", "road": "CR 478", "city": "Webster", "state": "Florida", "postcode": "33597", "lat": 28.613696913434016, "long": -82.06175646491407}, {"house_number": "2561", "road": "CR 478", "city": "Webster", "state": "Florida", "postcode": "33597", "lat": 28.613696913434016, "long": -82.06175646491407}, {"house_number": "2484", "road": "CR 478", "city": "Webster", "state": "Florida", "postcode": "33597", "lat": 28.613707499999993, "long": -82.06288649999999}, {"house_number": "2484", "road": "CR 478", "city": "Webster", "state": "Florida", "postcode": "33597", "lat": 28.613707499999993, "long": -82.06288649999999}, {"house_number": "264", "road": "County Road 542 East", "city": "Bushnell", "state": "Florida", "postcode": "33513", "lat": 28.683126784271966, "long": -82.09907950269138}, {"house_number": "409", "road": "County Road 542 East", "city": "Bushnell", "state": "Florida", "postcode": "33513", "lat": 28.68310699999999, "long": -82.09752449999999}, {"house_number": "2429", "road": "CR 476", "city": "Bushnell", "state": "Florida", "postcode": "33513", "lat": 28.65777139769049, "long": -82.14443550545616}, {"house_number": "2514", "road": "CR 476", "city": "Bushnell", "state": "Florida", "postcode": "33513", "lat": 28.657777999999986, "long": -82.14571049999999}, {"house_number": "12255", "road": "County Road 727", "city": "Webster", "state": "Florida", "postcode": "33597", "lat": 28.577309499999988, "long": -82.04646999999999}, {"house_number": "12056", "road": "County Road 727", "city": "Webster", "state": "Florida", "postcode": "33597", "lat": 28.579684503080617, "long": -82.04645247829457}, {"house_number": "62", "road": "Southwest 2nd Street", "city": "Webster", "state": "Florida", "postcode": "33597", "lat": 28.609539000201423, "long": -82.0577144866251}, {"house_number": "134", "road": "Southwest 2nd Street", "city": "Webster", "state": "Florida", "postcode": "33597", "lat": 28.608879999999985, "long": -82.05771000000001}, {"house_number": "213", "road": "West Central Avenue", "city": "Webster", "state": "Florida", "postcode": "33597", "lat": 28.609939999999998, "long": -82.057655}, {"house_number": "213", "road": "West Central Avenue", "city": "Webster", "state": "Florida", "postcode": "33597", "lat": 28.609934649382694, "long": -82.05807499386856}, {"house_number": "642", "road": "Southeast 56th Avenue", "city": "Bushnell", "state": "Florida", "postcode": "33513", "lat": 28.674081251775384, "long": -82.09457725063028}, {"house_number": "2846", "road": "Carriage Court", "city": "The Villages", "state": "Florida", "postcode": "32162", "lat": 28.925745, "long": -81.99609999999998}, {"house_number": "4419", "road": "US 301", "city": "Bushnell", "state": "Florida", "postcode": "33585", "lat": 28.691585005422752, "long": -82.10424468878155}, {"house_number": "4403", "road": "US 301", "city": "Bushnell", "state": "Florida", "postcode": "33585", "lat": 28.692054999999996, "long": -82.10425}, {"house_number": "4403", "road": "US 301", "city": "Bushnell", "state": "Florida", "postcode": "33585", "lat": 28.692054999999996, "long": -82.10425}, {"house_number": "6231", "road": "County Road 609", "city": "Bushnell", "state": "Florida", "postcode": "33513", "lat": 28.665169999999993, "long": -82.13737499999999}, {"house_number": "6231", "road": "County Road 609", "city": "Bushnell", "state": "Florida", "postcode": "33513", "lat": 28.665774999999993, "long": -82.13736999999999}, {"house_number": "7023", "road": "County Road 772", "city": "Webster", "state": "Florida", "postcode": "33597", "lat": 28.571220158731503, "long": -81.98832026452416}, {"house_number": "7129", "road": "County Road 772", "city": "Webster", "state": "Florida", "postcode": "33597", "lat": 28.57131155924781, "long": -81.9865447297785}, {"house_number": "7323", "road": "County Road 772", "city": "Webster", "state": "Florida", "postcode": "33597", "lat": 28.571784979869395, "long": -81.98414146855082}, {"house_number": "3198", "road": "FL 471", "city": "Sumterville", "state": "Florida", "postcode": "33585", "lat": 28.709254980291146, "long": -82.05458984934526}, {"house_number": "1536", "road": "FL 48", "city": "Bushnell", "state": "Florida", "postcode": "33513", "lat": 28.668635088502313, "long": -82.12970898874822}, {"house_number": "5618", "road": "County Road 547", "city": "Bushnell", "state": "Florida", "postcode": "33513", "lat": 28.673865, "long": -82.09199999999998}, {"house_number": "5618", "road": "County Road 547", "city": "Bushnell", "state": "Florida", "postcode": "33513", "lat": 28.673409999999993, "long": -82.09199999999998}, {"house_number": "465", "road": "CR 476", "city": "Bushnell", "state": "Florida", "postcode": "33513", "lat": 28.664864901248688, "long": -82.09684998003415}, {"house_number": "295", "road": "CR 476", "city": "Bushnell", "state": "Florida", "postcode": "33513", "lat": 28.664875000000002, "long": -82.09918499999999}, {"house_number": "6102", "road": "County Road 631", "city": "Bushnell", "state": "Florida", "postcode": "33513", "lat": 28.631267252508877, "long": -82.20559860401421}, {"house_number": "6102", "road": "County Road 631", "city": "Bushnell", "state": "Florida", "postcode": "33513", "lat": 28.631267252508877, "long": -82.20559860401421}, {"house_number": "2975", "road": "US 301", "city": "Bushnell", "state": "Florida", "postcode": "33513", "lat": 28.712015000000005, "long": -82.09916999999999}, {"house_number": "2975", "road": "US 301", "city": "Bushnell", "state": "Florida", "postcode": "33513", "lat": 28.712015000000005, "long": -82.09916999999999}, {"house_number": "3570", "road": "Northeast 37th Road", "city": "Wildwood", "state": "Florida", "postcode": "34785", "lat": 28.810726739825345, "long": -82.04445798911223}, {"house_number": "111", "road": "Forest Boulevard", "city": "The Villages", "state": "Florida", "postcode": "32163", "lat": 28.81197220932921, "long": -81.98898681778577}, {"house_number": "11609", "road": "County Road 682", "city": "Webster", "state": "Florida", "postcode": "33597", "lat": 28.587180932780313, "long": -82.1713815032846}, {"house_number": "11609", "road": "County Road 682", "city": "Webster", "state": "Florida", "postcode": "33597", "lat": 28.587180932780313, "long": -82.1713815032846}, {"house_number": "11403", "road": "County Road 682", "city": "Webster", "state": "Florida", "postcode": "33597", "lat": 28.59015530104325, "long": -82.17141799408006}, {"house_number": "11403", "road": "County Road 682", "city": "Webster", "state": "Florida", "postcode": "33597", "lat": 28.59015530104325, "long": -82.17141799408006}, {"house_number": "13007", "road": "County Road 101", "city": "The Villages", "state": "Florida", "postcode": "32162", "lat": 28.945684999999997, "long": -82.01635}, {"house_number": "9568", "road": "County Road 747", "city": "Webster", "state": "Florida", "postcode": "33597", "lat": 28.616419999999994, "long": -82.07535299999999}, {"house_number": "823", "road": "Northwest 7th Street", "city": "Webster", "state": "Florida", "postcode": "33597", "lat": 28.619305018478737, "long": -82.06295959831213}, {"house_number": "859", "road": "Northwest 7th Street", "city": "Webster", "state": "Florida", "postcode": "33597", "lat": 28.619759, "long": -82.0629525}, {"house_number": "12539", "road": "County Road 101", "city": "The Villages", "state": "Florida", "postcode": "34484", "lat": 28.941253500000002, "long": -82.01634749999998}, {"house_number": "12583", "road": "County Road 101", "city": "The Villages", "state": "Florida", "postcode": "34484", "lat": 28.941704999533012, "long": -82.01634917045241}, {"house_number": "12491", "road": "County Road 101", "city": "The Villages", "state": "Florida", "postcode": "32162", "lat": 28.938517499999993, "long": -82.0163525}, {"house_number": "11256", "road": "County Road 209", "city": "Wildwood", "state": "Florida", "postcode": "34484", "lat": 28.920044499999992, "long": -82.05364299999998}, {"house_number": "11364", "road": "Zimmerman Path", "city": "Wildwood", "state": "Florida", "postcode": "34484", "lat": 28.92062801079069, "long": -82.04085913854107}, {"house_number": "11364", "road": "Zimmerman Path", "city": "Wildwood", "state": "Florida", "postcode": "34484", "lat": 28.92062801079069, "long": -82.04085913854107}, {"house_number": "11408", "road": "Zimmerman Path", "city": "Wildwood", "state": "Florida", "postcode": "34484", "lat": 28.922444499999997, "long": -82.03867399999999}, {"house_number": "11394", "road": "Zimmerman Path", "city": "Wildwood", "state": "Florida", "postcode": "34484", "lat": 28.921093498574578, "long": -82.03882411074882}, {"house_number": "11280", "road": "Berning Terrace", "city": "Wildwood", "state": "Florida", "postcode": "34484", "lat": 28.921230619711228, "long": -82.0395047328374}, {"house_number": "11292", "road": "Berning Terrace", "city": "Wildwood", "state": "Florida", "postcode": "34484", "lat": 28.92233696487041, "long": -82.039651502804}, {"house_number": "11379", "road": "Zimmerman Path", "city": "Wildwood", "state": "Florida", "postcode": "34484", "lat": 28.920531, "long": -82.03988149999998}, {"house_number": "11276", "road": "Stewart Loop", "city": "Wildwood", "state": "Florida", "postcode": "34484", "lat": 28.92118890545828, "long": -82.04028913101749}, {"house_number": "11290", "road": "Stewart Loop", "city": "Wildwood", "state": "Florida", "postcode": "34484", "lat": 28.922561471567505, "long": -82.04086614929801}, {"house_number": "11316", "road": "Stewart Loop", "city": "Wildwood", "state": "Florida", "postcode": "34484", "lat": 28.922294589600074, "long": -82.04214279013411}, {"house_number": "11369", "road": "Laufersky Lane", "city": "Wildwood", "state": "Florida", "postcode": "34484", "lat": 28.92226348663683, "long": -82.04139447524115}, {"house_number": "11369", "road": "Laufersky Lane", "city": "Wildwood", "state": "Florida", "postcode": "34484", "lat": 28.92226348663683, "long": -82.04139447524115}, {"house_number": "3510", "road": "Thorne Path", "city": "Wildwood", "state": "Florida", "postcode": "34484", "lat": 28.921947499999998, "long": -82.04582449999998}, {"house_number": "3529", "road": "Thorne Path", "city": "Wildwood", "state": "Florida", "postcode": "34484", "lat": 28.92269709304628, "long": -82.04443885213708}, {"house_number": "3529", "road": "Thorne Path", "city": "Wildwood", "state": "Florida", "postcode": "34484", "lat": 28.92269709304628, "long": -82.04443885213708}, {"house_number": "3554", "road": "Thorne Path", "city": "Wildwood", "state": "Florida", "postcode": "34484", "lat": 28.92165563302926, "long": -82.0429776522076}, {"house_number": "3554", "road": "Thorne Path", "city": "Wildwood", "state": "Florida", "postcode": "34484", "lat": 28.92165563302926, "long": -82.0429776522076}, {"house_number": "3554", "road": "Thorne Path", "city": "Wildwood", "state": "Florida", "postcode": "34484", "lat": 28.92165563302926, "long": -82.0429776522076}, {"house_number": "3554", "road": "Thorne Path", "city": "Wildwood", "state": "Florida", "postcode": "34484", "lat": 28.92165563302926, "long": -82.0429776522076}, {"house_number": "3480", "road": "Kellaher Place", "city": "Wildwood", "state": "Florida", "postcode": "34484", "lat": 28.922117565076345, "long": -82.04533518012762}, {"house_number": "3480", "road": "Kellaher Place", "city": "Wildwood", "state": "Florida", "postcode": "34484", "lat": 28.922117565076345, "long": -82.04533518012762}, {"house_number": "11361", "road": "Gulati Court", "city": "Wildwood", "state": "Florida", "postcode": "34484", "lat": 28.921841999999994, "long": -82.04398199999999}, {"house_number": "3560", "road": "Thorne Path", "city": "Wildwood", "state": "Florida", "postcode": "34484", "lat": 28.921048, "long": -82.04258949999999}, {"house_number": "3312", "road": "Dzuro Drive", "city": "Wildwood", "state": "Florida", "postcode": "34484", "lat": 28.92084772794279, "long": -82.04387382150937}, {"house_number": "3490", "road": "Kellaher Place", "city": "Wildwood", "state": "Florida", "postcode": "34484", "lat": 28.922105499999986, "long": -82.04444949999998}, {"house_number": "3291", "road": "Dzuro Drive", "city": "Wildwood", "state": "Florida", "postcode": "34484", "lat": 28.920945973355536, "long": -82.04619154824987}, {"house_number": "11265", "road": "Antepenko Court", "city": "Wildwood", "state": "Florida", "postcode": "34484", "lat": 28.921433272024302, "long": -82.04497067666512}, {"house_number": "3273", "road": "Dzuro Drive", "city": "Wildwood", "state": "Florida", "postcode": "34484", "lat": 28.920812059863405, "long": -82.04834888771619}, {"house_number": "3363", "road": "Boyd Circle", "city": "Wildwood", "state": "Florida", "postcode": "34484", "lat": 28.922868783660565, "long": -82.04679953297635}, {"house_number": "3346", "road": "Boyd Circle", "city": "Wildwood", "state": "Florida", "postcode": "34484", "lat": 28.923358, "long": -82.04776799999999}, {"house_number": "3329", "road": "Boyd Circle", "city": "Wildwood", "state": "Florida", "postcode": "34484", "lat": 28.92287078859583, "long": -82.04874265937679}, {"house_number": "3312", "road": "Boyd Circle", "city": "Wildwood", "state": "Florida", "postcode": "34484", "lat": 28.922379999999993, "long": -82.04776899999999}, {"house_number": "11413", "road": "Roma Road", "city": "Wildwood", "state": "Florida", "postcode": "34484", "lat": 28.922869499999997, "long": -82.04819249999998}, {"house_number": "10285", "road": "Northeast 52nd Street", "city": "Wildwood", "state": "Florida", "postcode": "32162", "lat": 28.906291700485152, "long": -82.01689715663511}, {"house_number": "10285", "road": "Northeast 52nd Street", "city": "Wildwood", "state": "Florida", "postcode": "32162", "lat": 28.906291700485152, "long": -82.01689715663511}, {"house_number": "5141", "road": "Jereds Landing Way", "city": "Wildwood", "state": "Florida", "postcode": "32162", "lat": 28.906605629167625, "long": -82.01757702796188}, {"house_number": "5133", "road": "Jereds Landing Way", "city": "Wildwood", "state": "Florida", "postcode": "32162", "lat": 28.90659499999999, "long": -82.017934}, {"house_number": "5121", "road": "Jereds Landing Way", "city": "Wildwood", "state": "Florida", "postcode": "32162", "lat": 28.906624152990588, "long": -82.01847864407037}, {"house_number": "10299", "road": "Hawks Gully Court", "city": "Wildwood", "state": "Florida", "postcode": "32162", "lat": 28.906736488630504, "long": -82.01794029194475}, {"house_number": "5035", "road": "Harbour Drive", "city": "Wildwood", "state": "Florida", "postcode": "32162", "lat": 28.904799641421427, "long": -82.02012931539825}, {"house_number": "5081", "road": "Jereds Landing Way", "city": "Wildwood", "state": "Florida", "postcode": "32162", "lat": 28.905371360945622, "long": -82.01995551075336}, {"house_number": "4998", "road": "Golden Eagle Drive", "city": "Wildwood", "state": "Florida", "postcode": "32162", "lat": 28.905551293052252, "long": -82.02055906670823}, {"house_number": "10255", "road": "Julia Isles", "city": "Wildwood", "state": "Florida", "postcode": "32162", "lat": 28.9054320099841, "long": -82.02259252735023}, {"house_number": "4854", "road": "Audrey Marie Court", "city": "Wildwood", "state": "Florida", "postcode": "32162", "lat": 28.90513349999999, "long": -82.02282599999998}, {"house_number": "5105", "road": "Jereds Landing Way", "city": "Wildwood", "state": "Florida", "postcode": "32162", "lat": 28.906549695352023, "long": -82.01952233588857}, {"house_number": "10319", "road": "Addison Shore Way", "city": "Wildwood", "state": "Florida", "postcode": "32162", "lat": 28.90702449999999, "long": -82.01892649999999}, {"house_number": "4986", "road": "Golden Eagle Drive", "city": "Wildwood", "state": "Florida", "postcode": "32162", "lat": 28.90564449999999, "long": -82.02143399999999}, {"house_number": "10465", "road": "Silver Maple Avenue", "city": "Wildwood", "state": "Florida", "postcode": "32162", "lat": 28.906024453483024, "long": -82.02180670582523}, {"house_number": "10465", "road": "Silver Maple Avenue", "city": "Wildwood", "state": "Florida", "postcode": "32162", "lat": 28.906024453483024, "long": -82.02180670582523}, {"house_number": "10353", "road": "Silver Maple Avenue", "city": "Wildwood", "state": "Florida", "postcode": "32162", "lat": 28.907442499999995, "long": -82.0205865}, {"house_number": "10344", "road": "Addison Shore Way", "city": "Wildwood", "state": "Florida", "postcode": "32162", "lat": 28.908063380033504, "long": -82.01934187037472}, {"house_number": "4986", "road": "Belted Kingfisher Drive", "city": "Wildwood", "state": "Florida", "postcode": "32162", "lat": 28.90709199999999, "long": -82.021368}, {"house_number": "5011", "road": "Belted Kingfisher Drive", "city": "Wildwood", "state": "Florida", "postcode": "32162", "lat": 28.907196619561912, "long": -82.02016059360126}, {"house_number": "5023", "road": "Belted Kingfisher Drive", "city": "Wildwood", "state": "Florida", "postcode": "32162", "lat": 28.907385783283864, "long": -82.01933329883386}, {"house_number": "5085", "road": "Jereds Landing Way", "city": "Wildwood", "state": "Florida", "postcode": "32162", "lat": 28.90593465515001, "long": -82.02009651278227}, {"house_number": "10449", "road": "Silver Maple Avenue", "city": "Wildwood", "state": "Florida", "postcode": "32162", "lat": 28.906703425334904, "long": -82.02207562830594}, {"house_number": "4992", "road": "Sandpiper Drive", "city": "Wildwood", "state": "Florida", "postcode": "32162", "lat": 28.90634348528219, "long": -82.0209750823285}, {"house_number": "10262", "road": "Julia Isles", "city": "Wildwood", "state": "Florida", "postcode": "32162", "lat": 28.90597630193161, "long": -82.02273765265443}, {"house_number": "3952", "road": "Warm Springs Avenue", "city": "Wildwood", "state": "Florida", "postcode": "34785", "lat": 28.799763999999996, "long": -82.038568}, {"house_number": "4434", "road": "County Road 472", "city": "Wildwood", "state": "Florida", "postcode": "34484", "lat": 28.909150000000004, "long": -82.02938899999998}, {"house_number": "4356", "road": "County Road 472", "city": "Wildwood", "state": "Florida", "postcode": "32162", "lat": 28.909147506597918, "long": -82.03132150297012}, {"house_number": "4154", "road": "County Road 472", "city": "Wildwood", "state": "Florida", "postcode": "32162", "lat": 28.909140192758638, "long": -82.03427449842027}, {"house_number": "3157", "road": "Spanish Moss Way", "city": "The Villages", "state": "Florida", "postcode": "33521", "lat": 28.79637627064709, "long": -82.03458433914471}, {"house_number": "5511", "road": "Cedar Waxwing Drive", "city": "The Villages", "state": "Florida", "postcode": "33521", "lat": 28.797430499999997, "long": -82.03385349999999}]