[{"house_number": "5062", "road": "North Lane", "city": "Orlando", "state": "Florida", "postcode": "32808", "lat": 28.596351249273262, "long": -81.44917749926687}, {"house_number": "5071", "road": "North Lane", "city": "Orlando", "state": "Florida", "postcode": "32808", "lat": 28.596349999999994, "long": -81.44950399999999}, {"house_number": "1854", "road": "Virginia Drive", "city": "Orlando", "state": "Florida", "postcode": "32803", "lat": 28.56406253177456, "long": -81.3576909884903}, {"house_number": "467", "road": "Kaley Street", "city": "Orlando", "state": "Florida", "postcode": "32806", "lat": 28.52029399999999, "long": -81.37038099999997}, {"house_number": "7838", "road": "Lake Gandy Circle", "city": "Lockhart", "state": "Florida", "postcode": "32810", "lat": 28.626534501425095, "long": -81.43069760144326}, {"house_number": "392", "road": "White Marsh Circle", "city": "Southchase", "state": "Florida", "postcode": "32824", "lat": 28.393988769629328, "long": -81.38040857729787}, {"house_number": "8342", "road": "Buena Vista Woods Boulevard", "city": "Dr. Phillips", "state": "Florida", "postcode": "32836", "lat": 28.41563579841496, "long": -81.4970504777258}, {"house_number": "8240", "road": "Buena Vista Woods Boulevard", "city": "Dr. Phillips", "state": "Florida", "postcode": "32836", "lat": 28.415416112103244, "long": -81.49594599991846}, {"house_number": "10198", "road": "Central Port Drive", "city": "Orlando", "state": "Florida", "postcode": "32824", "lat": 28.41763599493552, "long": -81.36304309119996}, {"house_number": "2706", "road": "Mayer Street", "city": "Orlando", "state": "Florida", "postcode": "32806", "lat": 28.512323493951424, "long": -81.36291574364212}, {"house_number": "2768", "road": "Mayer Street", "city": "Orlando", "state": "Florida", "postcode": "32806", "lat": 28.5117054999984, "long": -81.36290900063051}, {"house_number": "2732", "road": "Mayer Street", "city": "Orlando", "state": "Florida", "postcode": "32806", "lat": 28.51112049663919, "long": -81.36290575327106}, {"house_number": "2822", "road": "Mayer Street", "city": "Orlando", "state": "Florida", "postcode": "32806", "lat": 28.510618525362805, "long": -81.36289409869288}, {"house_number": "2760", "road": "Mayer Street", "city": "Orlando", "state": "Florida", "postcode": "32806", "lat": 28.51028049999999, "long": -81.36288799999998}, {"house_number": "8700", "road": "Brixford Street", "city": "Dr. Phillips", "state": "Florida", "postcode": "32836", "lat": 28.413567566337544, "long": -81.50146594537048}, {"house_number": "8548", "road": "Geddes Loop", "city": "Dr. Phillips", "state": "Florida", "postcode": "32836", "lat": 28.414411861034143, "long": -81.49877761579451}, {"house_number": "8596", "road": "Chilton Drive", "city": "Dr. Phillips", "state": "Florida", "postcode": "32836", "lat": 28.413321999999997, "long": -81.49988049999999}, {"house_number": "8549", "road": "Chilton Drive", "city": "Dr. Phillips", "state": "Florida", "postcode": "32836", "lat": 28.413570999999994, "long": -81.499316}, {"house_number": "8478", "road": "Chilton Drive", "city": "Dr. Phillips", "state": "Florida", "postcode": "32836", "lat": 28.413887527372044, "long": -81.49857298075496}, {"house_number": "8223", "road": "Chilton Drive", "city": "Dr. Phillips", "state": "Florida", "postcode": "32836", "lat": 28.412007138698552, "long": -81.49591160922083}, {"house_number": "10450", "road": "Lemont Street", "city": "Dr. Phillips", "state": "Florida", "postcode": "32836", "lat": 28.410751840943643, "long": -81.50061489121916}, {"house_number": "8275", "road": "Chilton Drive", "city": "Dr. Phillips", "state": "Florida", "postcode": "32836", "lat": 28.41270304061768, "long": -81.49603812663976}, {"house_number": "8618", "road": "Chilton Drive", "city": "Dr. Phillips", "state": "Florida", "postcode": "32836", "lat": 28.41299433210175, "long": -81.50087315995235}, {"house_number": "8618", "road": "Chilton Drive", "city": "Dr. Phillips", "state": "Florida", "postcode": "32836", "lat": 28.41299433210175, "long": -81.50087315995235}, {"house_number": "8535", "road": "Pippen Drive", "city": "Dr. Phillips", "state": "Florida", "postcode": "32836", "lat": 28.411283077106212, "long": -81.50110309605195}, {"house_number": "8680", "road": "Chilton Drive", "city": "Dr. Phillips", "state": "Florida", "postcode": "32836", "lat": 28.412815078530265, "long": -81.50204567912097}, {"house_number": "8058", "road": "Chilton Drive", "city": "Dr. Phillips", "state": "Florida", "postcode": "32836", "lat": 28.410267939657672, "long": -81.50011774832093}, {"house_number": "8434", "road": "Chilton Drive", "city": "Dr. Phillips", "state": "Florida", "postcode": "32836", "lat": 28.4138381226633, "long": -81.49675168135164}, {"house_number": "8512", "road": "Pippen Drive", "city": "Dr. Phillips", "state": "Florida", "postcode": "32836", "lat": 28.411469, "long": -81.50021199999999}, {"house_number": "10446", "road": "Bissell Street", "city": "Dr. Phillips", "state": "Florida", "postcode": "32836", "lat": 28.411000338785357, "long": -81.4996964703229}, {"house_number": "8033", "road": "Chilton Drive", "city": "Dr. Phillips", "state": "Florida", "postcode": "32836", "lat": 28.410128304455373, "long": -81.5010720672578}, {"house_number": "7944", "road": "Chilton Drive", "city": "Dr. Phillips", "state": "Florida", "postcode": "32836", "lat": 28.411142369428656, "long": -81.50236015532776}, {"house_number": "10438", "road": "Doth Street", "city": "Dr. Phillips", "state": "Florida", "postcode": "32836", "lat": 28.4106805, "long": -81.50155149999998}, {"house_number": "10647", "road": "Apopka Vineland Road", "city": "Dr. Phillips", "state": "Florida", "postcode": "32836", "lat": 28.411835006026408, "long": -81.50322363394591}, {"house_number": "8421", "road": "Pippen Drive", "city": "Dr. Phillips", "state": "Florida", "postcode": "32836", "lat": 28.41231887147486, "long": -81.49691592450507}, {"house_number": "10248", "road": "Morey Court", "city": "Golden Oak", "state": "Florida", "postcode": "32836", "lat": 28.39953389024601, "long": -81.54167822836682}, {"house_number": "8449", "road": "Kanwick Street", "city": "Dr. Phillips", "state": "Florida", "postcode": "32836", "lat": 28.411645935889993, "long": -81.49700982345787}, {"house_number": "10361", "road": "Doth Street", "city": "Dr. Phillips", "state": "Florida", "postcode": "32836", "lat": 28.412445714810133, "long": -81.50157142222204}, {"house_number": "10394", "road": "Doth Street", "city": "Dr. Phillips", "state": "Florida", "postcode": "32836", "lat": 28.4116475, "long": -81.50155799999999}, {"house_number": "8466", "road": "Morehouse Drive", "city": "Dr. Phillips", "state": "Florida", "postcode": "32836", "lat": 28.413114607063914, "long": -81.49822649810672}, {"house_number": "8541", "road": "Morehouse Drive", "city": "Dr. Phillips", "state": "Florida", "postcode": "32836", "lat": 28.41241933970022, "long": -81.50006960546416}, {"house_number": "8425", "road": "Morehouse Drive", "city": "Dr. Phillips", "state": "Florida", "postcode": "32836", "lat": 28.41314049999999, "long": -81.496916}, {"house_number": "8455", "road": "Pippen Drive", "city": "Dr. Phillips", "state": "Florida", "postcode": "32836", "lat": 28.412186811058856, "long": -81.49833417065038}, {"house_number": "8485", "road": "Pippen Drive", "city": "Dr. Phillips", "state": "Florida", "postcode": "32836", "lat": 28.411778499999997, "long": -81.499309}, {"house_number": "8079", "road": "Chilton Drive", "city": "Dr. Phillips", "state": "Florida", "postcode": "32836", "lat": 28.4105363672886, "long": -81.49918313678279}, {"house_number": "10448", "road": "Warrick Street", "city": "Dr. Phillips", "state": "Florida", "postcode": "32836", "lat": 28.411309927294234, "long": -81.49876442877574}, {"house_number": "10214", "road": "Carthay Drive", "city": "Golden Oak", "state": "Florida", "postcode": "32836", "lat": 28.40043152174736, "long": -81.54020893208163}, {"house_number": "10234", "road": "Carthay Drive", "city": "Golden Oak", "state": "Florida", "postcode": "32836", "lat": 28.402003194615684, "long": -81.5403467757344}, {"house_number": "10272", "road": "Carthay Drive", "city": "Golden Oak", "state": "Florida", "postcode": "32836", "lat": 28.398471271130003, "long": -81.54207048873131}, {"house_number": "10151", "road": "Carthay Drive", "city": "Golden Oak", "state": "Florida", "postcode": "32836", "lat": 28.401710954093613, "long": -81.54093968324504}, {"house_number": "10151", "road": "Carthay Drive", "city": "Golden Oak", "state": "Florida", "postcode": "32836", "lat": 28.401710954093613, "long": -81.54093968324504}, {"house_number": "10263", "road": "Carthay Drive", "city": "Golden Oak", "state": "Florida", "postcode": "32836", "lat": 28.39937063103327, "long": -81.54066002308015}, {"house_number": "10268", "road": "Cottrell Way", "city": "Golden Oak", "state": "Florida", "postcode": "32836", "lat": 28.39890201495772, "long": -81.54080018501391}, {"house_number": "9339", "road": "Charles E. Limpus Road", "city": "Orlando", "state": "Florida", "postcode": "32836", "lat": 28.415165531562455, "long": -81.51259250218193}, {"house_number": "9339", "road": "Charles E. Limpus Road", "city": "Orlando", "state": "Florida", "postcode": "32836", "lat": 28.415173999999993, "long": -81.51369799999998}, {"house_number": "15148", "road": "Harrington Cove Drive", "city": "Meadow Woods", "state": "Florida", "postcode": "32824", "lat": 28.361608500375535, "long": -81.32426941270258}, {"house_number": "15249", "road": "Great Bay Lane", "city": "Meadow Woods", "state": "Florida", "postcode": "32824", "lat": 28.360085328414687, "long": -81.325660951341}, {"house_number": "15242", "road": "Pacey Cove Drive", "city": "Meadow Woods", "state": "Florida", "postcode": "32824", "lat": 28.360128259829512, "long": -81.32493964872998}, {"house_number": "15112", "road": "Pacey Cove Drive", "city": "Meadow Woods", "state": "Florida", "postcode": "32824", "lat": 28.360384492806585, "long": -81.32591612373824}, {"house_number": "2951", "road": "Harvest Hill Lane", "city": "Meadow Woods", "state": "Florida", "postcode": "32824", "lat": 28.35101125993866, "long": -81.3270963775327}, {"house_number": "14184", "road": "Gold Bridge Drive", "city": "Meadow Woods", "state": "Florida", "postcode": "32824", "lat": 28.349848470028466, "long": -81.32763976342395}, {"house_number": "14034", "road": "Gold Bridge Drive", "city": "Meadow Woods", "state": "Florida", "postcode": "32824", "lat": 28.351536444016133, "long": -81.32669422161277}, {"house_number": "13818", "road": "Eliot Avenue", "city": "Orlando", "state": "Florida", "postcode": "32827", "lat": 28.367829988833936, "long": -81.26495744071909}, {"house_number": "7773", "road": "Laureate Boulevard", "city": "Orlando", "state": "Florida", "postcode": "32827", "lat": 28.36644030141326, "long": -81.26753085711346}, {"house_number": "7578", "road": "Laureate Boulevard", "city": "Orlando", "state": "Florida", "postcode": "32827", "lat": 28.367184999999992, "long": -81.26916899999999}, {"house_number": "13744", "road": "Eliot Avenue", "city": "Orlando", "state": "Florida", "postcode": "32827", "lat": 28.368654256718546, "long": -81.264625251162}, {"house_number": "13874", "road": "Benavente Avenue", "city": "Orlando", "state": "Florida", "postcode": "32827", "lat": 28.367173499999996, "long": -81.26791949999999}, {"house_number": "7859", "road": "Lower Perse Circle", "city": "Orlando", "state": "Florida", "postcode": "32827", "lat": 28.367271549748605, "long": -81.2669966985155}, {"house_number": "8011", "road": "Lower Perse Circle", "city": "Orlando", "state": "Florida", "postcode": "32827", "lat": 28.366898611366004, "long": -81.2657252098287}, {"house_number": "13861", "road": "Eliot Avenue", "city": "Orlando", "state": "Florida", "postcode": "32827", "lat": 28.36723026975603, "long": -81.2650230989217}, {"house_number": "13824", "road": "Benavente Avenue", "city": "Orlando", "state": "Florida", "postcode": "32827", "lat": 28.367951499999993, "long": -81.26718549999998}, {"house_number": "7999", "road": "Greengard Street", "city": "Orlando", "state": "Florida", "postcode": "32827", "lat": 28.36788259184329, "long": -81.26595747753287}, {"house_number": "13746", "road": "Eliot Avenue", "city": "Orlando", "state": "Florida", "postcode": "32827", "lat": 28.368191999999986, "long": -81.26482949999999}, {"house_number": "13778", "road": "Benavente Avenue", "city": "Orlando", "state": "Florida", "postcode": "32827", "lat": 28.36867949999999, "long": -81.26649749999999}, {"house_number": "8047", "road": "Schelling Street", "city": "Orlando", "state": "Florida", "postcode": "32827", "lat": 28.368654723539578, "long": -81.26547763715936}, {"house_number": "13729", "road": "Benavente Avenue", "city": "Orlando", "state": "Florida", "postcode": "32827", "lat": 28.36926499999999, "long": -81.26594599999999}, {"house_number": "8100", "road": "Upper Perse Circle", "city": "Orlando", "state": "Florida", "postcode": "32827", "lat": 28.369261452731205, "long": -81.26510642397095}, {"house_number": "9422", "road": "Dugard Court", "city": "Orlando", "state": "Florida", "postcode": "32827", "lat": 28.3752381765325, "long": -81.25158867251848}, {"house_number": "9400", "road": "Bordet Court", "city": "Orlando", "state": "Florida", "postcode": "32827", "lat": 28.376188533072213, "long": -81.25168687301837}, {"house_number": "9449", "road": "Samuelson Court", "city": "Orlando", "state": "Florida", "postcode": "32827", "lat": 28.374192668912873, "long": -81.251213330019}, {"house_number": "9449", "road": "Becker Court", "city": "Orlando", "state": "Florida", "postcode": "32827", "lat": 28.378487871255157, "long": -81.25151210483149}, {"house_number": "9425", "road": "Haber Court", "city": "Orlando", "state": "Florida", "postcode": "32827", "lat": 28.377380999999993, "long": -81.25174999999999}, {"house_number": "13200", "road": "Upper Harden Avenue", "city": "Orlando", "state": "Florida", "postcode": "32827", "lat": 28.375556532612855, "long": -81.2498414661184}, {"house_number": "12927", "road": "Upper Harden Avenue", "city": "Orlando", "state": "Florida", "postcode": "32827", "lat": 28.379251242754172, "long": -81.25105570008988}, {"house_number": "9247", "road": "Laureate Boulevard", "city": "Orlando", "state": "Florida", "postcode": "32827", "lat": 28.366509644781328, "long": -81.25166358185783}, {"house_number": "9046", "road": "Reymont Street", "city": "Orlando", "state": "Florida", "postcode": "32827", "lat": 28.36851609347187, "long": -81.25332439230839}, {"house_number": "9349", "road": "Laureate Boulevard", "city": "Orlando", "state": "Florida", "postcode": "32827", "lat": 28.365520999999987, "long": -81.2511135}, {"house_number": "8901", "road": "Brattain Street", "city": "Orlando", "state": "Florida", "postcode": "32827", "lat": 28.369093842115948, "long": -81.25504794776407}, {"house_number": "9063", "road": "Laureate Boulevard", "city": "Orlando", "state": "Florida", "postcode": "32827", "lat": 28.367618409876385, "long": -81.25394203702189}, {"house_number": "8837", "road": "Reymont Street", "city": "Orlando", "state": "Florida", "postcode": "32827", "lat": 28.368078011345148, "long": -81.25612123032539}, {"house_number": "13850", "road": "Stigler Avenue", "city": "Orlando", "state": "Florida", "postcode": "32827", "lat": 28.368532999999992, "long": -81.25560449999998}, {"house_number": "8851", "road": "Kastler Street", "city": "Orlando", "state": "Florida", "postcode": "32827", "lat": 28.368580999999992, "long": -81.25659749999998}, {"house_number": "13847", "road": "Smoot Avenue", "city": "Orlando", "state": "Florida", "postcode": "32827", "lat": 28.36821549999999, "long": -81.25314999999998}, {"house_number": "8870", "road": "Laureate Boulevard", "city": "Orlando", "state": "Florida", "postcode": "32827", "lat": 28.367315262208564, "long": -81.25549776358511}, {"house_number": "8887", "road": "Reymont Street", "city": "Orlando", "state": "Florida", "postcode": "32827", "lat": 28.368405919033574, "long": -81.25501779316768}, {"house_number": "8887", "road": "Reymont Street", "city": "Orlando", "state": "Florida", "postcode": "32827", "lat": 28.368405919033574, "long": -81.25501779316768}, {"house_number": "8775", "road": "Tavistock Lakes Boulevard", "city": "Orlando", "state": "Florida", "postcode": "32827", "lat": 28.37162539871323, "long": -81.25709965732939}, {"house_number": "13818", "road": "Granger Avenue", "city": "Orlando", "state": "Florida", "postcode": "32827", "lat": 28.36888049999999, "long": -81.25461049999998}, {"house_number": "13868", "road": "Granger Avenue", "city": "Orlando", "state": "Florida", "postcode": "32827", "lat": 28.36806999999999, "long": -81.25445349999998}]