[{"house_number": "2633", "road": "Centennial Place", "city": "Tallahassee", "state": "Florida", "postcode": "32308", "lat": 30.480745999999996, "long": -84.23030349999999}, {"house_number": "148", "road": "Ocala Road", "city": "Tallahassee", "state": "Florida", "postcode": "32304", "lat": 30.457559499999995, "long": -84.31792899999999}, {"house_number": "1717", "road": "West Tharpe Street", "city": "Tallahassee", "state": "Florida", "postcode": "32303", "lat": 30.463524175593623, "long": -84.31553499527989}, {"house_number": "5846", "road": "Appomattox Court", "city": "Tallahassee", "state": "Florida", "postcode": "32312", "lat": 30.542876999999987, "long": -84.24045099999998}, {"house_number": "2565", "road": "Halleck Lane", "city": "Tallahassee", "state": "Florida", "postcode": "32312", "lat": 30.54282709667337, "long": -84.23962714826966}, {"house_number": "1250", "road": "Rumba Lane", "city": "Tallahassee", "state": "Florida", "postcode": "32304", "lat": 30.456856982709592, "long": -84.3191621817638}, {"house_number": "1354", "road": "Rumba Lane", "city": "Tallahassee", "state": "Florida", "postcode": "32304", "lat": 30.45862116020322, "long": -84.3193487415941}, {"house_number": "1213", "road": "Ocala Road", "city": "Tallahassee", "state": "Florida", "postcode": "32304", "lat": 30.458018844790963, "long": -84.31796546985993}, {"house_number": "1213", "road": "Ocala Road", "city": "Tallahassee", "state": "Florida", "postcode": "32304", "lat": 30.458018844790963, "long": -84.31796546985993}, {"house_number": "1229", "road": "Ocala Road", "city": "Tallahassee", "state": "Florida", "postcode": "32304", "lat": 30.45845699999999, "long": -84.31801049999999}, {"house_number": "1330", "road": "Ocala Road", "city": "Tallahassee", "state": "Florida", "postcode": "32304", "lat": 30.456691081278866, "long": -84.31781873111005}, {"house_number": "2704", "road": "Midyette Road", "city": "Tallahassee", "state": "Florida", "postcode": "32399", "lat": 30.41694569519934, "long": -84.23496941292481}, {"house_number": "3634", "road": "Biltmore Avenue", "city": "Tallahassee", "state": "Florida", "postcode": "32311", "lat": 30.402075642054957, "long": -84.20935430956531}, {"house_number": "1601", "road": "West Harrison Street", "city": "Tallahassee", "state": "Florida", "postcode": "32307", "lat": 30.428062669976406, "long": -84.28965674088283}, {"house_number": "1601", "road": "West Harrison Street", "city": "Tallahassee", "state": "Florida", "postcode": "32307", "lat": 30.42657799999999, "long": -84.28964849999998}, {"house_number": "1601", "road": "West Harrison Street", "city": "Tallahassee", "state": "Florida", "postcode": "32307", "lat": 30.421759064750237, "long": -84.28731304339964}, {"house_number": "1601", "road": "West Harrison Street", "city": "Tallahassee", "state": "Florida", "postcode": "32307", "lat": 30.421759064750237, "long": -84.28731304339964}, {"house_number": "1327", "road": "Charlotte Street", "city": "Tallahassee", "state": "Florida", "postcode": "32304", "lat": 30.452142948292153, "long": -84.30387719108728}, {"house_number": "724", "road": "West Carolina Street", "city": "Tallahassee", "state": "Florida", "postcode": "32304", "lat": 30.447200499999987, "long": -84.29630499999999}, {"house_number": "858", "road": "West Carolina Street", "city": "Tallahassee", "state": "Florida", "postcode": "32304", "lat": 30.447202499999985, "long": -84.2974165}, {"house_number": "2457", "road": "Miller Landing Road", "city": "Tallahassee", "state": "Florida", "postcode": "32312", "lat": 30.54129943157707, "long": -84.31884607572235}, {"house_number": "2221", "road": "Old Bainbridge Road", "city": "Tallahassee", "state": "Florida", "postcode": "32303", "lat": 30.471944718615077, "long": -84.3105645145115}, {"house_number": "2221", "road": "Old Bainbridge Road", "city": "Tallahassee", "state": "Florida", "postcode": "32303", "lat": 30.472698034530776, "long": -84.31103614262604}, {"house_number": "4108", "road": "Beckett Road", "city": "Tallahassee", "state": "Florida", "postcode": "32311", "lat": 30.387557423056613, "long": -84.21180403092342}, {"house_number": "1201", "road": "North Monroe Street", "city": "Tallahassee", "state": "Florida", "postcode": "32303", "lat": 30.4551785, "long": -84.28070499999998}, {"house_number": "3762", "road": "Capital Circle Northwest", "city": "Tallahassee", "state": "Florida", "postcode": "32303", "lat": 30.50627333099868, "long": -84.36193438375483}, {"house_number": "3762", "road": "Capital Circle Northwest", "city": "Tallahassee", "state": "Florida", "postcode": "32303", "lat": 30.50627333099868, "long": -84.36193438375483}, {"house_number": "1100", "road": "Live Oak Plantation Road", "city": "Tallahassee", "state": "Florida", "postcode": "32312", "lat": 30.49508684481763, "long": -84.26059234529392}, {"house_number": "604", "road": "Tram Road", "city": "Tallahassee", "state": "Florida", "postcode": "32305", "lat": 30.398033528902165, "long": -84.26989624776388}, {"house_number": "3548", "road": "Chauncey Road", "city": "Tallahassee", "state": "Florida", "postcode": "32305", "lat": 30.397425585144667, "long": -84.2695514910118}, {"house_number": "3548", "road": "Chauncey Road", "city": "Tallahassee", "state": "Florida", "postcode": "32305", "lat": 30.397425585144667, "long": -84.2695514910118}, {"house_number": "500", "road": "Curtis Road", "city": "Tallahassee", "state": "Florida", "postcode": "32305", "lat": 30.397013007481945, "long": -84.27069579299938}, {"house_number": "621", "road": "Oak Ridge Road East", "city": "Woodville", "state": "Florida", "postcode": "32305", "lat": 30.32440561283764, "long": -84.27046665595289}, {"house_number": "621", "road": "Oak Ridge Road East", "city": "Woodville", "state": "Florida", "postcode": "32305", "lat": 30.32440561283764, "long": -84.27046665595289}, {"house_number": "10082", "road": "Woodville Highway", "city": "Woodville", "state": "Florida", "postcode": "32305", "lat": 30.302372999999996, "long": -84.24498749999998}, {"house_number": "10044", "road": "Blue Waters Road", "city": "Tallahassee", "state": "Florida", "postcode": "32305", "lat": 30.300609956709838, "long": -84.23598526674387}, {"house_number": "2674", "road": "Blue Waters Court", "city": "Tallahassee", "state": "Florida", "postcode": "32305", "lat": 30.30108488165648, "long": -84.23668958306969}, {"house_number": "3398", "road": "West Tharpe Street", "city": "Tallahassee", "state": "Florida", "postcode": "32303", "lat": 30.46367246513175, "long": -84.3578829126411}, {"house_number": "1555", "road": "Oak Ridge Road East", "city": "Tallahassee", "state": "Florida", "postcode": "32305", "lat": 30.3213585, "long": -84.2521615}, {"house_number": "1311", "road": "Oak Ridge Road East", "city": "Woodville", "state": "Florida", "postcode": "32305", "lat": 30.321376499999996, "long": -84.25655849999998}, {"house_number": "3238", "road": "Whitney Drive East", "city": "Tallahassee", "state": "Florida", "postcode": "32309", "lat": 30.50401121485685, "long": -84.21890557912769}, {"house_number": "3142", "road": "Whitney Drive East", "city": "Tallahassee", "state": "Florida", "postcode": "32309", "lat": 30.50127383200233, "long": -84.21904049094795}, {"house_number": "972", "road": "Maclay Road", "city": "Tallahassee", "state": "Florida", "postcode": "32312", "lat": 30.51939680686, "long": -84.25840722734407}, {"house_number": "2223", "road": "Hickory Tree Lane", "city": "Tallahassee", "state": "Florida", "postcode": "32303", "lat": 30.484083721258898, "long": -84.32975568712769}, {"house_number": "2951", "road": "Indian Springs Lane", "city": "Tallahassee", "state": "Florida", "postcode": "32303", "lat": 30.484753302295626, "long": -84.32793365198424}, {"house_number": "3400", "road": "Birchwood Manor", "city": "Tallahassee", "state": "Florida", "postcode": "32317", "lat": 30.5872665, "long": -84.21971599999999}]