[{"house_number": "202", "road": "Northeast Avenue H", "city": "Carrabelle", "state": "Florida", "postcode": "32322", "lat": 29.860374342469022, "long": -84.66341300496819}, {"house_number": "402", "road": "West 12th Street", "city": "Carrabelle", "state": "Florida", "postcode": "32322", "lat": 29.855459561437307, "long": -84.67574385708241}, {"house_number": "402", "road": "West 12th Street", "city": "Carrabelle", "state": "Florida", "postcode": "32322", "lat": 29.855459561437307, "long": -84.67574385708241}, {"house_number": "904", "road": "Northeast Avenue I", "city": "Carrabelle", "state": "Florida", "postcode": "32322", "lat": 29.861659999999997, "long": -84.663195}, {"house_number": "1202", "road": "Bluff Road", "city": "Apalachicola", "state": "Florida", "postcode": "32320", "lat": 29.738409552267292, "long": -85.02110192333248}, {"house_number": "1251", "road": "Bluff Road", "city": "Apalachicola", "state": "Florida", "postcode": "32320", "lat": 29.739244516510247, "long": -85.02167197583297}, {"house_number": "950", "road": "Northeast Avenue H", "city": "Carrabelle", "state": "Florida", "postcode": "32322", "lat": 29.86036029565609, "long": -84.66207525890066}, {"house_number": "950", "road": "Northeast Avenue H", "city": "Carrabelle", "state": "Florida", "postcode": "32322", "lat": 29.86036029565609, "long": -84.66207525890066}, {"house_number": "949", "road": "Southeast Avenue C", "city": "Carrabelle", "state": "Florida", "postcode": "32322", "lat": 29.849359535373612, "long": -84.65749001607661}, {"house_number": "61", "road": "Ellis Van Fleet Street", "city": "Apalachicola", "state": "Florida", "postcode": "32320", "lat": 29.718880535874966, "long": -84.99977101442924}, {"house_number": "61", "road": "Ellis Van Fleet Street", "city": "Apalachicola", "state": "Florida", "postcode": "32320", "lat": 29.718880535874966, "long": -84.99977101442924}, {"house_number": "61", "road": "Ellis Van Fleet Street", "city": "Apalachicola", "state": "Florida", "postcode": "32320", "lat": 29.718880535874966, "long": -84.99977101442924}, {"house_number": "262", "road": "Ellis Van Fleet Street", "city": "Apalachicola", "state": "Florida", "postcode": "32320", "lat": 29.718878499999988, "long": -85.001014}, {"house_number": "108", "road": "22nd Avenue", "city": "Apalachicola", "state": "Florida", "postcode": "32320", "lat": 29.718174999999988, "long": -85.00138499999998}, {"house_number": "377", "road": "12th Street", "city": "Apalachicola", "state": "Florida", "postcode": "32320", "lat": 29.730169999999998, "long": -85.00141499999998}, {"house_number": "448", "road": "22nd Avenue", "city": "Apalachicola", "state": "Florida", "postcode": "32320", "lat": 29.72953100011231, "long": -85.0013426625488}, {"house_number": "352", "road": "James Clay Street", "city": "Apalachicola", "state": "Florida", "postcode": "32320", "lat": 29.728830080953713, "long": -85.00092234821696}, {"house_number": "368", "road": "22nd Avenue", "city": "Apalachicola", "state": "Florida", "postcode": "32320", "lat": 29.72821, "long": -85.00135999999999}, {"house_number": "368", "road": "22nd Avenue", "city": "Apalachicola", "state": "Florida", "postcode": "32320", "lat": 29.72821, "long": -85.00135999999999}, {"house_number": "221", "road": "17th Street", "city": "Apalachicola", "state": "Florida", "postcode": "32320", "lat": 29.724073016279814, "long": -85.00102361592344}, {"house_number": "348", "road": "20th Street", "city": "Apalachicola", "state": "Florida", "postcode": "32320", "lat": 29.728118540373405, "long": -84.99967493867506}, {"house_number": "348", "road": "20th Street", "city": "Apalachicola", "state": "Florida", "postcode": "32320", "lat": 29.728118540373405, "long": -84.99967493867506}, {"house_number": "372", "road": "23rd Avenue", "city": "Apalachicola", "state": "Florida", "postcode": "32320", "lat": 29.72821499759318, "long": -85.00221459332583}, {"house_number": "268", "road": "22nd Avenue", "city": "Apalachicola", "state": "Florida", "postcode": "32320", "lat": 29.726914990082015, "long": -85.00137460022692}, {"house_number": "350", "road": "21st Street", "city": "Apalachicola", "state": "Florida", "postcode": "32320", "lat": 29.728159999999995, "long": -85.00049499999996}, {"house_number": "315", "road": "Earl King Street", "city": "Apalachicola", "state": "Florida", "postcode": "32320", "lat": 29.727570000000004, "long": -85.00093}, {"house_number": "315", "road": "Earl King Street", "city": "Apalachicola", "state": "Florida", "postcode": "32320", "lat": 29.727570000000004, "long": -85.00093}, {"house_number": "210", "road": "9th Street", "city": "Apalachicola", "state": "Florida", "postcode": "32320", "lat": 29.728444999999994, "long": -84.994655}, {"house_number": "135", "road": "5th Street", "city": "Apalachicola", "state": "Florida", "postcode": "32320", "lat": 29.72823499999999, "long": -84.988345}, {"house_number": "351", "road": "10th Street", "city": "Apalachicola", "state": "Florida", "postcode": "32320", "lat": 29.727804490608715, "long": -84.99529038474864}, {"house_number": "351", "road": "10th Street", "city": "Apalachicola", "state": "Florida", "postcode": "32320", "lat": 29.727804490608715, "long": -84.99529038474864}, {"house_number": "126", "road": "6th Street", "city": "Apalachicola", "state": "Florida", "postcode": "32320", "lat": 29.72756499999999, "long": -84.98900499999999}, {"house_number": "127", "road": "Dr Martin Luther King Jr Avenue", "city": "Apalachicola", "state": "Florida", "postcode": "32320", "lat": 29.72642920615636, "long": -84.99422419394382}, {"house_number": "67", "road": "Avenue D", "city": "Apalachicola", "state": "Florida", "postcode": "32320", "lat": 29.72543460745817, "long": -84.98543459275659}, {"house_number": "23", "road": "5th Street", "city": "Apalachicola", "state": "Florida", "postcode": "32320", "lat": 29.72473032418323, "long": -84.98371125039219}, {"house_number": "109", "road": "10th Street", "city": "Apalachicola", "state": "Florida", "postcode": "32320", "lat": 29.724284498613592, "long": -84.99066038693502}, {"house_number": "2657", "road": "Bluff Road", "city": "Apalachicola", "state": "Florida", "postcode": "32320", "lat": 29.762655, "long": -85.03939}, {"house_number": "2657", "road": "Bluff Road", "city": "Apalachicola", "state": "Florida", "postcode": "32320", "lat": 29.762655, "long": -85.03939}, {"house_number": "11", "road": "8th Street", "city": "Apalachicola", "state": "Florida", "postcode": "32320", "lat": 29.7220294748275, "long": -84.9847603799076}, {"house_number": "52", "road": "Bay Avenue", "city": "Apalachicola", "state": "Florida", "postcode": "32320", "lat": 29.721999797201075, "long": -84.98397479961803}, {"house_number": "194", "road": "Avenue H", "city": "Apalachicola", "state": "Florida", "postcode": "32320", "lat": 29.721804411102216, "long": -84.995589381188}, {"house_number": "171", "road": "16th Street", "city": "Apalachicola", "state": "Florida", "postcode": "32320", "lat": 29.721695980707686, "long": -84.99615801754649}, {"house_number": "177", "road": "Avenue G", "city": "Apalachicola", "state": "Florida", "postcode": "32320", "lat": 29.721739200003654, "long": -84.99401920000365}, {"house_number": "130", "road": "15th Street", "city": "Apalachicola", "state": "Florida", "postcode": "32320", "lat": 29.721779999999992, "long": -84.99480499999999}, {"house_number": "143", "road": "Avenue D", "city": "Apalachicola", "state": "Florida", "postcode": "32320", "lat": 29.721559999999997, "long": -84.98932499999998}, {"house_number": "34", "road": "10th Street", "city": "Apalachicola", "state": "Florida", "postcode": "32320", "lat": 29.721440389273948, "long": -84.98696469199945}, {"house_number": "30", "road": "11th Street", "city": "Apalachicola", "state": "Florida", "postcode": "32320", "lat": 29.72150999999999, "long": -84.98853999999999}, {"house_number": "11", "road": "9th Street", "city": "Apalachicola", "state": "Florida", "postcode": "32320", "lat": 29.721404517460382, "long": -84.98539039138868}, {"house_number": "105", "road": "Bay Avenue", "city": "Apalachicola", "state": "Florida", "postcode": "32320", "lat": 29.72136440076825, "long": -84.98461439846457}, {"house_number": "179", "road": "Avenue H", "city": "Apalachicola", "state": "Florida", "postcode": "32320", "lat": 29.721144598484234, "long": -84.99623960153751}, {"house_number": "113", "road": "15th Street", "city": "Apalachicola", "state": "Florida", "postcode": "32320", "lat": 29.721064942793774, "long": -84.99388004418348}, {"house_number": "159", "road": "Avenue F", "city": "Apalachicola", "state": "Florida", "postcode": "32320", "lat": 29.721029999999995, "long": -84.9931}, {"house_number": "183", "road": "Fred Meyer Street", "city": "Apalachicola", "state": "Florida", "postcode": "32320", "lat": 29.720299999999998, "long": -85.00009999999997}, {"house_number": "176", "road": "20th Avenue", "city": "Apalachicola", "state": "Florida", "postcode": "32320", "lat": 29.72099995344795, "long": -84.99966612568758}, {"house_number": "77", "road": "13th Street", "city": "Apalachicola", "state": "Florida", "postcode": "32320", "lat": 29.720949744988683, "long": -84.99076519262803}, {"house_number": "30", "road": "12th Street", "city": "Apalachicola", "state": "Florida", "postcode": "32320", "lat": 29.720884999999996, "long": -84.98917999999998}, {"house_number": "141", "road": "Avenue C", "city": "Apalachicola", "state": "Florida", "postcode": "32320", "lat": 29.720834999999994, "long": -84.98839499999998}, {"house_number": "5", "road": "Fred Meyer Street", "city": "Apalachicola", "state": "Florida", "postcode": "32320", "lat": 29.720277707897193, "long": -84.99754993577744}, {"house_number": "54", "road": "Fred Meyer Street", "city": "Apalachicola", "state": "Florida", "postcode": "32320", "lat": 29.720280018381086, "long": -84.99838499957744}, {"house_number": "11", "road": "10th Street", "city": "Apalachicola", "state": "Florida", "postcode": "32320", "lat": 29.720735191591267, "long": -84.98604485823162}, {"house_number": "139", "road": "17th Street", "city": "Apalachicola", "state": "Florida", "postcode": "32320", "lat": 29.720474999999993, "long": -84.99607999999999}, {"house_number": "204", "road": "Avenue G", "city": "Apalachicola", "state": "Florida", "postcode": "32320", "lat": 29.72044999999999, "long": -84.99528999999998}, {"house_number": "191", "road": "Avenue F", "city": "Apalachicola", "state": "Florida", "postcode": "32320", "lat": 29.720394187702496, "long": -84.99374421269533}, {"house_number": "119", "road": "16th Street", "city": "Apalachicola", "state": "Florida", "postcode": "32320", "lat": 29.720425383998162, "long": -84.99452971199797}, {"house_number": "33", "road": "12th Street", "city": "Apalachicola", "state": "Florida", "postcode": "32320", "lat": 29.720154999999995, "long": -84.98826499999998}, {"house_number": "76", "road": "14th Street", "city": "Apalachicola", "state": "Florida", "postcode": "32320", "lat": 29.720309750226615, "long": -84.99139519404291}, {"house_number": "165", "road": "Avenue D", "city": "Apalachicola", "state": "Florida", "postcode": "32320", "lat": 29.720274999999987, "long": -84.99061499999999}, {"house_number": "155", "road": "Avenue C", "city": "Apalachicola", "state": "Florida", "postcode": "32320", "lat": 29.720194999999993, "long": -84.98903999999999}, {"house_number": "117", "road": "17th Street", "city": "Apalachicola", "state": "Florida", "postcode": "32320", "lat": 29.719779999999986, "long": -84.995145}, {"house_number": "193", "road": "Avenue E", "city": "Apalachicola", "state": "Florida", "postcode": "32320", "lat": 29.71969439537342, "long": -84.99281441215753}, {"house_number": "91", "road": "16th Street", "city": "Apalachicola", "state": "Florida", "postcode": "32320", "lat": 29.719734480118976, "long": -84.99360038161039}, {"house_number": "38", "road": "13th Street", "city": "Apalachicola", "state": "Florida", "postcode": "32320", "lat": 29.719524999999994, "long": -84.98889999999999}, {"house_number": "163", "road": "Avenue C", "city": "Apalachicola", "state": "Florida", "postcode": "32320", "lat": 29.71956499999999, "long": -84.98967499999996}, {"house_number": "31", "road": "14th Street", "city": "Apalachicola", "state": "Florida", "postcode": "32320", "lat": 29.71959499999998, "long": -84.99046999999999}, {"house_number": "89", "road": "17th Street", "city": "Apalachicola", "state": "Florida", "postcode": "32320", "lat": 29.719074999999993, "long": -84.99424999999998}, {"house_number": "203", "road": "Avenue E", "city": "Apalachicola", "state": "Florida", "postcode": "32320", "lat": 29.719054200003338, "long": -84.99346420000332}, {"house_number": "139", "road": "Bay Avenue", "city": "Apalachicola", "state": "Florida", "postcode": "32320", "lat": 29.7194197996113, "long": -84.98654980038847}, {"house_number": "151", "road": "13th Street", "city": "Apalachicola", "state": "Florida", "postcode": "32320", "lat": 29.72375999999999, "long": -84.99444}, {"house_number": "243", "road": "Avenue H", "city": "Apalachicola", "state": "Florida", "postcode": "32320", "lat": 29.720669999999995, "long": -84.996715}, {"house_number": "118", "road": "Sawyer Lane", "city": "Apalachicola", "state": "Florida", "postcode": "32320", "lat": 29.720159048501607, "long": -84.99638022603561}, {"house_number": "185", "road": "Avenue L", "city": "Apalachicola", "state": "Florida", "postcode": "32320", "lat": 29.72444499999999, "long": -84.99947649999999}, {"house_number": "190", "road": "13th Street", "city": "Apalachicola", "state": "Florida", "postcode": "32320", "lat": 29.72513968604919, "long": -84.9963402395218}, {"house_number": "147", "road": "Dr Martin Luther King Jr Avenue", "city": "Apalachicola", "state": "Florida", "postcode": "32320", "lat": 29.72449439522653, "long": -84.99618441256477}, {"house_number": "147", "road": "Dr Martin Luther King Jr Avenue", "city": "Apalachicola", "state": "Florida", "postcode": "32320", "lat": 29.72449439522653, "long": -84.99618441256477}, {"house_number": "152", "road": "Dr Martin Luther King Jr Avenue", "city": "Apalachicola", "state": "Florida", "postcode": "32320", "lat": 29.72512439481978, "long": -84.99553940152815}, {"house_number": "71", "road": "Ambos Lane", "city": "Apalachicola", "state": "Florida", "postcode": "32320", "lat": 29.716496810489716, "long": -84.99201680414606}, {"house_number": "189", "road": "8th Street", "city": "Apalachicola", "state": "Florida", "postcode": "32320", "lat": 29.728374999999996, "long": -84.99309999999998}, {"house_number": "95", "road": "Dr Martin Luther King Jr Avenue", "city": "Apalachicola", "state": "Florida", "postcode": "32320", "lat": 29.728349404776587, "long": -84.99232439295646}, {"house_number": "83", "road": "Avenue I", "city": "Apalachicola", "state": "Florida", "postcode": "32320", "lat": 29.728289999999994, "long": -84.99073}, {"house_number": "83", "road": "Avenue I", "city": "Apalachicola", "state": "Florida", "postcode": "32320", "lat": 29.728289999999994, "long": -84.99073}, {"house_number": "171", "road": "7th Street", "city": "Apalachicola", "state": "Florida", "postcode": "32320", "lat": 29.728315000000002, "long": -84.99153}, {"house_number": "171", "road": "7th Street", "city": "Apalachicola", "state": "Florida", "postcode": "32320", "lat": 29.728315000000002, "long": -84.99153}, {"house_number": "52", "road": "Avenue H", "city": "Apalachicola", "state": "Florida", "postcode": "32320", "lat": 29.728254999999994, "long": -84.98913999999998}, {"house_number": "149", "road": "4th Street", "city": "Apalachicola", "state": "Florida", "postcode": "32320", "lat": 29.728174496149347, "long": -84.9867603862808}, {"house_number": "165", "road": "Avenue M", "city": "Apalachicola", "state": "Florida", "postcode": "32320", "lat": 29.727885, "long": -84.997665}, {"house_number": "21", "road": "Avenue E", "city": "Apalachicola", "state": "Florida", "postcode": "32320", "lat": 29.728029409159262, "long": -84.98446439402737}, {"house_number": "21", "road": "Avenue E", "city": "Apalachicola", "state": "Florida", "postcode": "32320", "lat": 29.728029409159262, "long": -84.98446439402737}, {"house_number": "131", "road": "Avenue L", "city": "Apalachicola", "state": "Florida", "postcode": "32320", "lat": 29.727829999999994, "long": -84.996095}, {"house_number": "235", "road": "11th Street", "city": "Apalachicola", "state": "Florida", "postcode": "32320", "lat": 29.72784999999999, "long": -84.99688499999999}, {"house_number": "115", "road": "Avenue K", "city": "Apalachicola", "state": "Florida", "postcode": "32320", "lat": 29.727774999999998, "long": -84.99451}, {"house_number": "151", "road": "Dr Martin Luther King Jr Avenue", "city": "Apalachicola", "state": "Florida", "postcode": "32320", "lat": 29.72770920635186, "long": -84.99295419375476}, {"house_number": "191", "road": "9th Street", "city": "Apalachicola", "state": "Florida", "postcode": "32320", "lat": 29.727745, "long": -84.993735}, {"house_number": "94", "road": "Avenue I", "city": "Apalachicola", "state": "Florida", "postcode": "32320", "lat": 29.727639999999987, "long": -84.99137499999998}, {"house_number": "171", "road": "8th Street", "city": "Apalachicola", "state": "Florida", "postcode": "32320", "lat": 29.72767474562973, "long": -84.99217019280577}, {"house_number": "23", "road": "Avenue D", "city": "Apalachicola", "state": "Florida", "postcode": "32320", "lat": 29.72728916245707, "long": -84.98357424146596}, {"house_number": "95", "road": "5th Street", "city": "Apalachicola", "state": "Florida", "postcode": "32320", "lat": 29.727529746993156, "long": -84.98741019319121}, {"house_number": "69", "road": "Avenue G", "city": "Apalachicola", "state": "Florida", "postcode": "32320", "lat": 29.72754499999999, "long": -84.98821}, {"house_number": "85", "road": "Avenue H", "city": "Apalachicola", "state": "Florida", "postcode": "32320", "lat": 29.72759, "long": -84.98979999999997}, {"house_number": "145", "road": "7th Street", "city": "Apalachicola", "state": "Florida", "postcode": "32320", "lat": 29.727610386615183, "long": -84.99059470260015}, {"house_number": "145", "road": "7th Street", "city": "Apalachicola", "state": "Florida", "postcode": "32320", "lat": 29.727610386615183, "long": -84.99059470260015}, {"house_number": "228", "road": "12th Street", "city": "Apalachicola", "state": "Florida", "postcode": "32320", "lat": 29.72721449060872, "long": -84.99752038474864}, {"house_number": "152", "road": "Avenue L", "city": "Apalachicola", "state": "Florida", "postcode": "32320", "lat": 29.727179999999986, "long": -84.99673999999999}, {"house_number": "155", "road": "Avenue K", "city": "Apalachicola", "state": "Florida", "postcode": "32320", "lat": 29.72712, "long": -84.99515000000001}, {"house_number": "215", "road": "11th Street", "city": "Apalachicola", "state": "Florida", "postcode": "32320", "lat": 29.72714448670392, "long": -84.995955383617}, {"house_number": "173", "road": "9th Street", "city": "Apalachicola", "state": "Florida", "postcode": "32320", "lat": 29.727034999999987, "long": -84.99280499999998}, {"house_number": "112", "road": "Dr Martin Luther King Jr Avenue", "city": "Apalachicola", "state": "Florida", "postcode": "32320", "lat": 29.727074601586423, "long": -84.99358459841187}, {"house_number": "190", "road": "10th Street", "city": "Apalachicola", "state": "Florida", "postcode": "32320", "lat": 29.727104744332635, "long": -84.99436019244374}, {"house_number": "149", "road": "8th Street", "city": "Apalachicola", "state": "Florida", "postcode": "32320", "lat": 29.726964999999993, "long": -84.99123499999999}, {"house_number": "114", "road": "6th Street", "city": "Apalachicola", "state": "Florida", "postcode": "32320", "lat": 29.72685499999999, "long": -84.98807999999998}, {"house_number": "136", "road": "7th Street", "city": "Apalachicola", "state": "Florida", "postcode": "32320", "lat": 29.72692019076007, "long": -84.98967486089235}, {"house_number": "83", "road": "Avenue G", "city": "Apalachicola", "state": "Florida", "postcode": "32320", "lat": 29.726894791096562, "long": -84.98887979980337}, {"house_number": "95", "road": "5th Street", "city": "Apalachicola", "state": "Florida", "postcode": "32320", "lat": 29.726814513238477, "long": -84.98649539047453}, {"house_number": "203", "road": "12th Street", "city": "Apalachicola", "state": "Florida", "postcode": "32320", "lat": 29.726514999999996, "long": -84.99658}, {"house_number": "203", "road": "12th Street", "city": "Apalachicola", "state": "Florida", "postcode": "32320", "lat": 29.726514999999996, "long": -84.99658}, {"house_number": "165", "road": "Avenue K", "city": "Apalachicola", "state": "Florida", "postcode": "32320", "lat": 29.726479999999988, "long": -84.995795}, {"house_number": "189", "road": "11th Street", "city": "Apalachicola", "state": "Florida", "postcode": "32320", "lat": 29.726444484025173, "long": -84.99501538281557}, {"house_number": "177", "road": "10th Street", "city": "Apalachicola", "state": "Florida", "postcode": "32320", "lat": 29.72641019294788, "long": -84.99343985358854}, {"house_number": "113", "road": "Avenue I", "city": "Apalachicola", "state": "Florida", "postcode": "32320", "lat": 29.726369794053007, "long": -84.99265979968698}, {"house_number": "53", "road": "Market Street", "city": "Apalachicola", "state": "Florida", "postcode": "32320", "lat": 29.7263, "long": -84.98338999999999}, {"house_number": "96", "road": "Avenue G", "city": "Apalachicola", "state": "Florida", "postcode": "32320", "lat": 29.726259999999993, "long": -84.98953499999999}, {"house_number": "119", "road": "8th Street", "city": "Apalachicola", "state": "Florida", "postcode": "32320", "lat": 29.7262746721593, "long": -84.99031524203724}, {"house_number": "128", "road": "Avenue H", "city": "Apalachicola", "state": "Florida", "postcode": "32320", "lat": 29.72628980038849, "long": -84.9910897996113}, {"house_number": "153", "road": "9th Street", "city": "Apalachicola", "state": "Florida", "postcode": "32320", "lat": 29.726325, "long": -84.991875}]