[{"house_number": "27048", "road": "Harbour Oaks Boulevard", "city": "Deep Creek", "state": "Florida", "postcode": "33983", "lat": 27.016365160360554, "long": -82.00570199756756}, {"house_number": "97", "road": "Vivante Boulevard", "city": "Punta Gorda", "state": "Florida", "postcode": "33950", "lat": 26.920368645385082, "long": -82.08966116627539}, {"house_number": "3272", "road": "Rowland Drive", "city": "Charlotte Harbor", "state": "Florida", "postcode": "33980", "lat": 26.976067129751726, "long": -82.04696704995546}, {"house_number": "551", "road": "Wood Street", "city": "Punta Gorda", "state": "Florida", "postcode": "33950", "lat": 26.93359870962498, "long": -82.04424834292547}, {"house_number": "22465", "road": "Alcorn Avenue", "city": "Port Charlotte", "state": "Florida", "postcode": "33952", "lat": 27.006825999999997, "long": -82.076357}, {"house_number": "1351", "road": "Blaisdell Street", "city": "Port Charlotte", "state": "Florida", "postcode": "33980", "lat": 27.007044999999998, "long": -82.05857699999999}, {"house_number": "1443", "road": "Mohawk Drive", "city": "Port Charlotte", "state": "Florida", "postcode": "33952", "lat": 27.007591499999997, "long": -82.11663300000001}, {"house_number": "1299", "road": "Arrow Street", "city": "Port Charlotte", "state": "Florida", "postcode": "33952", "lat": 27.007919499999996, "long": -82.11293549999999}, {"house_number": "1387", "road": "Dorchester Street", "city": "Port Charlotte", "state": "Florida", "postcode": "33952", "lat": 27.006589499999997, "long": -82.1080565}, {"house_number": "20999", "road": "Cornell Avenue", "city": "Port Charlotte", "state": "Florida", "postcode": "33952", "lat": 27.0061695, "long": -82.106224}, {"house_number": "1365", "road": "Kenmore Street", "city": "Port Charlotte", "state": "Florida", "postcode": "33952", "lat": 27.007607, "long": -82.10123899999999}, {"house_number": "21499", "road": "Shannon Avenue", "city": "Port Charlotte", "state": "Florida", "postcode": "33952", "lat": 27.005917999999998, "long": -82.09222449999999}, {"house_number": "20369", "road": "Rutherford Avenue", "city": "Port Charlotte", "state": "Florida", "postcode": "33952", "lat": 27.005584499999994, "long": -82.11254149999999}, {"house_number": "20999", "road": "Exmore Avenue", "city": "Port Charlotte", "state": "Florida", "postcode": "33952", "lat": 27.0053435, "long": -82.10623849999999}, {"house_number": "22397", "road": "Walton Avenue", "city": "Port Charlotte", "state": "Florida", "postcode": "33952", "lat": 27.013348999999998, "long": -82.07818649999999}, {"house_number": "13156", "road": "Chancellor Boulevard", "city": "North Port", "state": "Florida", "postcode": "33953", "lat": 27.032929499999995, "long": -82.22938299999998}, {"house_number": "367", "road": "Orlando Boulevard", "city": "Port Charlotte", "state": "Florida", "postcode": "33954", "lat": 27.0220465, "long": -82.07397499999999}, {"house_number": "351", "road": "Northview Street", "city": "Port Charlotte", "state": "Florida", "postcode": "33954", "lat": 27.022968499999998, "long": -82.10121799999999}, {"house_number": "9499", "road": "Prospect Avenue", "city": "Englewood", "state": "Florida", "postcode": "34224", "lat": 26.944756847555247, "long": -82.29032993243202}, {"house_number": "1451", "road": "Tamiami Trail", "city": "Punta Gorda", "state": "Florida", "postcode": "33950", "lat": 26.925660999999998, "long": -82.04739749999999}, {"house_number": "9600", "road": "Eagle Preserve Drive", "city": "Englewood", "state": "Florida", "postcode": "34224", "lat": 26.887249, "long": -82.3095155}, {"house_number": "27100", "road": "Chile Drive", "city": "Deep Creek", "state": "Florida", "postcode": "33983", "lat": 27.019428003865762, "long": -82.00647408581102}, {"house_number": "3809", "road": "Barnegat Drive", "city": "Charlotte Park", "state": "Florida", "postcode": "33950", "lat": 26.904374499999992, "long": -82.03801849999999}, {"house_number": "22387", "road": "Edgewater Drive", "city": "Charlotte Harbor", "state": "Florida", "postcode": "33980", "lat": 26.964318549184917, "long": -82.07831949998464}, {"house_number": "1140", "road": "El Jobean Road", "city": "Port Charlotte", "state": "Florida", "postcode": "33948", "lat": 27.011195693725917, "long": -82.15085406662737}, {"house_number": "4916", "road": "Tamiami Trail", "city": "Charlotte Harbor", "state": "Florida", "postcode": "33980", "lat": 26.95652080882118, "long": -82.06533571276081}, {"house_number": "52", "road": "Loveland Boulevard", "city": "Port Charlotte", "state": "Florida", "postcode": "33954", "lat": 27.031483152277538, "long": -82.05750679444739}, {"house_number": "26300", "road": "Airport Road", "city": "Punta Gorda", "state": "Florida", "postcode": "33950", "lat": 26.9172567319952, "long": -82.0195632187953}, {"house_number": "2101", "road": "West Marion Avenue", "city": "Punta Gorda", "state": "Florida", "postcode": "33950", "lat": 26.921091499999996, "long": -82.07472549999999}, {"house_number": "2053", "road": "West Marion Avenue", "city": "Punta Gorda", "state": "Florida", "postcode": "33950", "lat": 26.921507999999996, "long": -82.074319}, {"house_number": "4549", "road": "Deltona Drive", "city": "Charlotte Park", "state": "Florida", "postcode": "33950", "lat": 26.896773500214383, "long": -82.05150446263328}, {"house_number": "911", "road": "Tamiami Trail", "city": "Punta Gorda", "state": "Florida", "postcode": "33950", "lat": 26.929477721622185, "long": -82.04732874295937}, {"house_number": "1675", "road": "Yellow Pine Court", "city": "Punta Gorda", "state": "Florida", "postcode": "33950", "lat": 26.92341882871963, "long": -82.03419346652312}, {"house_number": "5062", "road": "Key Largo Drive", "city": "Punta Gorda", "state": "Florida", "postcode": "33950", "lat": 26.893290427906425, "long": -82.07255136947121}, {"house_number": "319", "road": "Monaco Drive", "city": "Punta Gorda", "state": "Florida", "postcode": "33950", "lat": 26.897531758369933, "long": -82.03205753001349}, {"house_number": "3650", "road": "Tamiami Trail", "city": "Charlotte Park", "state": "Florida", "postcode": "33950", "lat": 26.905371529561112, "long": -82.03730149757031}, {"house_number": "43", "road": "Vivante Boulevard", "city": "Punta Gorda", "state": "Florida", "postcode": "33950", "lat": 26.922577322456302, "long": -82.08910486363551}, {"house_number": "137", "road": "Colony Point Drive", "city": "Punta Gorda", "state": "Florida", "postcode": "33950", "lat": 26.921438012056782, "long": -82.08699353105693}, {"house_number": "1901", "road": "Deborah Drive", "city": "Punta Gorda", "state": "Florida", "postcode": "33950", "lat": 26.90491588252104, "long": -82.07315330098679}, {"house_number": "5315", "road": "Almar Drive", "city": "Punta Gorda", "state": "Florida", "postcode": "33950", "lat": 26.89003224102088, "long": -82.05686048522062}, {"house_number": "5659", "road": "Sabal Palm Lane", "city": "Cleveland", "state": "Florida", "postcode": "33982", "lat": 26.94950962355028, "long": -81.97834170765888}, {"house_number": "2372", "road": "Nuremberg Boulevard", "city": "Deep Creek", "state": "Florida", "postcode": "33983", "lat": 26.992902463715037, "long": -82.02201341756273}, {"house_number": "2444", "road": "Nuremberg Boulevard", "city": "Deep Creek", "state": "Florida", "postcode": "33983", "lat": 26.991968221886708, "long": -82.02000643018955}, {"house_number": "549", "road": "Rio Villa Drive", "city": "Charlotte Park", "state": "Florida", "postcode": "33950", "lat": 26.902542046121525, "long": -82.04909976911719}, {"house_number": "3950", "road": "Vasco Street", "city": "Charlotte Park", "state": "Florida", "postcode": "33950", "lat": 26.90289149999999, "long": -82.04750899999999}, {"house_number": "3749", "road": "Vasco Street", "city": "Charlotte Park", "state": "Florida", "postcode": "33950", "lat": 26.90471749999999, "long": -82.04749249999998}, {"house_number": "3751", "road": "Ash Street", "city": "Charlotte Park", "state": "Florida", "postcode": "33950", "lat": 26.904639999999986, "long": -82.04371949999998}, {"house_number": "3651", "road": "Ash Street", "city": "Charlotte Park", "state": "Florida", "postcode": "33950", "lat": 26.905714499999995, "long": -82.0437135}, {"house_number": "4230", "road": "Tamiami Trail", "city": "Port Charlotte", "state": "Florida", "postcode": "33952", "lat": 26.967958499999995, "long": -82.07935049999999}, {"house_number": "1049", "road": "Loveland Boulevard", "city": "Port Charlotte", "state": "Florida", "postcode": "33980", "lat": 27.014187499999995, "long": -82.0575995}, {"house_number": "10051", "road": "Tamiami Trail", "city": "Charlotte Park", "state": "Florida", "postcode": "33950", "lat": 26.889353499999988, "long": -82.0218345}, {"house_number": "5650", "road": "US 17", "city": "Cleveland", "state": "Florida", "postcode": "33982", "lat": 26.949516831005784, "long": -81.99973927230091}, {"house_number": "13851", "road": "Babcock Ranch Road", "city": "Babcock Ranch", "state": "Florida", "postcode": "33982", "lat": 26.78795099916817, "long": -81.76043694857873}, {"house_number": "2451", "road": "West Marion Avenue", "city": "Punta Gorda", "state": "Florida", "postcode": "33950", "lat": 26.918039423998902, "long": -82.07773042304139}, {"house_number": "142", "road": "Tarpon Cove Drive", "city": "Punta Gorda", "state": "Florida", "postcode": "33950", "lat": 26.918345499999987, "long": -82.07984549999999}, {"house_number": "2560", "road": "Tarpon Cove Drive", "city": "Punta Gorda", "state": "Florida", "postcode": "33950", "lat": 26.917867313479128, "long": -82.08046863344887}, {"house_number": "29449", "road": "Bermont Road", "city": "Cleveland", "state": "Florida", "postcode": "33982", "lat": 26.946983506507088, "long": -81.96852900365273}]