[{"house_number": "1959", "road": "Minnie Ola Lane", "city": "Wewahitchka", "state": "Florida", "postcode": "32465", "lat": 30.091556167304557, "long": -85.19785832396718}, {"house_number": "499", "road": "Pompano Street", "city": "Port Saint Joe", "state": "Florida", "postcode": "32456", "lat": 29.839603018239316, "long": -85.31366398653647}, {"house_number": "158", "road": "Bellamy Circle", "city": "Port Saint Joe", "state": "Florida", "postcode": "32456", "lat": 29.801260356999602, "long": -85.28871838161585}, {"house_number": "250", "road": "Butler Bay Road", "city": "Port Saint Joe", "state": "Florida", "postcode": "32456", "lat": 29.84581315787652, "long": -85.3270592002203}, {"house_number": "400", "road": "Robbins Avenue", "city": "Port Saint Joe", "state": "Florida", "postcode": "32456", "lat": 29.819050004562282, "long": -85.29728004903335}, {"house_number": "198", "road": "Rhodes Drive", "city": "Wewahitchka", "state": "Florida", "postcode": "32465", "lat": 30.117365997967326, "long": -85.2028080313735}, {"house_number": "256", "road": "Corn Griffin Street", "city": "Wewahitchka", "state": "Florida", "postcode": "32465", "lat": 30.09621872643999, "long": -85.18811930722599}, {"house_number": "149", "road": "Yoder Street", "city": "Wewahitchka", "state": "Florida", "postcode": "32465", "lat": 30.10760270801432, "long": -85.17940451358629}, {"house_number": "649", "road": "South 6th Street", "city": "Wewahitchka", "state": "Florida", "postcode": "32465", "lat": 30.107170473532445, "long": -85.19435014473365}, {"house_number": "1649", "road": "Palm Boulevard", "city": "Port Saint Joe", "state": "Florida", "postcode": "32456", "lat": 29.799954999999997, "long": -85.29712849999999}, {"house_number": "249", "road": "Old Dairy Farm Road", "city": "Wewahitchka", "state": "Florida", "postcode": "32465", "lat": 30.095076499999994, "long": -85.20199149999999}, {"house_number": "351", "road": "Old Dairy Farm Road", "city": "Wewahitchka", "state": "Florida", "postcode": "32465", "lat": 30.096554042663186, "long": -85.20411189107313}, {"house_number": "501", "road": "Howards Road", "city": "Port Saint Joe", "state": "Florida", "postcode": "32456", "lat": 29.817006704081493, "long": -85.30867860728213}, {"house_number": "2050", "road": "Garrison Avenue", "city": "Port Saint Joe", "state": "Florida", "postcode": "32456", "lat": 29.79825638033984, "long": -85.28838711353069}, {"house_number": "2817", "road": "Indian Pass Road", "city": "Port Saint Joe", "state": "Florida", "postcode": "32456", "lat": 29.683357488091847, "long": -85.22312472358492}, {"house_number": "450", "road": "Land Drive", "city": "Wewahitchka", "state": "Florida", "postcode": "32465", "lat": 30.088471077786007, "long": -85.18467727376846}, {"house_number": "349", "road": "Freeman Rouse Road", "city": "Wewahitchka", "state": "Florida", "postcode": "32465", "lat": 30.13369447310195, "long": -85.21973906005582}, {"house_number": "1125", "road": "Avenue A", "city": "Port Saint Joe", "state": "Florida", "postcode": "32456", "lat": 29.81798978217178, "long": -85.2887310015697}, {"house_number": "1449", "road": "Industrial Road", "city": "Port Saint Joe", "state": "Florida", "postcode": "32456", "lat": 29.84169062213738, "long": -85.28067309468634}, {"house_number": "205", "road": "Bay Road", "city": "Port Saint Joe", "state": "Florida", "postcode": "32456", "lat": 29.817572871852143, "long": -85.30567703331712}, {"house_number": "205", "road": "Bay Road", "city": "Port Saint Joe", "state": "Florida", "postcode": "32456", "lat": 29.817572871852143, "long": -85.30567703331712}, {"house_number": "350", "road": "Kenny Mill Road", "city": "Port Saint Joe", "state": "Florida", "postcode": "32456", "lat": 29.825841242254352, "long": -85.3057003086081}, {"house_number": "979", "road": "North 2nd Street", "city": "Wewahitchka", "state": "Florida", "postcode": "32465", "lat": 30.123713864809222, "long": -85.20039469624118}, {"house_number": "979", "road": "North 2nd Street", "city": "Wewahitchka", "state": "Florida", "postcode": "32465", "lat": 30.123713864809222, "long": -85.20039469624118}, {"house_number": "979", "road": "North 2nd Street", "city": "Wewahitchka", "state": "Florida", "postcode": "32465", "lat": 30.123713864809222, "long": -85.20039469624118}, {"house_number": "979", "road": "North 2nd Street", "city": "Wewahitchka", "state": "Florida", "postcode": "32465", "lat": 30.123713864809222, "long": -85.20039469624118}, {"house_number": "979", "road": "North 2nd Street", "city": "Wewahitchka", "state": "Florida", "postcode": "32465", "lat": 30.123713864809222, "long": -85.20039469624118}, {"house_number": "979", "road": "North 2nd Street", "city": "Wewahitchka", "state": "Florida", "postcode": "32465", "lat": 30.123713864809222, "long": -85.20039469624118}, {"house_number": "141", "road": "Johnson Lane", "city": "Wewahitchka", "state": "Florida", "postcode": "32465", "lat": 30.0986485310884, "long": -85.19877950060919}, {"house_number": "1300", "road": "Yon's Drive", "city": "Wewahitchka", "state": "Florida", "postcode": "32465", "lat": 30.113283649008167, "long": -85.20960568936619}, {"house_number": "9150", "road": "US 98", "city": "Port Saint Joe", "state": "Florida", "postcode": "32456", "lat": 29.88465586537736, "long": -85.34534855524076}, {"house_number": "151", "road": "Good Morning Street", "city": "Port Saint Joe", "state": "Florida", "postcode": "32456", "lat": 29.86165749999999, "long": -85.34073049999999}, {"house_number": "174", "road": "Suber Lane", "city": "Wewahitchka", "state": "Florida", "postcode": "32465", "lat": 30.12377849999999, "long": -85.20735549999999}, {"house_number": "1192", "road": "East River Road", "city": "Wewahitchka", "state": "Florida", "postcode": "32465", "lat": 30.100196954733637, "long": -85.1830319206888}, {"house_number": "1192", "road": "East River Road", "city": "Wewahitchka", "state": "Florida", "postcode": "32465", "lat": 30.100196954733637, "long": -85.1830319206888}, {"house_number": "147", "road": "East River Road", "city": "Wewahitchka", "state": "Florida", "postcode": "32465", "lat": 30.10181380178273, "long": -85.18310595725407}, {"house_number": "150", "road": "Old Transfer Road", "city": "Wewahitchka", "state": "Florida", "postcode": "32465", "lat": 30.091580999999994, "long": -85.19510449999999}, {"house_number": "439", "road": "Land Drive", "city": "Wewahitchka", "state": "Florida", "postcode": "32465", "lat": 30.087025923646458, "long": -85.19235500658132}, {"house_number": "249", "road": "Land Drive", "city": "Wewahitchka", "state": "Florida", "postcode": "32465", "lat": 30.087087999999994, "long": -85.19306399999999}, {"house_number": "3800", "road": "Garrison Avenue", "city": "Port Saint Joe", "state": "Florida", "postcode": "32456", "lat": 29.7776522820385, "long": -85.2812453430599}, {"house_number": "199", "road": "Gulf Coast Circle", "city": "Port Saint Joe", "state": "Florida", "postcode": "32456", "lat": 29.78129856156037, "long": -85.28178949914228}, {"house_number": "147", "road": "Walkabout Court", "city": "Port Saint Joe", "state": "Florida", "postcode": "32456", "lat": 29.7784965, "long": -85.28156899999999}, {"house_number": "150", "road": "Crane Drive", "city": "Port Saint Joe", "state": "Florida", "postcode": "32456", "lat": 29.779412088432633, "long": -85.28148814437152}, {"house_number": "248", "road": "Crane Drive", "city": "Port Saint Joe", "state": "Florida", "postcode": "32456", "lat": 29.778598999999993, "long": -85.28096199999999}, {"house_number": "149", "road": "Walkabout Court", "city": "Port Saint Joe", "state": "Florida", "postcode": "32456", "lat": 29.77785021194913, "long": -85.28083308032883}, {"house_number": "3550", "road": "Garrison Avenue", "city": "Port Saint Joe", "state": "Florida", "postcode": "32456", "lat": 29.782438147040917, "long": -85.28356152368283}, {"house_number": "149", "road": "Southgate Boulevard", "city": "Port Saint Joe", "state": "Florida", "postcode": "32456", "lat": 29.781291499999995, "long": -85.2827825}, {"house_number": "3250", "road": "Garrison Avenue", "city": "Port Saint Joe", "state": "Florida", "postcode": "32456", "lat": 29.78498331306618, "long": -85.28413980499661}, {"house_number": "151", "road": "Heritage Lane", "city": "Port Saint Joe", "state": "Florida", "postcode": "32456", "lat": 29.798502477324917, "long": -85.28710303380413}, {"house_number": "102", "road": "Heritage Lane", "city": "Port Saint Joe", "state": "Florida", "postcode": "32456", "lat": 29.797044286198357, "long": -85.28677285922113}, {"house_number": "148", "road": "Heritage Lane", "city": "Port Saint Joe", "state": "Florida", "postcode": "32456", "lat": 29.797380737987435, "long": -85.28616362983787}, {"house_number": "147", "road": "Bridgeport Lane", "city": "Port Saint Joe", "state": "Florida", "postcode": "32456", "lat": 29.81712888741998, "long": -85.29047707457217}, {"house_number": "150", "road": "Trade Circle West", "city": "Port Saint Joe", "state": "Florida", "postcode": "32456", "lat": 29.83282732768785, "long": -85.29194777888043}, {"house_number": "150", "road": "Flat water East", "city": "Port Saint Joe", "state": "Florida", "postcode": "32456", "lat": 29.852243246305818, "long": -85.33167250221452}, {"house_number": "147", "road": "Sleeping Dog Way", "city": "Port Saint Joe", "state": "Florida", "postcode": "32456", "lat": 29.860724574282713, "long": -85.34040403666754}, {"house_number": "647", "road": "Tide Water Drive", "city": "Port Saint Joe", "state": "Florida", "postcode": "32456", "lat": 29.857653366883707, "long": -85.33724718329626}, {"house_number": "551", "road": "Tide Water Drive", "city": "Port Saint Joe", "state": "Florida", "postcode": "32456", "lat": 29.85620179140458, "long": -85.33679093912463}, {"house_number": "149", "road": "Whirlwind Court", "city": "Port Saint Joe", "state": "Florida", "postcode": "32456", "lat": 29.8556535, "long": -85.33692849999998}, {"house_number": "453", "road": "Tide Water Drive", "city": "Port Saint Joe", "state": "Florida", "postcode": "32456", "lat": 29.855477999999998, "long": -85.3365535}, {"house_number": "151", "road": "Washboard Court", "city": "Port Saint Joe", "state": "Florida", "postcode": "32456", "lat": 29.859724999999997, "long": -85.34038149999998}, {"house_number": "148", "road": "Salt Air Court", "city": "Port Saint Joe", "state": "Florida", "postcode": "32456", "lat": 29.85805870251503, "long": -85.33962877346974}, {"house_number": "151", "road": "Pinwheel Court", "city": "Port Saint Joe", "state": "Florida", "postcode": "32456", "lat": 29.85719449999999, "long": -85.33918299999999}, {"house_number": "151", "road": "Wet Feet Court", "city": "Port Saint Joe", "state": "Florida", "postcode": "32456", "lat": 29.856307999999988, "long": -85.33889049999999}, {"house_number": "305", "road": "Front Street", "city": "Port Saint Joe", "state": "Florida", "postcode": "32456", "lat": 29.857435499999987, "long": -85.3399465}, {"house_number": "651", "road": "Front Street", "city": "Port Saint Joe", "state": "Florida", "postcode": "32456", "lat": 29.860112282160888, "long": -85.34109867087012}, {"house_number": "405", "road": "Front Street", "city": "Port Saint Joe", "state": "Florida", "postcode": "32456", "lat": 29.858458418706427, "long": -85.34048585631561}, {"house_number": "176", "road": "Liberty Monor Circle", "city": "Port Saint Joe", "state": "Florida", "postcode": "32456", "lat": 29.783773935330967, "long": -85.28456030481682}, {"house_number": "2101", "road": "Old Panama Highway", "city": "Wewahitchka", "state": "Florida", "postcode": "32465", "lat": 30.12997299999999, "long": -85.227386}, {"house_number": "948", "road": "Industrial Road", "city": "Port Saint Joe", "state": "Florida", "postcode": "32456", "lat": 29.828899672815993, "long": -85.30287112519008}, {"house_number": "750", "road": "10th Street", "city": "Port Saint Joe", "state": "Florida", "postcode": "32456", "lat": 29.807949522620078, "long": -85.29561185583557}, {"house_number": "750", "road": "10th Street", "city": "Port Saint Joe", "state": "Florida", "postcode": "32456", "lat": 29.807949522620078, "long": -85.29561185583557}, {"house_number": "950", "road": "Woodward Avenue", "city": "Port Saint Joe", "state": "Florida", "postcode": "32456", "lat": 29.808309442705113, "long": -85.29653564015643}, {"house_number": "850", "road": "Woodward Avenue", "city": "Port Saint Joe", "state": "Florida", "postcode": "32456", "lat": 29.809429946180956, "long": -85.29698563640282}, {"house_number": "449", "road": "Baltzell Avenue", "city": "Port Saint Joe", "state": "Florida", "postcode": "32456", "lat": 29.81205313622483, "long": -85.30432315425476}, {"house_number": "498", "road": "6th Street", "city": "Port Saint Joe", "state": "Florida", "postcode": "32456", "lat": 29.81174702236776, "long": -85.29927835299785}, {"house_number": "498", "road": "6th Street", "city": "Port Saint Joe", "state": "Florida", "postcode": "32456", "lat": 29.81174702236776, "long": -85.29927835299785}]