[{"house_number": "47", "road": "Franklin Way", "city": "Palm Coast", "state": "Florida", "postcode": "32137", "lat": 29.580699788758064, "long": -81.21550498209264}, {"house_number": "10", "road": "Burning View Lane", "city": "Palm Coast", "state": "Florida", "postcode": "32137", "lat": 29.578011113661713, "long": -81.25050398598503}, {"house_number": "67", "road": "Birchshire Lane", "city": "Palm Coast", "state": "Florida", "postcode": "32137", "lat": 29.579984999999986, "long": -81.238145}, {"house_number": "29", "road": "Birchshire Lane", "city": "Palm Coast", "state": "Florida", "postcode": "32137", "lat": 29.579114999999994, "long": -81.23757499999999}, {"house_number": "24", "road": "Farmdale Lane", "city": "Palm Coast", "state": "Florida", "postcode": "32137", "lat": 29.57927990372641, "long": -81.22766982524011}, {"house_number": "104", "road": "Captains Walk", "city": "Palm Coast", "state": "Florida", "postcode": "32137", "lat": 29.579270084080523, "long": -81.19275122503316}, {"house_number": "104", "road": "Captains Walk", "city": "Palm Coast", "state": "Florida", "postcode": "32137", "lat": 29.579270084080523, "long": -81.19275122503316}, {"house_number": "152", "road": "Captains Walk", "city": "Palm Coast", "state": "Florida", "postcode": "32137", "lat": 29.57897033142289, "long": -81.19415207614263}, {"house_number": "27", "road": "Burning View Lane", "city": "Palm Coast", "state": "Florida", "postcode": "32137", "lat": 29.578674999999997, "long": -81.24843999999999}, {"house_number": "67", "road": "Burning View Lane", "city": "Palm Coast", "state": "Florida", "postcode": "32137", "lat": 29.57920645490081, "long": -81.24670736452619}, {"house_number": "52", "road": "Marina Point Place", "city": "Palm Coast", "state": "Florida", "postcode": "32137", "lat": 29.57802985873124, "long": -81.1945845918316}, {"house_number": "71", "road": "Rivers Edge Lane", "city": "Palm Coast", "state": "Florida", "postcode": "32136", "lat": 29.578305000000004, "long": -81.19275999999999}, {"house_number": "55", "road": "Rivers Edge Lane", "city": "Palm Coast", "state": "Florida", "postcode": "32137", "lat": 29.578144999999992, "long": -81.19268499999998}, {"house_number": "19", "road": "Birchshire Lane", "city": "Palm Coast", "state": "Florida", "postcode": "32137", "lat": 29.57820999999999, "long": -81.23697999999999}, {"house_number": "11", "road": "Birchshire Lane", "city": "Palm Coast", "state": "Florida", "postcode": "32137", "lat": 29.57731499999999, "long": -81.23638499999998}, {"house_number": "3", "road": "Birchshire Lane", "city": "Palm Coast", "state": "Florida", "postcode": "32137", "lat": 29.57635, "long": -81.23574500000001}, {"house_number": "4", "road": "Birchfield Place", "city": "Palm Coast", "state": "Florida", "postcode": "32137", "lat": 29.575704982838687, "long": -81.2353300267267}, {"house_number": "2", "road": "Burning Wick Place", "city": "Palm Coast", "state": "Florida", "postcode": "32137", "lat": 29.57656949093716, "long": -81.25149468560086}, {"house_number": "8", "road": "Burning Wick Place", "city": "Palm Coast", "state": "Florida", "postcode": "32137", "lat": 29.575965, "long": -81.25245999999999}, {"house_number": "54", "road": "Burning Wick Place", "city": "Palm Coast", "state": "Florida", "postcode": "32137", "lat": 29.575354560291856, "long": -81.25339468420378}, {"house_number": "2", "road": "Birchview Place", "city": "Palm Coast", "state": "Florida", "postcode": "32137", "lat": 29.57618211841475, "long": -81.2345570451583}, {"house_number": "10", "road": "Birchview Place", "city": "Palm Coast", "state": "Florida", "postcode": "32137", "lat": 29.575399999999995, "long": -81.23402999999999}, {"house_number": "58", "road": "Birchview Place", "city": "Palm Coast", "state": "Florida", "postcode": "32137", "lat": 29.574425065780208, "long": -81.23339490071156}, {"house_number": "92", "road": "Frontier Drive", "city": "Palm Coast", "state": "Florida", "postcode": "32137", "lat": 29.57569500800541, "long": -81.22358990064042}, {"house_number": "99", "road": "Frontier Drive", "city": "Palm Coast", "state": "Florida", "postcode": "32137", "lat": 29.576110016773807, "long": -81.22361975977749}, {"house_number": "12", "road": "Birchfield Place", "city": "Palm Coast", "state": "Florida", "postcode": "32137", "lat": 29.574849999999998, "long": -81.23477}, {"house_number": "60", "road": "Birchfield Place", "city": "Palm Coast", "state": "Florida", "postcode": "32137", "lat": 29.5739550493594, "long": -81.2341749266186}, {"house_number": "750", "road": "East Woodland Street", "city": "Bunnell", "state": "Florida", "postcode": "32110", "lat": 29.47406056155188, "long": -81.26130045886818}, {"house_number": "12", "road": "Louisburg Lane", "city": "Palm Coast", "state": "Florida", "postcode": "32137", "lat": 29.60411143879771, "long": -81.26945426141357}, {"house_number": "15", "road": "Louisville Drive", "city": "Palm Coast", "state": "Florida", "postcode": "32137", "lat": 29.603090176751035, "long": -81.26990997829338}, {"house_number": "1899", "road": "North Daytona Avenue", "city": "Flagler Beach", "state": "Florida", "postcode": "32136", "lat": 29.497614830123272, "long": -81.13718679540003}, {"house_number": "50", "road": "Colonia Court", "city": "Palm Coast", "state": "Florida", "postcode": "32137", "lat": 29.592399903393858, "long": -81.21957022013966}, {"house_number": "50", "road": "Fernwood Dr", "city": "Palm Coast", "state": "Florida", "postcode": "32137", "lat": 29.56600077847032, "long": -81.21367654900921}, {"house_number": "44", "road": "Underwood Trail", "city": "Palm Coast", "state": "Florida", "postcode": "32164", "lat": 29.446661789038977, "long": -81.1742206961947}, {"house_number": "3", "road": "Mount Vernon Lane", "city": "Palm Coast", "state": "Florida", "postcode": "32164", "lat": 29.529874898720717, "long": -81.23868680016763}, {"house_number": "56", "road": "Ferris Lane", "city": "Palm Coast", "state": "Florida", "postcode": "32137", "lat": 29.5651724673409, "long": -81.21337433229348}, {"house_number": "56", "road": "Ferris Lane", "city": "Palm Coast", "state": "Florida", "postcode": "32137", "lat": 29.5651724673409, "long": -81.21337433229348}, {"house_number": "3", "road": "Seattle Trail", "city": "Palm Coast", "state": "Florida", "postcode": "32164", "lat": 29.42852014603942, "long": -81.1811745916898}, {"house_number": "2", "road": "Montauk Lane", "city": "Palm Coast", "state": "Florida", "postcode": "32164", "lat": 29.533066729602414, "long": -81.23267630612521}, {"house_number": "50", "road": "Broadmore Circle", "city": "Palm Coast", "state": "Florida", "postcode": "32137", "lat": 29.56219367247376, "long": -81.19597791959978}, {"house_number": "1", "road": "Cypress Edge Drive", "city": "Palm Coast", "state": "Florida", "postcode": "32164", "lat": 29.551667751503604, "long": -81.22605231016924}, {"house_number": "31", "road": "Kalamazoo Trail", "city": "Palm Coast", "state": "Florida", "postcode": "32164", "lat": 29.439774209459085, "long": -81.22850678643138}, {"house_number": "38", "road": "Kalamazoo Trail", "city": "Palm Coast", "state": "Florida", "postcode": "32164", "lat": 29.440519999999985, "long": -81.22866499999998}, {"house_number": "43", "road": "Kalamazoo Trail", "city": "Palm Coast", "state": "Florida", "postcode": "32164", "lat": 29.44115131884211, "long": -81.2290879443377}, {"house_number": "5182", "road": "North Oceanshore Boulevard", "city": "Palm Coast", "state": "Florida", "postcode": "32137", "lat": 29.597686999999993, "long": -81.19591549999998}, {"house_number": "1074", "road": "Belle Terre Blvd", "city": "Palm Coast", "state": "Florida", "postcode": "32164", "lat": 29.43692416965442, "long": -81.23251668681581}, {"house_number": "69", "road": "Kathleen Trail", "city": "Palm Coast", "state": "Florida", "postcode": "32164", "lat": 29.438014999999993, "long": -81.224755}, {"house_number": "9", "road": "Seven Wonders Trail", "city": "Palm Coast", "state": "Florida", "postcode": "32164", "lat": 29.43828881390491, "long": -81.17672584491716}, {"house_number": "25", "road": "Seven Wonders Trail", "city": "Palm Coast", "state": "Florida", "postcode": "32164", "lat": 29.43710499999999, "long": -81.17630999999999}, {"house_number": "65", "road": "Kathleen Trail", "city": "Palm Coast", "state": "Florida", "postcode": "32164", "lat": 29.437230000000003, "long": -81.22474}, {"house_number": "94", "road": "Karas Trail", "city": "Palm Coast", "state": "Florida", "postcode": "32164", "lat": 29.435684499999986, "long": -81.22168999999998}, {"house_number": "96", "road": "Karas Trail", "city": "Palm Coast", "state": "Florida", "postcode": "32164", "lat": 29.43642999999999, "long": -81.22170499999999}, {"house_number": "36", "road": "Seven Wonders Trail", "city": "Palm Coast", "state": "Florida", "postcode": "32164", "lat": 29.43571597685197, "long": -81.17582210368926}, {"house_number": "44", "road": "Seven Wonders Trail", "city": "Palm Coast", "state": "Florida", "postcode": "32164", "lat": 29.434729999999995, "long": -81.17548499999998}, {"house_number": "14", "road": "Seaman Trail East", "city": "Palm Coast", "state": "Florida", "postcode": "32164", "lat": 29.418129657779208, "long": -81.17356499544852}, {"house_number": "63", "road": "Seaman Trail East", "city": "Palm Coast", "state": "Florida", "postcode": "32164", "lat": 29.418079999999993, "long": -81.176205}, {"house_number": "60", "road": "Seaman Trail East", "city": "Palm Coast", "state": "Florida", "postcode": "32164", "lat": 29.418114999999986, "long": -81.174865}, {"house_number": "59", "road": "Sea Maiden Path", "city": "Palm Coast", "state": "Florida", "postcode": "32164", "lat": 29.41893499999999, "long": -81.17484999999999}, {"house_number": "60", "road": "Sea Maiden Path", "city": "Palm Coast", "state": "Florida", "postcode": "32164", "lat": 29.418953685170354, "long": -81.17354884742974}, {"house_number": "9", "road": "Seamanship Trail", "city": "Palm Coast", "state": "Florida", "postcode": "32164", "lat": 29.41973830688124, "long": -81.17679999178803}, {"house_number": "23", "road": "Seamanship Trail", "city": "Palm Coast", "state": "Florida", "postcode": "32164", "lat": 29.4197535, "long": -81.17488799999998}, {"house_number": "58", "road": "Sea Spiral Path", "city": "Palm Coast", "state": "Florida", "postcode": "32164", "lat": 29.428095, "long": -81.18436499999999}, {"house_number": "19", "road": "Seward Trail East", "city": "Palm Coast", "state": "Florida", "postcode": "32164", "lat": 29.42227499999999, "long": -81.18048999999999}, {"house_number": "5", "road": "Seward Trail East", "city": "Palm Coast", "state": "Florida", "postcode": "32164", "lat": 29.420888499999993, "long": -81.18000199999999}, {"house_number": "55", "road": "Sea Spiral Path", "city": "Palm Coast", "state": "Florida", "postcode": "32164", "lat": 29.42778904983769, "long": -81.18550110519932}, {"house_number": "8", "road": "Sea Spiral Path", "city": "Palm Coast", "state": "Florida", "postcode": "32164", "lat": 29.427474999999987, "long": -81.18664999999999}, {"house_number": "5", "road": "Sea Spiral Path", "city": "Palm Coast", "state": "Florida", "postcode": "32164", "lat": 29.42729137576137, "long": -81.18734035823478}, {"house_number": "55", "road": "Zinzendorf Place", "city": "Palm Coast", "state": "Florida", "postcode": "32164", "lat": 29.45744503763618, "long": -81.22054485599715}, {"house_number": "7", "road": "Zinzendorf Place", "city": "Palm Coast", "state": "Florida", "postcode": "32164", "lat": 29.456829999999993, "long": -81.22037499999999}, {"house_number": "1", "road": "Zinzendorf Place", "city": "Palm Coast", "state": "Florida", "postcode": "32164", "lat": 29.45622115042537, "long": -81.22020524076561}, {"house_number": "809", "road": "North Central Avenue", "city": "Flagler Beach", "state": "Florida", "postcode": "32136", "lat": 29.485800147696096, "long": -81.13071973123284}, {"house_number": "12525", "road": "FL 100", "city": "Bunnell", "state": "Florida", "postcode": "32110", "lat": 29.485596176384952, "long": -81.46140443119556}, {"house_number": "12549", "road": "FL 100", "city": "Bunnell", "state": "Florida", "postcode": "32110", "lat": 29.48787683516183, "long": -81.46603408077003}, {"house_number": "248", "road": "North 8th Street", "city": "Flagler Beach", "state": "Florida", "postcode": "32136", "lat": 29.48547467552406, "long": -81.13093987661647}, {"house_number": "33", "road": "Elias Lane", "city": "Palm Coast", "state": "Florida", "postcode": "32164", "lat": 29.483709392376763, "long": -81.22938470826871}, {"house_number": "14", "road": "Edith Lane", "city": "Palm Coast", "state": "Florida", "postcode": "32164", "lat": 29.484724999999994, "long": -81.24589999999999}, {"house_number": "4", "road": "Elias Lane", "city": "Palm Coast", "state": "Florida", "postcode": "32164", "lat": 29.485057347458188, "long": -81.2304833818705}, {"house_number": "36", "road": "Elias Lane", "city": "Palm Coast", "state": "Florida", "postcode": "32164", "lat": 29.48429999999999, "long": -81.2294}, {"house_number": "71", "road": "Elias Lane", "city": "Palm Coast", "state": "Florida", "postcode": "32164", "lat": 29.485164797439673, "long": -81.22951055763896}, {"house_number": "8", "road": "Elias Lane", "city": "Palm Coast", "state": "Florida", "postcode": "32164", "lat": 29.484315, "long": -81.23033499999998}, {"house_number": "10065", "road": "W. Highway 100", "city": "Bunnell", "state": "Florida", "postcode": "32110", "lat": 29.48096999999999, "long": -81.42175}, {"house_number": "437", "road": "Opossum Lane", "city": "Bunnell", "state": "Florida", "postcode": "32110", "lat": 29.48139150477171, "long": -81.27816304251537}, {"house_number": "152", "road": "Lehigh Avenue", "city": "Flagler Beach", "state": "Florida", "postcode": "32136", "lat": 29.480755039086866, "long": -81.13576991876168}, {"house_number": "145", "road": "Lehigh Avenue", "city": "Flagler Beach", "state": "Florida", "postcode": "32136", "lat": 29.480929999999987, "long": -81.13584999999998}, {"house_number": "179", "road": "Lehigh Avenue", "city": "Flagler Beach", "state": "Florida", "postcode": "32136", "lat": 29.481340110526624, "long": -81.13603475899136}, {"house_number": "179", "road": "Lehigh Avenue", "city": "Flagler Beach", "state": "Florida", "postcode": "32136", "lat": 29.481340110526624, "long": -81.13603475899136}, {"house_number": "8", "road": "Eastman Lane", "city": "Palm Coast", "state": "Florida", "postcode": "32164", "lat": 29.480557522441487, "long": -81.22371657419035}, {"house_number": "55", "road": "Eastman Lane", "city": "Palm Coast", "state": "Florida", "postcode": "32164", "lat": 29.480642379377567, "long": -81.22183995736142}, {"house_number": "49", "road": "McCormick Drive", "city": "Palm Coast", "state": "Florida", "postcode": "32164", "lat": 29.47714999704492, "long": -81.19844504193176}, {"house_number": "1450", "road": "US 1", "city": "Bunnell", "state": "Florida", "postcode": "32110", "lat": 29.47580999999999, "long": -81.26699249999999}, {"house_number": "13734", "road": "FL 100", "city": "Bunnell", "state": "Florida", "postcode": "32110", "lat": 29.494556569407795, "long": -81.47892037791802}, {"house_number": "66", "road": "New Leatherwood Drive", "city": "Palm Coast", "state": "Florida", "postcode": "32137", "lat": 29.51525625127709, "long": -81.19160826626316}, {"house_number": "199", "road": "Golf View Court", "city": "Bunnell", "state": "Florida", "postcode": "32110", "lat": 29.483804472615983, "long": -81.26344720935636}, {"house_number": "365", "road": "Grand Reserve Drive", "city": "Bunnell", "state": "Florida", "postcode": "32110", "lat": 29.482005868072804, "long": -81.25400454064474}, {"house_number": "3351", "road": "Steel Rail Drive", "city": "Bunnell", "state": "Florida", "postcode": "32110", "lat": 29.50696289841522, "long": -81.27029425244628}, {"house_number": "348", "road": "Conservatory Drive", "city": "Palm Coast", "state": "Florida", "postcode": "32137", "lat": 29.614294310277444, "long": -81.236699825525}, {"house_number": "148", "road": "Golf View Court", "city": "Bunnell", "state": "Florida", "postcode": "32110", "lat": 29.483976599142707, "long": -81.26109930652122}, {"house_number": "150", "road": "Lakeside Court", "city": "Bunnell", "state": "Florida", "postcode": "32110", "lat": 29.48559715268319, "long": -81.2603248786126}, {"house_number": "150", "road": "Fairway Court", "city": "Bunnell", "state": "Florida", "postcode": "32110", "lat": 29.485699248564533, "long": -81.25880858535226}, {"house_number": "19", "road": "New Leatherwood Drive", "city": "Palm Coast", "state": "Florida", "postcode": "32137", "lat": 29.508748126863512, "long": -81.18952435257162}, {"house_number": "351", "road": "Hibiscous Way", "city": "Palm Coast", "state": "Florida", "postcode": "32137", "lat": 29.611958510903207, "long": -81.23843457126203}, {"house_number": "271", "road": "Conservatory Drive", "city": "Palm Coast", "state": "Florida", "postcode": "32137", "lat": 29.608849826725994, "long": -81.23650515528689}, {"house_number": "449", "road": "Bourganville Drive", "city": "Palm Coast", "state": "Florida", "postcode": "32137", "lat": 29.616479378604165, "long": -81.2383055024754}, {"house_number": "472", "road": "Sweetgum Lane", "city": "Palm Coast", "state": "Florida", "postcode": "32137", "lat": 29.621492823731696, "long": -81.23841689036298}, {"house_number": "472", "road": "Sweetgum Lane", "city": "Palm Coast", "state": "Florida", "postcode": "32137", "lat": 29.621492823731696, "long": -81.23841689036298}, {"house_number": "5", "road": "Ashford Lakes Drive", "city": "Ormond Beach", "state": "Florida", "postcode": "32174", "lat": 29.26733026679537, "long": -81.15050460604145}, {"house_number": "24", "road": "Ashford Lakes Drive", "city": "Ormond Beach", "state": "Florida", "postcode": "32174", "lat": 29.269459005407214, "long": -81.15259837955853}, {"house_number": "42", "road": "Ashford Lakes Drive", "city": "Ormond Beach", "state": "Florida", "postcode": "32174", "lat": 29.271530205636374, "long": -81.15380130364524}, {"house_number": "76", "road": "Ashford Lakes Drive", "city": "Ormond Beach", "state": "Florida", "postcode": "32174", "lat": 29.273220463542653, "long": -81.15186339068799}, {"house_number": "149", "road": "South Coopers Hawk Way", "city": "Palm Coast", "state": "Florida", "postcode": "32164", "lat": 29.44143976010019, "long": -81.1897972200527}, {"house_number": "153", "road": "South Hummingbird Place", "city": "Palm Coast", "state": "Florida", "postcode": "32164", "lat": 29.44255136365295, "long": -81.18720915823982}, {"house_number": "210", "road": "Conservatory Drive", "city": "Palm Coast", "state": "Florida", "postcode": "32137", "lat": 29.604319615302394, "long": -81.2332233127411}, {"house_number": "849", "road": "Loblolly Court", "city": "Palm Coast", "state": "Florida", "postcode": "32137", "lat": 29.605504593814977, "long": -81.23396874372982}, {"house_number": "749", "road": "Mahogany Run", "city": "Palm Coast", "state": "Florida", "postcode": "32137", "lat": 29.604197238683586, "long": -81.23034167073426}, {"house_number": "230", "road": "Conservatory Drive", "city": "Palm Coast", "state": "Florida", "postcode": "32137", "lat": 29.60636622354185, "long": -81.23502817696398}, {"house_number": "648", "road": "Mahogany Run", "city": "Palm Coast", "state": "Florida", "postcode": "32137", "lat": 29.607306490159292, "long": -81.23351175362313}, {"house_number": "50", "road": "Ashford Lakes Drive", "city": "Ormond Beach", "state": "Florida", "postcode": "32174", "lat": 29.27277245353172, "long": -81.15367974346583}, {"house_number": "49", "road": "State Place", "city": "Palm Coast", "state": "Florida", "postcode": "32164", "lat": 29.417200499999993, "long": -81.18386849999999}, {"house_number": "2", "road": "New Leatherwood Drive", "city": "Palm Coast", "state": "Florida", "postcode": "32137", "lat": 29.506566499999995, "long": -81.188549}, {"house_number": "426", "road": "Sweetgum Lane", "city": "Palm Coast", "state": "Florida", "postcode": "32137", "lat": 29.61839141157861, "long": -81.2374317760771}, {"house_number": "148", "road": "South Starling Drive", "city": "Palm Coast", "state": "Florida", "postcode": "32164", "lat": 29.442399178421407, "long": -81.1916524835839}, {"house_number": "146", "road": "Vireo Drive", "city": "Palm Coast", "state": "Florida", "postcode": "32164", "lat": 29.444251499999993, "long": -81.186691}, {"house_number": "102", "road": "Golf View Court", "city": "Bunnell", "state": "Florida", "postcode": "32110", "lat": 29.484255717749633, "long": -81.25905997648208}, {"house_number": "53", "road": "Holly Court", "city": "Palm Coast", "state": "Florida", "postcode": "32137", "lat": 29.586146499999987, "long": -81.19783349999999}, {"house_number": "251", "road": "North Daytona Avenue", "city": "Flagler Beach", "state": "Florida", "postcode": "32136", "lat": 29.502042, "long": -81.139209}, {"house_number": "558", "road": "Sweetgum Lane", "city": "Palm Coast", "state": "Florida", "postcode": "32137", "lat": 29.62420253024987, "long": -81.24027631838325}, {"house_number": "47", "road": "Wood Cutter Way", "city": "Palm Coast", "state": "Florida", "postcode": "32164", "lat": 29.5310815, "long": -81.25631849999999}, {"house_number": "142", "road": "Masters Circle", "city": "Palm Coast", "state": "Florida", "postcode": "32137", "lat": 29.61877499999999, "long": -81.23703099999997}, {"house_number": "165", "road": "Hickory Court", "city": "Palm Coast", "state": "Florida", "postcode": "32137", "lat": 29.607000999999993, "long": -81.231754}, {"house_number": "1249", "road": "Belle Terre Parkway", "city": "Palm Coast", "state": "Florida", "postcode": "32164", "lat": 29.49330374707876, "long": -81.21992734752891}, {"house_number": "248", "road": "Aspen Way", "city": "Palm Coast", "state": "Florida", "postcode": "32137", "lat": 29.62475226514174, "long": -81.23969308823916}, {"house_number": "120", "road": "Cypress Edge Drive", "city": "Palm Coast", "state": "Florida", "postcode": "32164", "lat": 29.552804671631137, "long": -81.22419665434056}, {"house_number": "67", "road": "Seven Wonders Trail", "city": "Palm Coast", "state": "Florida", "postcode": "32164", "lat": 29.43399367929896, "long": -81.17374105490134}, {"house_number": "76", "road": "Zephyr Lily Trail", "city": "Palm Coast", "state": "Florida", "postcode": "32164", "lat": 29.470049907776403, "long": -81.22758471422424}, {"house_number": "177", "road": "Riverview Bend North", "city": "Palm Coast", "state": "Florida", "postcode": "32137", "lat": 29.586288156863223, "long": -81.19829710065966}, {"house_number": "177", "road": "Riverview Bend North", "city": "Palm Coast", "state": "Florida", "postcode": "32137", "lat": 29.586288156863223, "long": -81.19829710065966}, {"house_number": "177", "road": "Riverview Bend North", "city": "Palm Coast", "state": "Florida", "postcode": "32137", "lat": 29.586288156863223, "long": -81.19829710065966}, {"house_number": "177", "road": "Riverview Bend North", "city": "Palm Coast", "state": "Florida", "postcode": "32137", "lat": 29.586288156863223, "long": -81.19829710065966}, {"house_number": "177", "road": "Riverview Bend North", "city": "Palm Coast", "state": "Florida", "postcode": "32137", "lat": 29.586288156863223, "long": -81.19829710065966}, {"house_number": "177", "road": "Riverview Bend North", "city": "Palm Coast", "state": "Florida", "postcode": "32137", "lat": 29.586288156863223, "long": -81.19829710065966}, {"house_number": "177", "road": "Riverview Bend North", "city": "Palm Coast", "state": "Florida", "postcode": "32137", "lat": 29.586288156863223, "long": -81.19829710065966}, {"house_number": "177", "road": "Riverview Bend North", "city": "Palm Coast", "state": "Florida", "postcode": "32137", "lat": 29.586288156863223, "long": -81.19829710065966}, {"house_number": "177", "road": "Riverview Bend North", "city": "Palm Coast", "state": "Florida", "postcode": "32137", "lat": 29.586288156863223, "long": -81.19829710065966}, {"house_number": "177", "road": "Riverview Bend North", "city": "Palm Coast", "state": "Florida", "postcode": "32137", "lat": 29.586288156863223, "long": -81.19829710065966}, {"house_number": "181", "road": "10th Street", "city": "Bunnell", "state": "Florida", "postcode": "32110", "lat": 29.464319524441297, "long": -81.26220169275888}, {"house_number": "52", "road": "Grandview Drive", "city": "Palm Coast", "state": "Florida", "postcode": "32137", "lat": 29.52688516506481, "long": -81.16436098104724}, {"house_number": "68", "road": "River Landing Drive", "city": "Palm Coast", "state": "Florida", "postcode": "32137", "lat": 29.536559999999998, "long": -81.16716849999999}, {"house_number": "25", "road": "River Landing Drive", "city": "Palm Coast", "state": "Florida", "postcode": "32137", "lat": 29.53691908371701, "long": -81.16711896091337}, {"house_number": "4", "road": "Mid Oaks Circle", "city": "Palm Coast", "state": "Florida", "postcode": "32137", "lat": 29.56370449999999, "long": -81.1937095}, {"house_number": "246", "road": "Ocean Marina Drive", "city": "Flagler Beach", "state": "Florida", "postcode": "32136", "lat": 29.509035635590017, "long": -81.1424985521001}, {"house_number": "3", "road": "Lake Charles Place", "city": "Palm Coast", "state": "Florida", "postcode": "32137", "lat": 29.619560003318703, "long": -81.26659478911432}, {"house_number": "8", "road": "Lake Charles Place", "city": "Palm Coast", "state": "Florida", "postcode": "32137", "lat": 29.620204999999988, "long": -81.266605}, {"house_number": "1055", "road": "Deen Road", "city": "Bunnell", "state": "Florida", "postcode": "32110", "lat": 29.467048672954135, "long": -81.27513543601647}, {"house_number": "1002", "road": "Deen Road", "city": "Bunnell", "state": "Florida", "postcode": "32110", "lat": 29.46711299805029, "long": -81.27226895013126}, {"house_number": "1008", "road": "Deen Road", "city": "Bunnell", "state": "Florida", "postcode": "32110", "lat": 29.467095067254707, "long": -81.27297250082442}, {"house_number": "2829", "road": "North Old Dixie Highway", "city": "Palm Coast", "state": "Florida", "postcode": "32110", "lat": 29.509410291235376, "long": -81.30954066091584}, {"house_number": "41", "road": "East Twin Lakes Road", "city": "Bunnell", "state": "Florida", "postcode": "32110", "lat": 29.360809500000002, "long": -81.17737599999998}]