[{"house_number": "294", "road": "Golf Club Drive", "city": "Key West", "state": "Florida", "postcode": "33040", "lat": 24.57481440829886, "long": -81.7459756660405}, {"house_number": "294", "road": "Golf Club Drive", "city": "Key West", "state": "Florida", "postcode": "33040", "lat": 24.57481440829886, "long": -81.7459756660405}, {"house_number": "30251", "road": "Poinciana Road", "city": "Big Pine Key", "state": "Florida", "postcode": "33043", "lat": 24.687474136781727, "long": -81.36096575288963}, {"house_number": "30251", "road": "Poinciana Road", "city": "Big Pine Key", "state": "Florida", "postcode": "33043", "lat": 24.687474136781727, "long": -81.36096575288963}, {"house_number": "88", "road": "Sir Francis Drake Drive", "city": "Key Largo", "state": "Florida", "postcode": "33037", "lat": 25.08441931353135, "long": -80.4537731562396}, {"house_number": "24", "road": "Buccaneer Drive", "city": "Key Largo", "state": "Florida", "postcode": "33037", "lat": 25.085503497905677, "long": -80.45386370805615}, {"house_number": "50", "road": "Atlantic Lane", "city": "Islamorada", "state": "Florida", "postcode": "33036", "lat": 24.872024896017674, "long": -80.70277522604007}, {"house_number": "51", "road": "Lycaloma Avenue", "city": "Key Largo", "state": "Florida", "postcode": "33037", "lat": 25.04319629384523, "long": -80.49336765694251}, {"house_number": "209", "road": "Angela Street", "city": "Key West", "state": "Florida", "postcode": "33040", "lat": 24.551937670812478, "long": -81.80438792523492}, {"house_number": "735", "road": "North Silver Circle", "city": "Key Largo", "state": "Florida", "postcode": "33037", "lat": 25.056529937885067, "long": -80.47809534878773}, {"house_number": "134", "road": "Seminole Boulevard", "city": "Islamorada", "state": "Florida", "postcode": "33070", "lat": 24.985869134562293, "long": -80.5465244274656}, {"house_number": "53", "road": "Avacado Street", "city": "Islamorada", "state": "Florida", "postcode": "33036", "lat": 24.93036223465838, "long": -80.62269354144071}, {"house_number": "53", "road": "Avacado Street", "city": "Islamorada", "state": "Florida", "postcode": "33036", "lat": 24.93036223465838, "long": -80.62269354144071}, {"house_number": "53", "road": "Avacado Street", "city": "Islamorada", "state": "Florida", "postcode": "33036", "lat": 24.93036223465838, "long": -80.62269354144071}, {"house_number": "53", "road": "Avacado Street", "city": "Islamorada", "state": "Florida", "postcode": "33036", "lat": 24.93036223465838, "long": -80.62269354144071}, {"house_number": "149", "road": "North Drive", "city": "Key Largo", "state": "Florida", "postcode": "33037", "lat": 25.046308473588876, "long": -80.49327348295168}, {"house_number": "48", "road": "Pine Avenue", "city": "Key Largo", "state": "Florida", "postcode": "33037", "lat": 25.042476849939383, "long": -80.49360668893746}, {"house_number": "111", "road": "W C Avenue", "city": "Key Largo", "state": "Florida", "postcode": "33037", "lat": 25.114574505606033, "long": -80.42598204793866}, {"house_number": "1249", "road": "Bay Street", "city": "Key West", "state": "Florida", "postcode": "33040", "lat": 24.55921865555249, "long": -81.78228494177147}, {"house_number": "11555", "road": "6th Avenue Ocean", "city": "Marathon", "state": "Florida", "postcode": "33050", "lat": 24.72768725461148, "long": -81.03210009754963}, {"house_number": "59", "road": "Buccaneer Drive", "city": "Key Largo", "state": "Florida", "postcode": "33037", "lat": 25.085922069678944, "long": -80.453865775702}, {"house_number": "51", "road": "Edward Place", "city": "Key Largo", "state": "Florida", "postcode": "33037", "lat": 25.115681809326688, "long": -80.41919260796465}, {"house_number": "3658", "road": "Sunrise Drive", "city": "Key West", "state": "Florida", "postcode": "33040", "lat": 24.563811797347896, "long": -81.75489821975972}, {"house_number": "51", "road": "Atlantic Boulevard", "city": "Key Largo", "state": "Florida", "postcode": "33037", "lat": 25.09194181586633, "long": -80.43962224186572}, {"house_number": "148", "road": "Apache Street", "city": "Islamorada", "state": "Florida", "postcode": "33070", "lat": 24.986853442478505, "long": -80.54974592520628}, {"house_number": "48", "road": "Park Road", "city": "Islamorada", "state": "Florida", "postcode": "33036", "lat": 24.936815988373347, "long": -80.61597322964532}, {"house_number": "3273", "road": "Flagler Avenue", "city": "Key West", "state": "Florida", "postcode": "33040", "lat": 24.562358999999997, "long": -81.762532}, {"house_number": "2551", "road": "Flagler Avenue", "city": "Key West", "state": "Florida", "postcode": "33040", "lat": 24.55879835524452, "long": -81.77338203755069}, {"house_number": "2612", "road": "Flagler Avenue", "city": "Key West", "state": "Florida", "postcode": "33040", "lat": 24.559072985951783, "long": -81.77252842877883}, {"house_number": "1850", "road": "107th Street Gulf", "city": "Marathon", "state": "Florida", "postcode": "33050", "lat": 24.73375001254785, "long": -81.03923521258234}, {"house_number": "1850", "road": "107th Street Gulf", "city": "Marathon", "state": "Florida", "postcode": "33050", "lat": 24.73375001254785, "long": -81.03923521258234}, {"house_number": "1899", "road": "109th Street Gulf", "city": "Marathon", "state": "Florida", "postcode": "33050", "lat": 24.734435450478355, "long": -81.03921008275152}, {"house_number": "89151", "road": "Old Overseas Highway", "city": "Islamorada", "state": "Florida", "postcode": "33070", "lat": 24.98226554324345, "long": -80.54661548835965}, {"house_number": "89151", "road": "Old Overseas Highway", "city": "Islamorada", "state": "Florida", "postcode": "33070", "lat": 24.98226554324345, "long": -80.54661548835965}, {"house_number": "89151", "road": "Old Overseas Highway", "city": "Islamorada", "state": "Florida", "postcode": "33070", "lat": 24.98226554324345, "long": -80.54661548835965}, {"house_number": "88987", "road": "Old Overseas Highway", "city": "Islamorada", "state": "Florida", "postcode": "33070", "lat": 24.981813135753413, "long": -80.54702414931508}, {"house_number": "88987", "road": "Old Overseas Highway", "city": "Islamorada", "state": "Florida", "postcode": "33070", "lat": 24.981813135753413, "long": -80.54702414931508}, {"house_number": "60", "road": "Garden Cove Drive", "city": "Key Largo", "state": "Florida", "postcode": "33037", "lat": 25.170862600141238, "long": -80.36988563804779}, {"house_number": "59743", "road": "Overseas Highway", "city": "Marathon", "state": "Florida", "postcode": "33050", "lat": 24.77323722898085, "long": -80.93407610202765}, {"house_number": "98237", "road": "Overseas Highway", "city": "Key Largo", "state": "Florida", "postcode": "33037", "lat": 25.080875991614846, "long": -80.45596899247792}, {"house_number": "98237", "road": "Overseas Highway", "city": "Key Largo", "state": "Florida", "postcode": "33037", "lat": 25.080875991614846, "long": -80.45596899247792}, {"house_number": "1446", "road": "Fanny Key Road", "city": "Marathon", "state": "Florida", "postcode": "33050", "lat": 24.712380255508748, "long": -81.10941222231155}, {"house_number": "3896", "road": "Overseas Highway", "city": "Marathon", "state": "Florida", "postcode": "33050", "lat": 24.712482716690985, "long": -81.08972992027536}, {"house_number": "3896", "road": "Overseas Highway", "city": "Marathon", "state": "Florida", "postcode": "33050", "lat": 24.712482716690985, "long": -81.08972992027536}, {"house_number": "648", "road": "116th Street Ocean", "city": "Marathon", "state": "Florida", "postcode": "33050", "lat": 24.727866586706117, "long": -81.03190076037808}, {"house_number": "102960", "road": "Overseas Highway", "city": "Key Largo", "state": "Florida", "postcode": "33037", "lat": 25.130964555961413, "long": -80.40810165080134}, {"house_number": "94930", "road": "Overseas Highway", "city": "Key Largo", "state": "Florida", "postcode": "33037", "lat": 25.04593815496065, "long": -80.48986712905067}, {"house_number": "94930", "road": "Overseas Highway", "city": "Key Largo", "state": "Florida", "postcode": "33037", "lat": 25.04593815496065, "long": -80.48986712905067}, {"house_number": "105501", "road": "Overseas Highway", "city": "Key Largo", "state": "Florida", "postcode": "33037", "lat": 25.161123206355352, "long": -80.38274964319088}, {"house_number": "105501", "road": "Overseas Highway", "city": "Key Largo", "state": "Florida", "postcode": "33037", "lat": 25.161123206355352, "long": -80.38274964319088}, {"house_number": "149", "road": "Long Key Road", "city": "Key Largo", "state": "Florida", "postcode": "33037", "lat": 25.168595051123983, "long": -80.38096141930922}, {"house_number": "104749", "road": "Overseas Highway", "city": "Key Largo", "state": "Florida", "postcode": "33037", "lat": 25.151724347804997, "long": -80.39065336220943}, {"house_number": "104749", "road": "Overseas Highway", "city": "Key Largo", "state": "Florida", "postcode": "33037", "lat": 25.151724347804997, "long": -80.39065336220943}, {"house_number": "104749", "road": "Overseas Highway", "city": "Key Largo", "state": "Florida", "postcode": "33037", "lat": 25.151724347804997, "long": -80.39065336220943}, {"house_number": "104749", "road": "Overseas Highway", "city": "Key Largo", "state": "Florida", "postcode": "33037", "lat": 25.151724347804997, "long": -80.39065336220943}, {"house_number": "57", "road": "Jones Road", "city": "Key Largo", "state": "Florida", "postcode": "33037", "lat": 25.10109172514342, "long": -80.428923675493}, {"house_number": "31201", "road": "Avenue D", "city": "Big Pine Key", "state": "Florida", "postcode": "33043", "lat": 24.671593485469312, "long": -81.34519007123195}, {"house_number": "31201", "road": "Avenue G", "city": "Big Pine Key", "state": "Florida", "postcode": "33043", "lat": 24.673540032896558, "long": -81.34516162229272}, {"house_number": "1223", "road": "Avenue A", "city": "Big Pine Key", "state": "Florida", "postcode": "33043", "lat": 24.68696737325661, "long": -81.35605037626787}, {"house_number": "58550", "road": "Overseas Highway", "city": "Marathon", "state": "Florida", "postcode": "33050", "lat": 24.763613959212307, "long": -80.94935851849932}, {"house_number": "848", "road": "26th Street Ocean", "city": "Marathon", "state": "Florida", "postcode": "33050", "lat": 24.707628801114296, "long": -81.09918752280467}, {"house_number": "139", "road": "Ocean Bay Drive", "city": "Key Largo", "state": "Florida", "postcode": "33037", "lat": 25.084894525624435, "long": -80.44176507279295}, {"house_number": "95805", "road": "Overseas Highway", "city": "Key Largo", "state": "Florida", "postcode": "33037", "lat": 25.054145662128306, "long": -80.48225723095176}, {"house_number": "95805", "road": "Overseas Highway", "city": "Key Largo", "state": "Florida", "postcode": "33037", "lat": 25.054145662128306, "long": -80.48225723095176}, {"house_number": "81150", "road": "Old State Highway 4A", "city": "Islamorada", "state": "Florida", "postcode": "33036", "lat": 24.910519022315672, "long": -80.64151817848277}, {"house_number": "135", "road": "Ocean Shores Drive", "city": "Key Largo", "state": "Florida", "postcode": "33037", "lat": 25.085374732299183, "long": -80.44285150241585}, {"house_number": "139", "road": "Ocean Shores Drive", "city": "Key Largo", "state": "Florida", "postcode": "33037", "lat": 25.085373473707865, "long": -80.4422014947778}, {"house_number": "75945", "road": "Overseas Highway", "city": "Islamorada", "state": "Florida", "postcode": "33036", "lat": 24.867418661146274, "long": -80.7090008318113}, {"house_number": "75945", "road": "Overseas Highway", "city": "Islamorada", "state": "Florida", "postcode": "33036", "lat": 24.867418661146274, "long": -80.7090008318113}, {"house_number": "125", "road": "North Rolling Hill Road", "city": "Islamorada", "state": "Florida", "postcode": "33070", "lat": 24.980706915576768, "long": -80.5533265604904}, {"house_number": "125", "road": "North Rolling Hill Road", "city": "Islamorada", "state": "Florida", "postcode": "33070", "lat": 24.980706915576768, "long": -80.5533265604904}, {"house_number": "125", "road": "North Rolling Hill Road", "city": "Islamorada", "state": "Florida", "postcode": "33070", "lat": 24.980706915576768, "long": -80.5533265604904}, {"house_number": "54", "road": "Ocean Shores Drive", "city": "Key Largo", "state": "Florida", "postcode": "33037", "lat": 25.08537552237488, "long": -80.44548051699734}, {"house_number": "103800", "road": "Overseas Highway", "city": "Key Largo", "state": "Florida", "postcode": "33037", "lat": 25.139674399079592, "long": -80.400781775609}, {"house_number": "103800", "road": "Overseas Highway", "city": "Key Largo", "state": "Florida", "postcode": "33037", "lat": 25.139674399079592, "long": -80.400781775609}, {"house_number": "89199", "road": "Old Overseas Highway", "city": "Islamorada", "state": "Florida", "postcode": "33070", "lat": 24.985237370674184, "long": -80.54393995203415}, {"house_number": "51", "road": "Horvath Road", "city": "Big Pine Key", "state": "Florida", "postcode": "33043", "lat": 24.66816304881425, "long": -81.36446626634418}, {"house_number": "51", "road": "Horvath Road", "city": "Big Pine Key", "state": "Florida", "postcode": "33043", "lat": 24.66816304881425, "long": -81.36446626634418}, {"house_number": "601", "road": "Ocean Terrace", "city": "Marathon", "state": "Florida", "postcode": "33050", "lat": 24.716616971534787, "long": -81.06694572102785}, {"house_number": "601", "road": "Ocean Terrace", "city": "Marathon", "state": "Florida", "postcode": "33050", "lat": 24.716616971534787, "long": -81.06694572102785}, {"house_number": "601", "road": "Ocean Terrace", "city": "Marathon", "state": "Florida", "postcode": "33050", "lat": 24.716616971534787, "long": -81.06694572102785}, {"house_number": "601", "road": "Ocean Terrace", "city": "Marathon", "state": "Florida", "postcode": "33050", "lat": 24.716616971534787, "long": -81.06694572102785}, {"house_number": "356", "road": "114th Street Ocean", "city": "Marathon", "state": "Florida", "postcode": "33050", "lat": 24.728584032056144, "long": -81.03342865489061}, {"house_number": "3751", "road": "Louisa Street", "city": "Marathon", "state": "Florida", "postcode": "33050", "lat": 24.713492439604373, "long": -81.09170435442768}, {"house_number": "3751", "road": "Louisa Street", "city": "Marathon", "state": "Florida", "postcode": "33050", "lat": 24.713492439604373, "long": -81.09170435442768}, {"house_number": "3751", "road": "Louisa Street", "city": "Marathon", "state": "Florida", "postcode": "33050", "lat": 24.713492439604373, "long": -81.09170435442768}, {"house_number": "3751", "road": "Louisa Street", "city": "Marathon", "state": "Florida", "postcode": "33050", "lat": 24.713492439604373, "long": -81.09170435442768}, {"house_number": "3751", "road": "Louisa Street", "city": "Marathon", "state": "Florida", "postcode": "33050", "lat": 24.713492439604373, "long": -81.09170435442768}, {"house_number": "3751", "road": "Louisa Street", "city": "Marathon", "state": "Florida", "postcode": "33050", "lat": 24.713492439604373, "long": -81.09170435442768}, {"house_number": "3751", "road": "Louisa Street", "city": "Marathon", "state": "Florida", "postcode": "33050", "lat": 24.713492439604373, "long": -81.09170435442768}, {"house_number": "74580", "road": "Overseas Highway", "city": "Islamorada", "state": "Florida", "postcode": "33036", "lat": 24.857249692806832, "long": -80.72728384480989}, {"house_number": "74580", "road": "Overseas Highway", "city": "Islamorada", "state": "Florida", "postcode": "33036", "lat": 24.857249692806832, "long": -80.72728384480989}, {"house_number": "103506", "road": "Overseas Highway", "city": "Key Largo", "state": "Florida", "postcode": "33037", "lat": 25.13726798501048, "long": -80.40280872559902}, {"house_number": "103506", "road": "Overseas Highway", "city": "Key Largo", "state": "Florida", "postcode": "33037", "lat": 25.13726798501048, "long": -80.40280872559902}, {"house_number": "77499", "road": "Overseas Highway", "city": "Islamorada", "state": "Florida", "postcode": "33036", "lat": 24.881443860266355, "long": -80.69228172160085}, {"house_number": "77499", "road": "Overseas Highway", "city": "Islamorada", "state": "Florida", "postcode": "33036", "lat": 24.881443860266355, "long": -80.69228172160085}, {"house_number": "94930", "road": "Overseas Highway", "city": "Key Largo", "state": "Florida", "postcode": "33037", "lat": 25.04525813436977, "long": -80.49050010135547}, {"house_number": "102028", "road": "Overseas Highway", "city": "Key Largo", "state": "Florida", "postcode": "33037", "lat": 25.120308004733, "long": -80.41705851202374}, {"house_number": "1249", "road": "Halsey Drive", "city": "Key West", "state": "Florida", "postcode": "33040", "lat": 24.563983284176786, "long": -81.78671945505656}, {"house_number": "28469", "road": "Gulf Boulevard", "city": "Big Pine Key", "state": "Florida", "postcode": "33043", "lat": 24.720224231456612, "long": -81.38830203749275}, {"house_number": "28201", "road": "Gulf Boulevard", "city": "Big Pine Key", "state": "Florida", "postcode": "33043", "lat": 24.720220437487544, "long": -81.3925375355454}, {"house_number": "31200", "road": "Avenue E", "city": "Big Pine Key", "state": "Florida", "postcode": "33043", "lat": 24.672238463266968, "long": -81.34517599215735}, {"house_number": "89538", "road": "Old Overseas Highway", "city": "Islamorada", "state": "Florida", "postcode": "33070", "lat": 24.98932128786935, "long": -80.54070415914406}, {"house_number": "89538", "road": "Old Overseas Highway", "city": "Islamorada", "state": "Florida", "postcode": "33070", "lat": 24.98932128786935, "long": -80.54070415914406}, {"house_number": "148", "road": "List Street", "city": "Islamorada", "state": "Florida", "postcode": "33036", "lat": 24.923838314304625, "long": -80.62942907552873}, {"house_number": "103349", "road": "Overseas Highway", "city": "Key Largo", "state": "Florida", "postcode": "33037", "lat": 25.134802019925875, "long": -80.40487584024233}, {"house_number": "95430", "road": "Overseas Highway", "city": "Key Largo", "state": "Florida", "postcode": "33037", "lat": 25.050491220343556, "long": -80.48564379079777}, {"house_number": "95430", "road": "Overseas Highway", "city": "Key Largo", "state": "Florida", "postcode": "33037", "lat": 25.050491220343556, "long": -80.48564379079777}, {"house_number": "161", "road": "Ocean Drive", "city": "Key Largo", "state": "Florida", "postcode": "33037", "lat": 25.096803419014115, "long": -80.43215334130463}, {"house_number": "161", "road": "Ocean Drive", "city": "Key Largo", "state": "Florida", "postcode": "33037", "lat": 25.096803419014115, "long": -80.43215334130463}, {"house_number": "75154", "road": "Overseas Highway", "city": "Islamorada", "state": "Florida", "postcode": "33036", "lat": 24.86115164296212, "long": -80.71907283087567}, {"house_number": "75154", "road": "Overseas Highway", "city": "Islamorada", "state": "Florida", "postcode": "33036", "lat": 24.86115164296212, "long": -80.71907283087567}, {"house_number": "80652", "road": "Old State Highway 4A", "city": "Islamorada", "state": "Florida", "postcode": "33036", "lat": 24.90967254823055, "long": -80.64237412431687}, {"house_number": "80795", "road": "Old State Highway 4A", "city": "Islamorada", "state": "Florida", "postcode": "33036", "lat": 24.908564259275675, "long": -80.64428337583537}, {"house_number": "80795", "road": "Old State Highway 4A", "city": "Islamorada", "state": "Florida", "postcode": "33036", "lat": 24.908564259275675, "long": -80.64428337583537}, {"house_number": "80795", "road": "Old State Highway 4A", "city": "Islamorada", "state": "Florida", "postcode": "33036", "lat": 24.908564259275675, "long": -80.64428337583537}, {"house_number": "80795", "road": "Old State Highway 4A", "city": "Islamorada", "state": "Florida", "postcode": "33036", "lat": 24.908564259275675, "long": -80.64428337583537}, {"house_number": "80795", "road": "Old State Highway 4A", "city": "Islamorada", "state": "Florida", "postcode": "33036", "lat": 24.908564259275675, "long": -80.64428337583537}, {"house_number": "1395", "road": "Halsey Drive", "city": "Key West", "state": "Florida", "postcode": "33040", "lat": 24.563709907879318, "long": -81.78421937994885}, {"house_number": "549", "road": "Elizabeth Street", "city": "Key West", "state": "Florida", "postcode": "33040", "lat": 24.556958612695457, "long": -81.80003900006335}, {"house_number": "37", "road": "Key Haven Road", "city": "Key West", "state": "Florida", "postcode": "33040", "lat": 24.579112941858753, "long": -81.73496174167497}, {"house_number": "115", "road": "Ocean Shores Drive", "city": "Key Largo", "state": "Florida", "postcode": "33037", "lat": 25.085376413702402, "long": -80.44409599899667}, {"house_number": "28450", "road": "Kyle Boulevard", "city": "Big Pine Key", "state": "Florida", "postcode": "33043", "lat": 24.723727799454608, "long": -81.38829248052572}, {"house_number": "103450", "road": "Overseas Highway", "city": "Key Largo", "state": "Florida", "postcode": "33037", "lat": 25.13624032689682, "long": -80.40367067073487}, {"house_number": "31201", "road": "Avenue F", "city": "Big Pine Key", "state": "Florida", "postcode": "33043", "lat": 24.67289307302352, "long": -81.34516853572998}, {"house_number": "1120", "road": "Gordon Drive", "city": "Big Pine Key", "state": "Florida", "postcode": "33043", "lat": 24.68555923878218, "long": -81.35496705443113}, {"house_number": "31201", "road": "Avenue C", "city": "Big Pine Key", "state": "Florida", "postcode": "33043", "lat": 24.670948027615495, "long": -81.34519899600001}, {"house_number": "1546", "road": "Tunney Court", "city": "Key West", "state": "Florida", "postcode": "33040", "lat": 24.5765333216142, "long": -81.77860535877129}, {"house_number": "143", "road": "Gumbo Limbo Lane", "city": "Islamorada", "state": "Florida", "postcode": "33070", "lat": 24.981972451584944, "long": -80.55267290616449}, {"house_number": "87890", "road": "Old Overseas Highway", "city": "Islamorada", "state": "Florida", "postcode": "33036", "lat": 24.96897063306372, "long": -80.55858159640796}, {"house_number": "87865", "road": "Old Overseas Highway", "city": "Islamorada", "state": "Florida", "postcode": "33036", "lat": 24.96807792886498, "long": -80.5593867141408}, {"house_number": "8403", "road": "Gulf of Mexico Boulevard", "city": "Marathon", "state": "Florida", "postcode": "33050", "lat": 24.73321061134557, "long": -81.0295731570521}, {"house_number": "8403", "road": "Gulf of Mexico Boulevard", "city": "Marathon", "state": "Florida", "postcode": "33050", "lat": 24.73321061134557, "long": -81.0295731570521}, {"house_number": "8403", "road": "Gulf of Mexico Boulevard", "city": "Marathon", "state": "Florida", "postcode": "33050", "lat": 24.73321061134557, "long": -81.0295731570521}, {"house_number": "8403", "road": "Gulf of Mexico Boulevard", "city": "Marathon", "state": "Florida", "postcode": "33050", "lat": 24.73321061134557, "long": -81.0295731570521}, {"house_number": "8403", "road": "Gulf of Mexico Boulevard", "city": "Marathon", "state": "Florida", "postcode": "33050", "lat": 24.73321061134557, "long": -81.0295731570521}, {"house_number": "8403", "road": "Gulf of Mexico Boulevard", "city": "Marathon", "state": "Florida", "postcode": "33050", "lat": 24.73321061134557, "long": -81.0295731570521}, {"house_number": "8403", "road": "Gulf of Mexico Boulevard", "city": "Marathon", "state": "Florida", "postcode": "33050", "lat": 24.73321061134557, "long": -81.0295731570521}, {"house_number": "8403", "road": "Gulf of Mexico Boulevard", "city": "Marathon", "state": "Florida", "postcode": "33050", "lat": 24.73321061134557, "long": -81.0295731570521}]