[{"house_number": "551", "road": "Royal Palm Avenue", "city": "Clewiston", "state": "Florida", "postcode": "33440", "lat": 26.758038798746664, "long": -80.93260051670474}, {"house_number": "749", "road": "Commercio Street", "city": "Clewiston", "state": "Florida", "postcode": "33440", "lat": 26.748006501905962, "long": -80.93509912416737}, {"house_number": "1005", "road": "Caribbean Avenue", "city": "Clewiston", "state": "Florida", "postcode": "33440", "lat": 26.757679552779074, "long": -80.94833699512972}, {"house_number": "176", "road": "North Trebol Street", "city": "Montura", "state": "Florida", "postcode": "33440", "lat": 26.641563503440807, "long": -81.0894817280421}, {"house_number": "601", "road": "West Pasadena Avenue", "city": "Clewiston", "state": "Florida", "postcode": "33440", "lat": 26.75498199999999, "long": -80.941958}, {"house_number": "1000", "road": "East Fort Thompson Avenue", "city": "LaBelle", "state": "Florida", "postcode": "33935", "lat": 26.76369749804323, "long": -81.42455439442995}, {"house_number": "1000", "road": "East Fort Thompson Avenue", "city": "LaBelle", "state": "Florida", "postcode": "33935", "lat": 26.76369749804323, "long": -81.42455439442995}, {"house_number": "799", "road": "East Fort Thompson Avenue", "city": "LaBelle", "state": "Florida", "postcode": "33935", "lat": 26.765874552904393, "long": -81.42579052602021}, {"house_number": "648", "road": "East Fort Thompson Avenue", "city": "LaBelle", "state": "Florida", "postcode": "33935", "lat": 26.765997499999994, "long": -81.42773199999999}, {"house_number": "50", "road": "North Bridge Street", "city": "LaBelle", "state": "Florida", "postcode": "33935", "lat": 26.764145999999993, "long": -81.43738899999998}, {"house_number": "50", "road": "North Bridge Street", "city": "LaBelle", "state": "Florida", "postcode": "33935", "lat": 26.764145999999993, "long": -81.43738899999998}, {"house_number": "275", "road": "Hall Street", "city": "LaBelle", "state": "Florida", "postcode": "33935", "lat": 26.758102507079357, "long": -81.43985660511325}, {"house_number": "528", "road": "South Davis Street", "city": "LaBelle", "state": "Florida", "postcode": "33935", "lat": 26.754312499999987, "long": -81.42454499999998}, {"house_number": "578", "road": "South Davis Street", "city": "LaBelle", "state": "Florida", "postcode": "33935", "lat": 26.753641007346715, "long": -81.42453260749008}, {"house_number": "799", "road": "Ashley Lane", "city": "LaBelle", "state": "Florida", "postcode": "33935", "lat": 26.75397699999999, "long": -81.42525649999999}, {"house_number": "274", "road": "South Bridge Street", "city": "LaBelle", "state": "Florida", "postcode": "33935", "lat": 26.758725502262656, "long": -81.43734410252199}, {"house_number": "250", "road": "Camino Real Boulevard", "city": "Montura", "state": "Florida", "postcode": "33440", "lat": 26.643964092672913, "long": -81.08658799159448}, {"house_number": "748", "road": "North Hacienda Street", "city": "Montura", "state": "Florida", "postcode": "33440", "lat": 26.660242008882427, "long": -81.11223460943418}, {"house_number": "548", "road": "North Quebrada Street", "city": "Montura", "state": "Florida", "postcode": "33440", "lat": 26.653002515571266, "long": -81.09586220030329}, {"house_number": "600", "road": "North Olivo Street", "city": "Montura", "state": "Florida", "postcode": "33440", "lat": 26.65285551017672, "long": -81.09990811066189}, {"house_number": "598", "road": "North Lindero Street", "city": "Montura", "state": "Florida", "postcode": "33440", "lat": 26.652793012519115, "long": -81.10598161306467}, {"house_number": "600", "road": "North Isora Street", "city": "Montura", "state": "Florida", "postcode": "33440", "lat": 26.65276951070567, "long": -81.1100491114077}, {"house_number": "550", "road": "North Jinete Street", "city": "Montura", "state": "Florida", "postcode": "33440", "lat": 26.652781506176513, "long": -81.10801210615924}]