[{"house_number": "12297", "road": "County Line Road", "city": "Spring Hill", "state": "Florida", "postcode": "34609", "lat": 28.434282999999986, "long": -82.51778049999999}, {"house_number": "15781", "road": "Sago Drive", "city": "Spring Hill", "state": "Florida", "postcode": "34604", "lat": 28.511399367997843, "long": -82.46439424752155}, {"house_number": "5111", "road": "Higate Road", "city": "Spring Hill", "state": "Florida", "postcode": "34609", "lat": 28.503770581205035, "long": -82.51922690772088}, {"house_number": "1253", "road": "Hanover Court", "city": "Spring Hill", "state": "Florida", "postcode": "34606", "lat": 28.45235203290893, "long": -82.60061883775181}, {"house_number": "15249", "road": "Dyla Way", "city": "Spring Hill", "state": "Florida", "postcode": "34604", "lat": 28.48435596360157, "long": -82.47198901236555}, {"house_number": "15249", "road": "Dyla Way", "city": "Spring Hill", "state": "Florida", "postcode": "34604", "lat": 28.48435596360157, "long": -82.47198901236555}, {"house_number": "10046", "road": "Olivia Street", "city": "Spring Hill", "state": "Florida", "postcode": "34608", "lat": 28.496509249057116, "long": -82.55951241300656}, {"house_number": "441", "road": "Longwood Drive", "city": "Brooksville", "state": "Florida", "postcode": "34601", "lat": 28.568597558187662, "long": -82.38116689050608}, {"house_number": "7000", "road": "Evergreen Woods Trail", "city": "Spring Hill", "state": "Florida", "postcode": "34608", "lat": 28.53061588723692, "long": -82.51904239402033}, {"house_number": "3450", "road": "Centerwood Avenue", "city": "Spring Hill", "state": "Florida", "postcode": "34606", "lat": 28.483408794441257, "long": -82.60010802184117}, {"house_number": "150", "road": "Barclay Avenue", "city": "Spring Hill", "state": "Florida", "postcode": "34609", "lat": 28.497754769824947, "long": -82.49036571358451}, {"house_number": "3444", "road": "Wispy Court", "city": "Spring Hill", "state": "Florida", "postcode": "34609", "lat": 28.484010401620875, "long": -82.51137921021156}, {"house_number": "4199", "road": "Seadragon Bluff", "city": "Spring Hill", "state": "Florida", "postcode": "34609", "lat": 28.48857499999999, "long": -82.48624199999998}, {"house_number": "4351", "road": "Barclay Avenue", "city": "Spring Hill", "state": "Florida", "postcode": "34609", "lat": 28.49529531030207, "long": -82.48964358729393}, {"house_number": "7231", "road": "Centerwood Avenue", "city": "Spring Hill", "state": "Florida", "postcode": "34606", "lat": 28.482446499999995, "long": -82.60093599999999}, {"house_number": "5099", "road": "Cedar Lane", "city": "Brooksville", "state": "Florida", "postcode": "34601", "lat": 28.50525499999999, "long": -82.3360285}, {"house_number": "16298", "road": "County Line Road", "city": "Spring Hill", "state": "Florida", "postcode": "34610", "lat": 28.433843499999995, "long": -82.550445}, {"house_number": "8412", "road": "Balm Street", "city": "Spring Hill", "state": "Florida", "postcode": "34607", "lat": 28.50539299999999, "long": -82.58882}, {"house_number": "12696", "road": "Wind Chime Court", "city": "Spring Hill", "state": "Florida", "postcode": "34609", "lat": 28.48332826143708, "long": -82.51132492313732}, {"house_number": "4948", "road": "Cardinal Drive", "city": "Ridge Manor", "state": "Florida", "postcode": "33523", "lat": 28.501543310502395, "long": -82.17635940010021}, {"house_number": "4297", "road": "Deltona Boulevard", "city": "Spring Hill", "state": "Florida", "postcode": "34606", "lat": 28.49221649999999, "long": -82.56816649999999}, {"house_number": "6368", "road": "Piedmont Drive", "city": "Spring Hill", "state": "Florida", "postcode": "34606", "lat": 28.461767376481845, "long": -82.61151355827843}, {"house_number": "6286", "road": "Piedmont Drive", "city": "Spring Hill", "state": "Florida", "postcode": "34606", "lat": 28.462620904744636, "long": -82.61337799820869}, {"house_number": "7313", "road": "Sealawn Drive", "city": "Spring Hill", "state": "Florida", "postcode": "34606", "lat": 28.4780235, "long": -82.5970215}, {"house_number": "7282", "road": "Sealawn Drive", "city": "Spring Hill", "state": "Florida", "postcode": "34606", "lat": 28.478025499999998, "long": -82.59790749999999}, {"house_number": "13323", "road": "Kane Road", "city": "Spring Hill", "state": "Florida", "postcode": "34609", "lat": 28.483183999999994, "long": -82.50212049999999}, {"house_number": "13441", "road": "Twin Dolphin Drive", "city": "Spring Hill", "state": "Florida", "postcode": "34609", "lat": 28.53332195121505, "long": -82.49974527159463}, {"house_number": "13531", "road": "Twin Dolphin Drive", "city": "Spring Hill", "state": "Florida", "postcode": "34609", "lat": 28.533381886892204, "long": -82.49868384677553}, {"house_number": "6825", "road": "Landover Boulevard", "city": "Spring Hill", "state": "Florida", "postcode": "34608", "lat": 28.528628999999988, "long": -82.5158855}, {"house_number": "23034", "road": "Mondon Hill Road", "city": "Brooksville", "state": "Florida", "postcode": "34601", "lat": 28.554471999999993, "long": -82.35601}, {"house_number": "22242", "road": "Mondon Hill Road", "city": "Brooksville", "state": "Florida", "postcode": "34601", "lat": 28.555987499999993, "long": -82.36576349999999}, {"house_number": "1095", "road": "Larkin Road", "city": "Spring Hill", "state": "Florida", "postcode": "34608", "lat": 28.448824499999986, "long": -82.55055349999998}, {"house_number": "6172", "road": "Faber Drive", "city": "Brooksville", "state": "Florida", "postcode": "34602", "lat": 28.519337671592407, "long": -82.29028387458438}, {"house_number": "4858", "road": "Commercial Way", "city": "Spring Hill", "state": "Florida", "postcode": "34606", "lat": 28.49999224058799, "long": -82.59128389583479}, {"house_number": "5029", "road": "Courtland Road", "city": "Spring Hill", "state": "Florida", "postcode": "34608", "lat": 28.50206141592288, "long": -82.52659444981553}, {"house_number": "6212", "road": "Deltona Boulevard", "city": "Spring Hill", "state": "Florida", "postcode": "34606", "lat": 28.519083499999994, "long": -82.56333649999999}, {"house_number": "7150", "road": "Landover Boulevard", "city": "Spring Hill", "state": "Florida", "postcode": "34608", "lat": 28.530373668402394, "long": -82.51262852054033}, {"house_number": "8087", "road": "Chaucer Drive", "city": "Spring Hill", "state": "Florida", "postcode": "34607", "lat": 28.507241424239126, "long": -82.58745714846697}, {"house_number": "8151", "road": "Chaucer Drive", "city": "Spring Hill", "state": "Florida", "postcode": "34607", "lat": 28.508192378052094, "long": -82.58550509799827}, {"house_number": "6182", "road": "Freeport Drive", "city": "Spring Hill", "state": "Florida", "postcode": "34608", "lat": 28.519044499999993, "long": -82.56280099999998}, {"house_number": "6189", "road": "Freeport Drive", "city": "Spring Hill", "state": "Florida", "postcode": "34608", "lat": 28.519193499999993, "long": -82.56250499999999}, {"house_number": "6025", "road": "Deltona Boulevard", "city": "Spring Hill", "state": "Florida", "postcode": "34606", "lat": 28.515898999999994, "long": -82.56206449999999}, {"house_number": "6107", "road": "Deltona Boulevard", "city": "Spring Hill", "state": "Florida", "postcode": "34606", "lat": 28.517475755534655, "long": -82.56249471611255}, {"house_number": "1543", "road": "Deltona Boulevard", "city": "Spring Hill", "state": "Florida", "postcode": "34606", "lat": 28.4584136889651, "long": -82.58623034826223}, {"house_number": "1575", "road": "Deltona Boulevard", "city": "Spring Hill", "state": "Florida", "postcode": "34606", "lat": 28.45929414352179, "long": -82.58611162703745}, {"house_number": "1575", "road": "Deltona Boulevard", "city": "Spring Hill", "state": "Florida", "postcode": "34606", "lat": 28.45929414352179, "long": -82.58611162703745}, {"house_number": "2199", "road": "Deltona Boulevard", "city": "Spring Hill", "state": "Florida", "postcode": "34606", "lat": 28.463589844823268, "long": -82.58321899053611}, {"house_number": "2284", "road": "Deltona Boulevard", "city": "Spring Hill", "state": "Florida", "postcode": "34606", "lat": 28.464762041732754, "long": -82.58210243625871}, {"house_number": "7133", "road": "Arizona Street", "city": "Spring Hill", "state": "Florida", "postcode": "34604", "lat": 28.531892, "long": -82.46715199999998}, {"house_number": "7183", "road": "Arizona Street", "city": "Spring Hill", "state": "Florida", "postcode": "34604", "lat": 28.533188, "long": -82.46716799999999}, {"house_number": "7151", "road": "Alberta Street", "city": "Spring Hill", "state": "Florida", "postcode": "34604", "lat": 28.531482499999992, "long": -82.46292649999998}, {"house_number": "7188", "road": "Alberta Street", "city": "Spring Hill", "state": "Florida", "postcode": "34604", "lat": 28.533340999999993, "long": -82.462943}, {"house_number": "10450", "road": "Heley Road", "city": "Spring Hill", "state": "Florida", "postcode": "34608", "lat": 28.487866500000003, "long": -82.54466149999999}, {"house_number": "11078", "road": "Northcliffe Boulevard", "city": "Spring Hill", "state": "Florida", "postcode": "34608", "lat": 28.491746499999994, "long": -82.54278999999998}, {"house_number": "9383", "road": "Oak Grove Street", "city": "Spring Hill", "state": "Florida", "postcode": "34608", "lat": 28.507071999999987, "long": -82.5629755}, {"house_number": "9408", "road": "Heidi Lane", "city": "Spring Hill", "state": "Florida", "postcode": "34608", "lat": 28.503343887693596, "long": -82.56357320389532}, {"house_number": "9455", "road": "Heidi Lane", "city": "Spring Hill", "state": "Florida", "postcode": "34608", "lat": 28.503189999999993, "long": -82.56309049999999}, {"house_number": "8246", "road": "Gallup Road", "city": "Spring Hill", "state": "Florida", "postcode": "34608", "lat": 28.466979999999992, "long": -82.581693}, {"house_number": "8307", "road": "Gallup Road", "city": "Spring Hill", "state": "Florida", "postcode": "34608", "lat": 28.467125999999986, "long": -82.58122449999999}, {"house_number": "9042", "road": "Sewell Lane", "city": "Spring Hill", "state": "Florida", "postcode": "34608", "lat": 28.484242999999992, "long": -82.5744905}, {"house_number": "11045", "road": "Maderia Street", "city": "Spring Hill", "state": "Florida", "postcode": "34608", "lat": 28.464999499999998, "long": -82.54216249999999}, {"house_number": "11065", "road": "Maderia Street", "city": "Spring Hill", "state": "Florida", "postcode": "34608", "lat": 28.46512849999999, "long": -82.54165899999998}, {"house_number": "2140", "road": "Mariner Boulevard", "city": "Spring Hill", "state": "Florida", "postcode": "34609", "lat": 28.463405630624266, "long": -82.54083509801592}, {"house_number": "9474", "road": "Century Drive", "city": "Spring Hill", "state": "Florida", "postcode": "34608", "lat": 28.49656199999999, "long": -82.5646395}, {"house_number": "9451", "road": "Century Drive", "city": "Spring Hill", "state": "Florida", "postcode": "34608", "lat": 28.496617999999994, "long": -82.56507099999999}, {"house_number": "4398", "road": "Deltona Boulevard", "city": "Spring Hill", "state": "Florida", "postcode": "34606", "lat": 28.494607580324754, "long": -82.56587478870844}, {"house_number": "4471", "road": "Deltona Boulevard", "city": "Spring Hill", "state": "Florida", "postcode": "34606", "lat": 28.495687498647452, "long": -82.56549650001226}, {"house_number": "3351", "road": "Treiman Boulevard", "city": "Ridge Manor", "state": "Florida", "postcode": "33523", "lat": 28.482507999999996, "long": -82.176793}, {"house_number": "1345", "road": "Farley Avenue", "city": "Spring Hill", "state": "Florida", "postcode": "34606", "lat": 28.453835499999993, "long": -82.58160699999999}, {"house_number": "1161", "road": "Waterfall Drive", "city": "Spring Hill", "state": "Florida", "postcode": "34606", "lat": 28.449907499999995, "long": -82.5806695}, {"house_number": "2055", "road": "Deltona Boulevard", "city": "Spring Hill", "state": "Florida", "postcode": "34606", "lat": 28.462335999999993, "long": -82.584656}, {"house_number": "8149", "road": "Giffen Lane", "city": "Spring Hill", "state": "Florida", "postcode": "34608", "lat": 28.457939999999986, "long": -82.5854335}, {"house_number": "2320", "road": "Deltona Boulevard", "city": "Spring Hill", "state": "Florida", "postcode": "34608", "lat": 28.46707606286502, "long": -82.5820101530083}, {"house_number": "2345", "road": "Deltona Boulevard", "city": "Spring Hill", "state": "Florida", "postcode": "34606", "lat": 28.467547824388053, "long": -82.58227826097875}, {"house_number": "12062", "road": "Norvell Road", "city": "Spring Hill", "state": "Florida", "postcode": "34608", "lat": 28.50150034760947, "long": -82.52751580286605}, {"house_number": "12247", "road": "Killian Street", "city": "Spring Hill", "state": "Florida", "postcode": "34608", "lat": 28.511656999999992, "long": -82.52017799999999}, {"house_number": "12489", "road": "Hanley Drive", "city": "Spring Hill", "state": "Florida", "postcode": "34608", "lat": 28.522102999999987, "long": -82.5139925}, {"house_number": "15424", "road": "Moss Street", "city": "Spring Hill", "state": "Florida", "postcode": "34604", "lat": 28.506863591402055, "long": -82.47031963102032}, {"house_number": "10469", "road": "Palmgren Lane", "city": "Spring Hill", "state": "Florida", "postcode": "34608", "lat": 28.4412605, "long": -82.54431849999997}, {"house_number": "10420", "road": "Palmgren Lane", "city": "Spring Hill", "state": "Florida", "postcode": "34608", "lat": 28.441716460880965, "long": -82.5459841599809}, {"house_number": "10599", "road": "Fairchild Road", "city": "Spring Hill", "state": "Florida", "postcode": "34608", "lat": 28.442875499999992, "long": -82.54431749999999}, {"house_number": "10599", "road": "Fairchild Road", "city": "Spring Hill", "state": "Florida", "postcode": "34608", "lat": 28.443136286125927, "long": -82.54477395167089}, {"house_number": "5435", "road": "Jumper Loop", "city": "Spring Hill", "state": "Florida", "postcode": "34609", "lat": 28.504237214064872, "long": -82.47758169969686}, {"house_number": "1129", "road": "Mondon Hill Road", "city": "Brooksville", "state": "Florida", "postcode": "34601", "lat": 28.556561324971057, "long": -82.37488049845517}, {"house_number": "1592", "road": "Jefferson Street", "city": "Brooksville", "state": "Florida", "postcode": "34601", "lat": 28.545498499999994, "long": -82.37696799999998}, {"house_number": "1563", "road": "Jefferson Street", "city": "Brooksville", "state": "Florida", "postcode": "34601", "lat": 28.5454945, "long": -82.377197}, {"house_number": "1126", "road": "Howell Avenue", "city": "Brooksville", "state": "Florida", "postcode": "34601", "lat": 28.57051043756001, "long": -82.38034551681419}, {"house_number": "22271", "road": "Croom Road", "city": "Brooksville", "state": "Florida", "postcode": "34601", "lat": 28.571068499999996, "long": -82.36375949999999}, {"house_number": "6386", "road": "Hope Hill Road", "city": "Brooksville", "state": "Florida", "postcode": "34601", "lat": 28.525879499999995, "long": -82.39656249999999}]