[{"house_number": "399", "road": "East Indiana Avenue", "city": "Bonifay", "state": "Florida", "postcode": "32425", "lat": 30.797099275021836, "long": -85.67592250410365}, {"house_number": "399", "road": "East Virginia Avenue", "city": "Bonifay", "state": "Florida", "postcode": "32425", "lat": 30.792915293139686, "long": -85.6760396369956}, {"house_number": "349", "road": "East Michigan Avenue", "city": "Bonifay", "state": "Florida", "postcode": "32425", "lat": 30.798081734800963, "long": -85.6758854931987}, {"house_number": "649", "road": "North Avenue", "city": "Bonifay", "state": "Florida", "postcode": "32425", "lat": 30.803010200669203, "long": -85.70147889039373}, {"house_number": "401", "road": "West Michigan Avenue", "city": "Bonifay", "state": "Florida", "postcode": "32425", "lat": 30.798215214957835, "long": -85.68300850114392}, {"house_number": "401", "road": "West Indiana Avenue", "city": "Bonifay", "state": "Florida", "postcode": "32425", "lat": 30.79723338433814, "long": -85.68303745556905}, {"house_number": "299", "road": "East Bay Avenue", "city": "Bonifay", "state": "Florida", "postcode": "32425", "lat": 30.789938738970687, "long": -85.6773151441752}, {"house_number": "299", "road": "East Bay Avenue", "city": "Bonifay", "state": "Florida", "postcode": "32425", "lat": 30.789938738970687, "long": -85.6773151441752}, {"house_number": "401", "road": "West Wisconsin Avenue", "city": "Bonifay", "state": "Florida", "postcode": "32425", "lat": 30.799261975217465, "long": -85.68299850189422}, {"house_number": "401", "road": "North Hubbard Street", "city": "Bonifay", "state": "Florida", "postcode": "32425", "lat": 30.79603693481437, "long": -85.6747592085566}, {"house_number": "401", "road": "North Hubbard Street", "city": "Bonifay", "state": "Florida", "postcode": "32425", "lat": 30.79603693481437, "long": -85.6747592085566}, {"house_number": "2282", "road": "CR 173", "city": "Bonifay", "state": "Florida", "postcode": "32425", "lat": 30.80532817760006, "long": -85.66363193822795}, {"house_number": "1149", "road": "East Nebraska Avenue", "city": "Bonifay", "state": "Florida", "postcode": "32425", "lat": 30.79385197944323, "long": -85.66966017671693}, {"house_number": "1149", "road": "East Nebraska Avenue", "city": "Bonifay", "state": "Florida", "postcode": "32425", "lat": 30.79385197944323, "long": -85.66966017671693}, {"house_number": "640", "road": "Chance", "city": "Bonifay", "state": "Florida", "postcode": "32425", "lat": 30.79721640833851, "long": -85.67198773802912}, {"house_number": "951", "road": "North Avenue", "city": "Bonifay", "state": "Florida", "postcode": "32425", "lat": 30.803056499999993, "long": -85.69145799999998}, {"house_number": "505", "road": "East North Avenue", "city": "Bonifay", "state": "Florida", "postcode": "32425", "lat": 30.802684801260867, "long": -85.6851204751119}]