[{"house_number": "249", "road": "Debbie Avenue", "city": "Lakeland", "state": "Florida", "postcode": "33801", "lat": 28.04112806788881, "long": -81.93832126230211}, {"house_number": "249", "road": "Debbie Avenue", "city": "Lakeland", "state": "Florida", "postcode": "33801", "lat": 28.04112806788881, "long": -81.93832126230211}, {"house_number": "1849", "road": "Quail Court South", "city": "Lakeland", "state": "Florida", "postcode": "33810", "lat": 28.111606692013883, "long": -81.98321202801367}, {"house_number": "5706", "road": "Fischer Drive", "city": "Bartow", "state": "Florida", "postcode": "33812", "lat": 27.962456825785182, "long": -81.8947526580017}, {"house_number": "3106", "road": "Peterson Road", "city": "Bartow", "state": "Florida", "postcode": "33812", "lat": 27.960204840809777, "long": -81.90501396317241}, {"house_number": "3192", "road": "Peterson Road", "city": "Bartow", "state": "Florida", "postcode": "33812", "lat": 27.960285612848534, "long": -81.90317794134124}, {"house_number": "3951", "road": "Carillon Boulevard", "city": "Lakeland", "state": "Florida", "postcode": "33811", "lat": 28.00507729594161, "long": -82.03412732976736}, {"house_number": "450", "road": "Fairmont Place", "city": "Haines City", "state": "Florida", "postcode": "33844", "lat": 28.077704786647853, "long": -81.62758780186236}, {"house_number": "450", "road": "Fairmont Place", "city": "Haines City", "state": "Florida", "postcode": "33844", "lat": 28.077704786647853, "long": -81.62758780186236}, {"house_number": "5876", "road": "Driftwood Drive", "city": "Winter Haven", "state": "Florida", "postcode": "33884", "lat": 27.984037846423135, "long": -81.66026262766128}, {"house_number": "279", "road": "Janie Avenue", "city": "Lakeland", "state": "Florida", "postcode": "33801", "lat": 28.04112156941515, "long": -81.9385916265981}, {"house_number": "279", "road": "Janie Avenue", "city": "Lakeland", "state": "Florida", "postcode": "33801", "lat": 28.04112156941515, "long": -81.9385916265981}, {"house_number": "279", "road": "Janie Avenue", "city": "Lakeland", "state": "Florida", "postcode": "33801", "lat": 28.04112156941515, "long": -81.9385916265981}, {"house_number": "1348", "road": "East Clinton Street", "city": "Bartow", "state": "Florida", "postcode": "33830", "lat": 27.88461465949088, "long": -81.83090022481403}, {"house_number": "5841", "road": "Breakwater Drive", "city": "Winter Haven", "state": "Florida", "postcode": "33884", "lat": 27.983274514048773, "long": -81.65819449213524}, {"house_number": "3900", "road": "Don Emerson Drive", "city": "Lakeland", "state": "Florida", "postcode": "33811", "lat": 27.9817828502603, "long": -82.01290061022897}, {"house_number": "251", "road": "South Boulevard West", "city": "Davenport", "state": "Florida", "postcode": "33837", "lat": 28.153993914644712, "long": -81.60310750254247}, {"house_number": "4937", "road": "CR 557A", "city": "Lake Alfred", "state": "Florida", "postcode": "33850", "lat": 28.152400999999998, "long": -81.75673899999998}, {"house_number": "5099", "road": "CR 557A", "city": "Lake Alfred", "state": "Florida", "postcode": "33850", "lat": 28.149718815175273, "long": -81.7453148153365}, {"house_number": "2560", "road": "CR 557", "city": "Lake Alfred", "state": "Florida", "postcode": "33850", "lat": 28.130598032933513, "long": -81.73417210563855}, {"house_number": "862", "road": "Henry Street", "city": "Lake Wales", "state": "Florida", "postcode": "33853", "lat": 27.896140492973846, "long": -81.60194922283434}, {"house_number": "320", "road": "South Miami Street", "city": "Lake Wales", "state": "Florida", "postcode": "33853", "lat": 27.89692999999999, "long": -81.59782199999998}, {"house_number": "2424", "road": "Grant Road", "city": "Lake Wales", "state": "Florida", "postcode": "33898", "lat": 27.897919382633095, "long": -81.54952701013757}, {"house_number": "351", "road": "Windsong Avenue", "city": "Four Corners", "state": "Florida", "postcode": "33897", "lat": 28.33041099999999, "long": -81.67432549999998}, {"house_number": "437", "road": "Meandering Way", "city": "Polk City", "state": "Florida", "postcode": "33868", "lat": 28.170492423958084, "long": -81.84048723560069}, {"house_number": "2615", "road": "Hemmingway Avenue", "city": "Haines City", "state": "Florida", "postcode": "33844", "lat": 28.129080479270737, "long": -81.63084359709771}, {"house_number": "2644", "road": "Hemmingway Avenue", "city": "Haines City", "state": "Florida", "postcode": "33844", "lat": 28.129950808292882, "long": -81.63041071480743}, {"house_number": "3014", "road": "Barbados Lane", "city": "Haines City", "state": "Florida", "postcode": "33844", "lat": 28.130489499999996, "long": -81.63001799999999}, {"house_number": "3043", "road": "Barbados Lane", "city": "Haines City", "state": "Florida", "postcode": "33844", "lat": 28.130515, "long": -81.62906949999999}, {"house_number": "2722", "road": "Kokomo Loop", "city": "Haines City", "state": "Florida", "postcode": "33844", "lat": 28.129447999999993, "long": -81.62989999999999}, {"house_number": "2886", "road": "Kokomo Loop", "city": "Haines City", "state": "Florida", "postcode": "33844", "lat": 28.13125949999999, "long": -81.62678699999998}, {"house_number": "2734", "road": "Kokomo Loop", "city": "Haines City", "state": "Florida", "postcode": "33844", "lat": 28.129483999999994, "long": -81.62902749999999}, {"house_number": "2449", "road": "Experiment Station Road", "city": "Lake Alfred", "state": "Florida", "postcode": "33850", "lat": 28.113015247803474, "long": -81.71279433807533}, {"house_number": "2449", "road": "Experiment Station Road", "city": "Lake Alfred", "state": "Florida", "postcode": "33850", "lat": 28.113015247803474, "long": -81.71279433807533}, {"house_number": "100", "road": "Cypress Way", "city": "Lake Alfred", "state": "Florida", "postcode": "33850", "lat": 28.10968064174687, "long": -81.7179111788765}, {"house_number": "215", "road": "Cypress Way", "city": "Lake Alfred", "state": "Florida", "postcode": "33850", "lat": 28.109424999999995, "long": -81.7178955}, {"house_number": "215", "road": "Cypress Way", "city": "Lake Alfred", "state": "Florida", "postcode": "33850", "lat": 28.109424999999995, "long": -81.7178955}, {"house_number": "251", "road": "Imperial Boulevard", "city": "Lakeland", "state": "Florida", "postcode": "33803", "lat": 28.001818508204114, "long": -81.95899995543022}, {"house_number": "579", "road": "Haines Trail", "city": "Winter Haven", "state": "Florida", "postcode": "33881", "lat": 28.077026525233858, "long": -81.70011955533784}, {"house_number": "4018", "road": "Wren Avenue", "city": "Lakeland", "state": "Florida", "postcode": "33813", "lat": 27.992567441850248, "long": -81.96469851329728}, {"house_number": "4074", "road": "Wren Avenue", "city": "Lakeland", "state": "Florida", "postcode": "33813", "lat": 27.991794439788077, "long": -81.96470574508064}, {"house_number": "6530", "road": "Cypress Gardens Boulevard", "city": "Winter Haven", "state": "Florida", "postcode": "33884", "lat": 27.978981999999995, "long": -81.66534949999999}, {"house_number": "6579", "road": "Cypress Gardens Boulevard", "city": "Winter Haven", "state": "Florida", "postcode": "33884", "lat": 27.978756698299346, "long": -81.66453979884669}, {"house_number": "6698", "road": "Cypress Gardens Boulevard", "city": "Winter Haven", "state": "Florida", "postcode": "33884", "lat": 27.978545571978117, "long": -81.6630546722192}, {"house_number": "6698", "road": "Cypress Gardens Boulevard", "city": "Winter Haven", "state": "Florida", "postcode": "33884", "lat": 27.978545571978117, "long": -81.6630546722192}, {"house_number": "6698", "road": "Cypress Gardens Boulevard", "city": "Winter Haven", "state": "Florida", "postcode": "33884", "lat": 27.978545571978117, "long": -81.6630546722192}, {"house_number": "602", "road": "Crystal Boulevard", "city": "Winter Haven", "state": "Florida", "postcode": "33884", "lat": 27.978241999999987, "long": -81.66423249999998}, {"house_number": "4192", "road": "Carl Boozer Road", "city": "Haines City", "state": "Florida", "postcode": "33844", "lat": 28.128669986488948, "long": -81.58884800018235}, {"house_number": "4674", "road": "Magnolia Preserve Drive", "city": "Bartow", "state": "Florida", "postcode": "33880", "lat": 27.975336975743325, "long": -81.78935068938499}, {"house_number": "2025", "road": "Danes Court", "city": "Lakeland", "state": "Florida", "postcode": "33810", "lat": 28.087476, "long": -81.98887799999999}, {"house_number": "3253", "road": "Berwick Lane", "city": "Lakeland", "state": "Florida", "postcode": "33810", "lat": 28.08380325361032, "long": -81.98206932177453}, {"house_number": "700", "road": "3rd Street Southwest", "city": "Winter Haven", "state": "Florida", "postcode": "33880", "lat": 28.012591444779112, "long": -81.72881082084676}, {"house_number": "6958", "road": "Indian Creek Park Drive", "city": "Bartow", "state": "Florida", "postcode": "33813", "lat": 27.939375249352345, "long": -81.9269177020508}, {"house_number": "6917", "road": "Indian Creek Park Drive", "city": "Bartow", "state": "Florida", "postcode": "33813", "lat": 27.939670863209194, "long": -81.92596965124183}, {"house_number": "6949", "road": "Lakeland Highlands Road", "city": "Bartow", "state": "Florida", "postcode": "33813", "lat": 27.938847999999993, "long": -81.923548}, {"house_number": "849", "road": "North Voight Avenue", "city": "Fort Meade", "state": "Florida", "postcode": "33841", "lat": 27.76174199999999, "long": -81.78719499999997}, {"house_number": "2547", "road": "US 27", "city": "Lake Wales", "state": "Florida", "postcode": "33859", "lat": 27.960327999999997, "long": -81.623072}, {"house_number": "4525", "road": "US 27", "city": "Lake Wales", "state": "Florida", "postcode": "33859", "lat": 27.96443949999999, "long": -81.62439799999999}, {"house_number": "1048", "road": "Stewart Avenue", "city": "Frostproof", "state": "Florida", "postcode": "33843", "lat": 27.730991499999995, "long": -81.5280195}, {"house_number": "1513", "road": "Owens Road", "city": "Lake Wales", "state": "Florida", "postcode": "33859", "lat": 27.878662639393117, "long": -81.59916426347823}, {"house_number": "1111", "road": "Tobie Street", "city": "Lake Wales", "state": "Florida", "postcode": "33853", "lat": 27.887303053123834, "long": -81.56582581871356}, {"house_number": "1152", "road": "Sheri Drive", "city": "Lake Wales", "state": "Florida", "postcode": "33853", "lat": 27.88761322968985, "long": -81.56653706946845}, {"house_number": "5203", "road": "Burns Avenue", "city": "Lake Wales", "state": "Florida", "postcode": "33898", "lat": 27.914923369379466, "long": -81.56342717096048}, {"house_number": "5203", "road": "Burns Avenue", "city": "Lake Wales", "state": "Florida", "postcode": "33898", "lat": 27.914923369379466, "long": -81.56342717096048}, {"house_number": "5203", "road": "Burns Avenue", "city": "Lake Wales", "state": "Florida", "postcode": "33898", "lat": 27.914923369379466, "long": -81.56342717096048}, {"house_number": "5203", "road": "Burns Avenue", "city": "Lake Wales", "state": "Florida", "postcode": "33898", "lat": 27.914923369379466, "long": -81.56342717096048}, {"house_number": "9247", "road": "Burns Avenue", "city": "Lake Wales", "state": "Florida", "postcode": "33898", "lat": 27.91484568730488, "long": -81.56264842135393}, {"house_number": "9247", "road": "Burns Avenue", "city": "Lake Wales", "state": "Florida", "postcode": "33898", "lat": 27.91484568730488, "long": -81.56264842135393}, {"house_number": "9247", "road": "Burns Avenue", "city": "Lake Wales", "state": "Florida", "postcode": "33898", "lat": 27.91484568730488, "long": -81.56264842135393}, {"house_number": "9247", "road": "Burns Avenue", "city": "Lake Wales", "state": "Florida", "postcode": "33898", "lat": 27.91484568730488, "long": -81.56264842135393}, {"house_number": "9247", "road": "Burns Avenue", "city": "Lake Wales", "state": "Florida", "postcode": "33898", "lat": 27.91484568730488, "long": -81.56264842135393}, {"house_number": "1126", "road": "Towergate Circle", "city": "Lake Wales", "state": "Florida", "postcode": "33853", "lat": 27.91676103193701, "long": -81.56523208729219}, {"house_number": "1154", "road": "Towergate Circle", "city": "Lake Wales", "state": "Florida", "postcode": "33853", "lat": 27.916409954542914, "long": -81.5646527334303}, {"house_number": "4748", "road": "Gateland Drive", "city": "Lakeland", "state": "Florida", "postcode": "33811", "lat": 28.007682999999993, "long": -82.04278299999999}, {"house_number": "3549", "road": "Christmas Lane", "city": "Lakeland", "state": "Florida", "postcode": "33810", "lat": 28.08753399999999, "long": -81.99810049999999}, {"house_number": "1925", "road": "Danes Court", "city": "Lakeland", "state": "Florida", "postcode": "33810", "lat": 28.087473999999993, "long": -81.98685699999999}, {"house_number": "8549", "road": "Old Polk City Road", "city": "Lakeland", "state": "Florida", "postcode": "33809", "lat": 28.15360382910952, "long": -81.87065295030831}, {"house_number": "8549", "road": "Old Polk City Road", "city": "Lakeland", "state": "Florida", "postcode": "33809", "lat": 28.15360382910952, "long": -81.87065295030831}, {"house_number": "1247", "road": "North Lake Elbert Drive", "city": "Winter Haven", "state": "Florida", "postcode": "33881", "lat": 28.03108171475275, "long": -81.70621401527919}, {"house_number": "760", "road": "Overlook Grove Drive", "city": "Winter Haven", "state": "Florida", "postcode": "33884", "lat": 28.019600208546223, "long": -81.66203285205}, {"house_number": "856", "road": "Overlook Grove Drive", "city": "Winter Haven", "state": "Florida", "postcode": "33884", "lat": 28.020408923908246, "long": -81.66173363144202}, {"house_number": "748", "road": "East Thelma Street", "city": "Lake Alfred", "state": "Florida", "postcode": "33850", "lat": 28.08527922886987, "long": -81.7182696194061}, {"house_number": "254", "road": "Hibiscus Street", "city": "Winter Haven", "state": "Florida", "postcode": "33881", "lat": 28.077125446386184, "long": -81.7014223586916}, {"house_number": "106", "road": "Lake Butler Avenue", "city": "Haines City", "state": "Florida", "postcode": "33844", "lat": 28.086130097694753, "long": -81.63011987912587}, {"house_number": "249", "road": "Kenny Boulevard", "city": "Haines City", "state": "Florida", "postcode": "33844", "lat": 28.101745999999988, "long": -81.644358}, {"house_number": "101", "road": "Lake Tracy Circle", "city": "Haines City", "state": "Florida", "postcode": "33844", "lat": 28.118006499999993, "long": -81.63425149999999}, {"house_number": "199", "road": "Lake Tracy Circle", "city": "Haines City", "state": "Florida", "postcode": "33844", "lat": 28.11885555440574, "long": -81.6342096559443}, {"house_number": "193", "road": "Lake Tracy Circle", "city": "Haines City", "state": "Florida", "postcode": "33844", "lat": 28.119148546726862, "long": -81.63365922950655}, {"house_number": "150", "road": "Golden Malay Palm Way", "city": "Four Corners", "state": "Florida", "postcode": "33897", "lat": 28.33292343251314, "long": -81.67365347356626}, {"house_number": "376", "road": "Dolce Drive", "city": "Dundee", "state": "Florida", "postcode": "33838", "lat": 28.02050876306716, "long": -81.60378643250469}, {"house_number": "357", "road": "Staccato Way", "city": "Dundee", "state": "Florida", "postcode": "33838", "lat": 28.02133645420362, "long": -81.60438763397472}, {"house_number": "320", "road": "Dolce Drive", "city": "Dundee", "state": "Florida", "postcode": "33838", "lat": 28.021716470891032, "long": -81.60400975857297}, {"house_number": "1244", "road": "Coda Court", "city": "Dundee", "state": "Florida", "postcode": "33838", "lat": 28.02188213753159, "long": -81.60506461674655}, {"house_number": "541", "road": "Cadiz Loop", "city": "Davenport", "state": "Florida", "postcode": "33837", "lat": 28.163634450517105, "long": -81.62119798532929}, {"house_number": "541", "road": "Cadiz Loop", "city": "Davenport", "state": "Florida", "postcode": "33837", "lat": 28.163634450517105, "long": -81.62119798532929}]