[{"house_number": "10025", "road": "Southwest Brookgreen Drive", "city": "Port Saint Lucie", "state": "Florida", "postcode": "34987", "lat": 27.287373405923816, "long": -80.43643243049529}, {"house_number": "9548", "road": "Southwest Lindale Trace Boulevard", "city": "Port Saint Lucie", "state": "Florida", "postcode": "34987", "lat": 27.29116914670965, "long": -80.43558055553716}, {"house_number": "9582", "road": "Southwest Lindale Trace Boulevard", "city": "Port Saint Lucie", "state": "Florida", "postcode": "34987", "lat": 27.291019365648854, "long": -80.43569298812976}, {"house_number": "505", "road": "Southwest Undallo Road", "city": "Port Saint Lucie", "state": "Florida", "postcode": "34953", "lat": 27.214486058623315, "long": -80.36378019062447}, {"house_number": "519", "road": "Southwest Undallo Road", "city": "Port Saint Lucie", "state": "Florida", "postcode": "34953", "lat": 27.21423960758133, "long": -80.3649155783916}, {"house_number": "107", "road": "Rio Palermo", "city": "Port Saint Lucie", "state": "Florida", "postcode": "34984", "lat": 27.214039577369363, "long": -80.32800629572941}, {"house_number": "459", "road": "Southwest Ryder Road", "city": "Port Saint Lucie", "state": "Florida", "postcode": "34953", "lat": 27.21133543301769, "long": -80.36172567480988}, {"house_number": "423", "road": "Southwest Ryder Road", "city": "Port Saint Lucie", "state": "Florida", "postcode": "34953", "lat": 27.21203927846268, "long": -80.36114933562524}, {"house_number": "2851", "road": "Southeast Morningside Boulevard", "city": "Port Saint Lucie", "state": "Florida", "postcode": "34952", "lat": 27.25745665048285, "long": -80.31533558477265}, {"house_number": "10666", "road": "Hartwick Drive", "city": "Port Saint Lucie", "state": "Florida", "postcode": "34987", "lat": 27.270499983242242, "long": -80.45100170646786}, {"house_number": "10050", "road": "Southwest Cardigan Circle", "city": "Port Saint Lucie", "state": "Florida", "postcode": "34987", "lat": 27.282637481510335, "long": -80.43450694669184}, {"house_number": "10082", "road": "Southwest Stonegate Drive", "city": "Port Saint Lucie", "state": "Florida", "postcode": "34987", "lat": 27.281037293683312, "long": -80.43631263047246}, {"house_number": "10739", "road": "Southwest Gingermill Drive", "city": "Port Saint Lucie", "state": "Florida", "postcode": "34987", "lat": 27.28296199999999, "long": -80.43536399999999}, {"house_number": "11551", "road": "Southwest Aventino Drive", "city": "Port Saint Lucie", "state": "Florida", "postcode": "34987", "lat": 27.27675084310462, "long": -80.44389998822253}, {"house_number": "10618", "road": "Southwest Gingermill Drive", "city": "Port Saint Lucie", "state": "Florida", "postcode": "34987", "lat": 27.283016499999988, "long": -80.43367899999998}, {"house_number": "10850", "road": "Hartwick Drive", "city": "Port Saint Lucie", "state": "Florida", "postcode": "34987", "lat": 27.26794340887321, "long": -80.44976511533017}, {"house_number": "12149", "road": "Lockhave Court", "city": "Port Saint Lucie", "state": "Florida", "postcode": "34987", "lat": 27.268642197559213, "long": -80.4493625317049}, {"house_number": "10657", "road": "Southwest Gingermill Drive", "city": "Port Saint Lucie", "state": "Florida", "postcode": "34987", "lat": 27.28298949999999, "long": -80.434516}, {"house_number": "147", "road": "Southwest Glenbrook Drive", "city": "Port Saint Lucie", "state": "Florida", "postcode": "34987", "lat": 27.290838930105156, "long": -80.43477718840643}, {"house_number": "147", "road": "Southwest Glenbrook Drive", "city": "Port Saint Lucie", "state": "Florida", "postcode": "34987", "lat": 27.290838930105156, "long": -80.43477718840643}, {"house_number": "3576", "road": "South 7th Street", "city": "Fort Pierce", "state": "Florida", "postcode": "34982", "lat": 27.400899999999996, "long": -80.32971999999998}, {"house_number": "11480", "road": "Southwest Rossano Lane", "city": "Port Saint Lucie", "state": "Florida", "postcode": "34987", "lat": 27.274849440658613, "long": -80.44365683495276}, {"house_number": "11062", "road": "Southwest Sophronia Street", "city": "Port Saint Lucie", "state": "Florida", "postcode": "34987", "lat": 27.283654719119443, "long": -80.43825084140464}, {"house_number": "751", "road": "Southwest Tillbo Cove", "city": "Port Saint Lucie", "state": "Florida", "postcode": "34986", "lat": 27.295138204525315, "long": -80.40549908114708}, {"house_number": "1650", "road": "Southwest Salvatierra Boulevard", "city": "Port Saint Lucie", "state": "Florida", "postcode": "34987", "lat": 27.29266620435703, "long": -80.43202978156089}, {"house_number": "699", "road": "Southwest Andros Cove", "city": "Port Saint Lucie", "state": "Florida", "postcode": "34986", "lat": 27.29504867706411, "long": -80.40675072026164}, {"house_number": "848", "road": "Southwest Vineland Court", "city": "Port Saint Lucie", "state": "Florida", "postcode": "34986", "lat": 27.29500999999999, "long": -80.39833}, {"house_number": "848", "road": "Southwest Saint Julian Court", "city": "Port Saint Lucie", "state": "Florida", "postcode": "34986", "lat": 27.29480014085713, "long": -80.39399719987837}, {"house_number": "11962", "road": "South Indian River Drive", "city": "Fort Pierce", "state": "Florida", "postcode": "34957", "lat": 27.294446763453582, "long": -80.2516919742793}, {"house_number": "1295", "road": "Southwest Moonlite Cove", "city": "Port Saint Lucie", "state": "Florida", "postcode": "34986", "lat": 27.303545140935295, "long": -80.38540467315804}, {"house_number": "2110", "road": "SE Eatonville Drive", "city": "Port Saint Lucie", "state": "Florida", "postcode": "34952", "lat": 27.281299999999995, "long": -80.28699999999999}, {"house_number": "2548", "road": "South 25th Street", "city": "Fort Pierce", "state": "Florida", "postcode": "34981", "lat": 27.396417600493425, "long": -80.35060554638912}, {"house_number": "6951", "road": "Northwest Ltc Parkway", "city": "Port Saint Lucie", "state": "Florida", "postcode": "34986", "lat": 27.362888125654234, "long": -80.40754746985358}, {"house_number": "12463", "road": "Williams Road", "city": "Port Saint Lucie", "state": "Florida", "postcode": "34988", "lat": 27.356205865468894, "long": -80.45361951975}, {"house_number": "12392", "road": "Williams Road", "city": "Port Saint Lucie", "state": "Florida", "postcode": "34988", "lat": 27.356209999999997, "long": -80.4525355}, {"house_number": "11207", "road": "Southwest Sophronia Street", "city": "Port Saint Lucie", "state": "Florida", "postcode": "34987", "lat": 27.283316510280184, "long": -80.43915402940732}, {"house_number": "1593", "road": "Southeast Village Green Drive", "city": "Port Saint Lucie", "state": "Florida", "postcode": "34952", "lat": 27.305895630025844, "long": -80.30229921008929}, {"house_number": "3709", "road": "Oleander Boulevard", "city": "Fort Pierce", "state": "Florida", "postcode": "34982", "lat": 27.39225499444324, "long": -80.3339247059913}, {"house_number": "3891", "road": "Sunrise Boulevard", "city": "Fort Pierce", "state": "Florida", "postcode": "34982", "lat": 27.39172999999999, "long": -80.339215}, {"house_number": "5037", "road": "Glades Cut Off Road", "city": "Fort Pierce", "state": "Florida", "postcode": "34981", "lat": 27.390350017765495, "long": -80.3747600160453}, {"house_number": "3939", "road": "Sunrise Boulevard", "city": "Fort Pierce", "state": "Florida", "postcode": "34982", "lat": 27.390969999999992, "long": -80.3385}, {"house_number": "3963", "road": "Sunrise Boulevard", "city": "Fort Pierce", "state": "Florida", "postcode": "34982", "lat": 27.3905508665086, "long": -80.33817543584}, {"house_number": "4007", "road": "Sunrise Boulevard", "city": "Fort Pierce", "state": "Florida", "postcode": "34982", "lat": 27.38966667846668, "long": -80.33778148149194}, {"house_number": "4550", "road": "Prosperity Drive", "city": "Fort Pierce", "state": "Florida", "postcode": "34981", "lat": 27.390454826392762, "long": -80.36844000083732}, {"house_number": "9749", "road": "Southwest Glenbrook Drive", "city": "Port Saint Lucie", "state": "Florida", "postcode": "34987", "lat": 27.288139545701014, "long": -80.43591836538295}, {"house_number": "9644", "road": "Southwest Glenbrook Drive", "city": "Port Saint Lucie", "state": "Florida", "postcode": "34987", "lat": 27.28965686726522, "long": -80.43559900870504}, {"house_number": "3000", "road": "Curtis King Boulevard", "city": "Fort Pierce", "state": "Florida", "postcode": "34946", "lat": 27.487349999999996, "long": -80.36589999999998}, {"house_number": "8348", "road": "Northwest Ltc Parkway", "city": "Port Saint Lucie", "state": "Florida", "postcode": "34986", "lat": 27.365533803563903, "long": -80.40712217194748}, {"house_number": "1751", "road": "Coconut Drive", "city": "Fort Pierce", "state": "Florida", "postcode": "34949", "lat": 27.44671818696939, "long": -80.29028761731841}, {"house_number": "1751", "road": "Coconut Drive", "city": "Fort Pierce", "state": "Florida", "postcode": "34949", "lat": 27.44671818696939, "long": -80.29028761731841}, {"house_number": "5251", "road": "North Lovett Circle", "city": "Port Saint Lucie", "state": "Florida", "postcode": "34986", "lat": 27.372745080807743, "long": -80.39101492616939}, {"house_number": "1275", "road": "Southwest Abingdon Avenue", "city": "Port Saint Lucie", "state": "Florida", "postcode": "34953", "lat": 27.26886236021721, "long": -80.3870315675114}, {"house_number": "820", "road": "Southeast Becker Road", "city": "Port Saint Lucie", "state": "Florida", "postcode": "34984", "lat": 27.211151601808538, "long": -80.3270303547992}, {"house_number": "671", "road": "Southwest Sail Terrace", "city": "Port Saint Lucie", "state": "Florida", "postcode": "34953", "lat": 27.271353362153175, "long": -80.36652204486242}, {"house_number": "671", "road": "Southwest Sail Terrace", "city": "Port Saint Lucie", "state": "Florida", "postcode": "34953", "lat": 27.271353362153175, "long": -80.36652204486242}, {"house_number": "478", "road": "Northwest Tuscany Court", "city": "Port Saint Lucie", "state": "Florida", "postcode": "34986", "lat": 27.32125082226381, "long": -80.38293012869686}, {"house_number": "951", "road": "Antigua", "city": "Fort Pierce", "state": "Florida", "postcode": "34982", "lat": 27.423502959226507, "long": -80.33254002514397}, {"house_number": "1949", "road": "Southeast Hideaway Circle", "city": "Port Saint Lucie", "state": "Florida", "postcode": "34952", "lat": 27.283035879761776, "long": -80.3138260405065}, {"house_number": "2688", "road": "Southwest Fairgreen Road", "city": "Port Saint Lucie", "state": "Florida", "postcode": "34987", "lat": 27.291355787119073, "long": -80.43158482447181}, {"house_number": "13551", "road": "Northwest Gilson Road", "city": "Port Saint Lucie", "state": "Florida", "postcode": "34990", "lat": 27.208325343624484, "long": -80.29292200990346}, {"house_number": "521", "road": "North 15th Street", "city": "Fort Pierce", "state": "Florida", "postcode": "34950", "lat": 27.453707091272722, "long": -80.33950983997528}, {"house_number": "1963", "road": "Surfside Drive", "city": "Fort Pierce", "state": "Florida", "postcode": "34949", "lat": 27.446868606895137, "long": -80.28320473784488}, {"house_number": "1696", "road": "Girabaldi Streets", "city": "Port Saint Lucie", "state": "Florida", "postcode": "34953", "lat": 27.260898499999993, "long": -80.40515499999998}, {"house_number": "1883", "road": "Via Laura", "city": "Port Saint Lucie", "state": "Florida", "postcode": "34953", "lat": 27.259667116648586, "long": -80.40628431625635}, {"house_number": "1747", "road": "Umbria Street", "city": "Port Saint Lucie", "state": "Florida", "postcode": "34953", "lat": 27.26034849999999, "long": -80.4032625}, {"house_number": "1747", "road": "Umbria Street", "city": "Port Saint Lucie", "state": "Florida", "postcode": "34953", "lat": 27.26034849999999, "long": -80.4032625}, {"house_number": "1644", "road": "Umbria Street", "city": "Port Saint Lucie", "state": "Florida", "postcode": "34953", "lat": 27.259947999999994, "long": -80.40327099999999}, {"house_number": "1750", "road": "Porta Nueva Terrace", "city": "Port Saint Lucie", "state": "Florida", "postcode": "34953", "lat": 27.260079999999988, "long": -80.40419750000001}, {"house_number": "1847", "road": "Via Laura", "city": "Port Saint Lucie", "state": "Florida", "postcode": "34953", "lat": 27.25963799999999, "long": -80.40691799999999}, {"house_number": "1847", "road": "Via Laura", "city": "Port Saint Lucie", "state": "Florida", "postcode": "34953", "lat": 27.259577586989327, "long": -80.40553410900174}, {"house_number": "1780", "road": "Via Laura", "city": "Port Saint Lucie", "state": "Florida", "postcode": "34953", "lat": 27.259404463437214, "long": -80.40425631698268}, {"house_number": "1713", "road": "Via Laura", "city": "Port Saint Lucie", "state": "Florida", "postcode": "34953", "lat": 27.25930808012089, "long": -80.40295435678217}, {"house_number": "1649", "road": "Via Laura", "city": "Port Saint Lucie", "state": "Florida", "postcode": "34953", "lat": 27.2592765, "long": -80.402491}, {"house_number": "10252", "road": "Southwest Eudora Street", "city": "Port Saint Lucie", "state": "Florida", "postcode": "34987", "lat": 27.278901672641922, "long": -80.4382634425655}, {"house_number": "10190", "road": "Southwest Eudora Street", "city": "Port Saint Lucie", "state": "Florida", "postcode": "34987", "lat": 27.279343666864015, "long": -80.43850919974761}, {"house_number": "9849", "road": "West Midway Road", "city": "Port Saint Lucie", "state": "Florida", "postcode": "34945", "lat": 27.374384949916273, "long": -80.42582649858086}, {"house_number": "2349", "road": "Southeast Westmoreland Boulevard", "city": "Port Saint Lucie", "state": "Florida", "postcode": "34952", "lat": 27.271464999999992, "long": -80.31765999999999}, {"house_number": "10053", "road": "Southwest Roehampton Court", "city": "Port Saint Lucie", "state": "Florida", "postcode": "34987", "lat": 27.281610500898335, "long": -80.44267223456413}, {"house_number": "1922", "road": "SE High Springs Drive", "city": "Port Saint Lucie", "state": "Florida", "postcode": "34952", "lat": 27.28206499999999, "long": -80.28735999999998}, {"house_number": "9940", "road": "Southwest Oak Tree Circle", "city": "Port Saint Lucie", "state": "Florida", "postcode": "34987", "lat": 27.28241401282775, "long": -80.44483864955996}, {"house_number": "1951", "road": "Southeast Grand Drive", "city": "Port Saint Lucie", "state": "Florida", "postcode": "34952", "lat": 27.281614999999995, "long": -80.288555}, {"house_number": "2143", "road": "SE Fern Park Drive", "city": "Port Saint Lucie", "state": "Florida", "postcode": "34952", "lat": 27.281904999999995, "long": -80.28607499999998}, {"house_number": "2121", "road": "SE Fern Park Drive", "city": "Port Saint Lucie", "state": "Florida", "postcode": "34952", "lat": 27.28190999999999, "long": -80.28650499999999}, {"house_number": "1949", "road": "SE Interlachen Drive", "city": "Port Saint Lucie", "state": "Florida", "postcode": "34952", "lat": 27.28160499999999, "long": -80.28667}, {"house_number": "2039", "road": "SE Fern Park Drive", "city": "Port Saint Lucie", "state": "Florida", "postcode": "34952", "lat": 27.28191999999999, "long": -80.28791}, {"house_number": "2187", "road": "SE Fern Park Drive", "city": "Port Saint Lucie", "state": "Florida", "postcode": "34952", "lat": 27.2819, "long": -80.28518999999999}, {"house_number": "2165", "road": "SE Fern Park Drive", "city": "Port Saint Lucie", "state": "Florida", "postcode": "34952", "lat": 27.2819, "long": -80.28564499999999}, {"house_number": "1944", "road": "SE High Springs Drive", "city": "Port Saint Lucie", "state": "Florida", "postcode": "34952", "lat": 27.281603067857844, "long": -80.28736133557979}, {"house_number": "1922", "road": "SE Avon Park Drive", "city": "Port Saint Lucie", "state": "Florida", "postcode": "34952", "lat": 27.281745000000004, "long": -80.28547499999999}, {"house_number": "1956", "road": "SE Avon Park Drive", "city": "Port Saint Lucie", "state": "Florida", "postcode": "34952", "lat": 27.281434999999995, "long": -80.28546999999999}, {"house_number": "2047", "road": "SE Eatonville Drive", "city": "Port Saint Lucie", "state": "Florida", "postcode": "34952", "lat": 27.281304999999996, "long": -80.28791000000001}, {"house_number": "1972", "road": "SE High Springs Drive", "city": "Port Saint Lucie", "state": "Florida", "postcode": "34952", "lat": 27.281134999999992, "long": -80.28723}, {"house_number": "2130", "road": "SE Eatonville Drive", "city": "Port Saint Lucie", "state": "Florida", "postcode": "34952", "lat": 27.281294999999993, "long": -80.28650499999999}, {"house_number": "1921", "road": "Southeast Grand Drive", "city": "Port Saint Lucie", "state": "Florida", "postcode": "34952", "lat": 27.28066584758184, "long": -80.2880963882021}, {"house_number": "2149", "road": "SE Eatonville Drive", "city": "Port Saint Lucie", "state": "Florida", "postcode": "34952", "lat": 27.281289999999988, "long": -80.28608}, {"house_number": "1972", "road": "SE Avon Park Drive", "city": "Port Saint Lucie", "state": "Florida", "postcode": "34952", "lat": 27.28113499999999, "long": -80.28547499999999}, {"house_number": "947", "road": "Southeast Bywood Avenue", "city": "Port Saint Lucie", "state": "Florida", "postcode": "34983", "lat": 27.29571478725787, "long": -80.3243299977592}, {"house_number": "9258", "road": "South Indian River Drive", "city": "Fort Pierce", "state": "Florida", "postcode": "34982", "lat": 27.326645479166746, "long": -80.26856187173429}, {"house_number": "5251", "road": "South Indian River Drive", "city": "Fort Pierce", "state": "Florida", "postcode": "34982", "lat": 27.37819019676112, "long": -80.29383003046618}, {"house_number": "5251", "road": "South Indian River Drive", "city": "Fort Pierce", "state": "Florida", "postcode": "34982", "lat": 27.37819019676112, "long": -80.29383003046618}, {"house_number": "1100", "road": "Charlotta Road", "city": "White City", "state": "Florida", "postcode": "34982", "lat": 27.37526950768132, "long": -80.3381300069671}, {"house_number": "752", "road": "Avenue C", "city": "Fort Pierce", "state": "Florida", "postcode": "34950", "lat": 27.449579999999997, "long": -80.32980499999998}, {"house_number": "4856", "road": "Buchanan Drive", "city": "Fort Pierce", "state": "Florida", "postcode": "34982", "lat": 27.3764075440337, "long": -80.31667875432204}, {"house_number": "1848", "road": "South Dovetail Drive", "city": "Fort Pierce", "state": "Florida", "postcode": "34982", "lat": 27.403807971123083, "long": -80.31878552087471}, {"house_number": "651", "road": "Farmers Market Road", "city": "Fort Pierce", "state": "Florida", "postcode": "34982", "lat": 27.39710971873908, "long": -80.32838954253691}, {"house_number": "1750", "road": "Paseo Avenue", "city": "Fort Pierce", "state": "Florida", "postcode": "34982", "lat": 27.415696856744447, "long": -80.34239008370193}]