[{"house_number": "1554", "road": "Old Bonifay Road", "city": "Chipley", "state": "Florida", "postcode": "32428", "lat": 30.786558907962405, "long": -85.5600239241111}, {"house_number": "1643", "road": "Old Bonifay Road", "city": "Chipley", "state": "Florida", "postcode": "32428", "lat": 30.788680792872313, "long": -85.5612853633311}, {"house_number": "511", "road": "Rustin Drive", "city": "Chipley", "state": "Florida", "postcode": "32428", "lat": 30.791433995579638, "long": -85.55003651276861}, {"house_number": "1474", "road": "Old Bonifay Road", "city": "Chipley", "state": "Florida", "postcode": "32428", "lat": 30.78641049999999, "long": -85.55508699999999}, {"house_number": "1510", "road": "Old Bonifay Road", "city": "Chipley", "state": "Florida", "postcode": "32428", "lat": 30.786455770268596, "long": -85.55710593235544}, {"house_number": "424", "road": "North 2nd Street", "city": "Chipley", "state": "Florida", "postcode": "32428", "lat": 30.79943814522907, "long": -85.54330726302918}, {"house_number": "402", "road": "North 2nd Street", "city": "Chipley", "state": "Florida", "postcode": "32428", "lat": 30.800930999999988, "long": -85.5432725}, {"house_number": "773", "road": "Hoyt Street", "city": "Chipley", "state": "Florida", "postcode": "32428", "lat": 30.774775499999997, "long": -85.55410699999999}, {"house_number": "482", "road": "Hoyt Street", "city": "Chipley", "state": "Florida", "postcode": "32428", "lat": 30.775671003171194, "long": -85.5540994746434}, {"house_number": "1262", "road": "Harrison Avenue", "city": "Chipley", "state": "Florida", "postcode": "32428", "lat": 30.76537799999999, "long": -85.53989099999998}, {"house_number": "704", "road": "Harrell Avenue", "city": "Chipley", "state": "Florida", "postcode": "32428", "lat": 30.76990228450714, "long": -85.5393424847202}, {"house_number": "977", "road": "South 5th Street", "city": "Chipley", "state": "Florida", "postcode": "32428", "lat": 30.764910378380776, "long": -85.53889439306545}, {"house_number": "1320", "road": "Brickyard Road", "city": "Chipley", "state": "Florida", "postcode": "32428", "lat": 30.764483499999997, "long": -85.53928949999998}, {"house_number": "848", "road": "Earl Street", "city": "Chipley", "state": "Florida", "postcode": "32428", "lat": 30.764891993757985, "long": -85.53810262920088}, {"house_number": "1209", "road": "Harrison Avenue", "city": "Chipley", "state": "Florida", "postcode": "32428", "lat": 30.765322807218634, "long": -85.53765445197011}, {"house_number": "1305", "road": "Brickyard Road", "city": "Chipley", "state": "Florida", "postcode": "32428", "lat": 30.764466, "long": -85.5385065}, {"house_number": "876", "road": "2nd Street", "city": "Chipley", "state": "Florida", "postcode": "32428", "lat": 30.768745, "long": -85.5435415}, {"house_number": "876", "road": "2nd Street", "city": "Chipley", "state": "Florida", "postcode": "32428", "lat": 30.768745, "long": -85.5435415}, {"house_number": "745", "road": "3rd Street", "city": "Chipley", "state": "Florida", "postcode": "32428", "lat": 30.775494482136367, "long": -85.54225003009932}, {"house_number": "728", "road": "Pecan Street", "city": "Chipley", "state": "Florida", "postcode": "32428", "lat": 30.77605307208244, "long": -85.5316282834942}, {"house_number": "1187", "road": "East 4th Avenue", "city": "Chipley", "state": "Florida", "postcode": "32428", "lat": 30.775428774282158, "long": -85.53232494338027}, {"house_number": "1150", "road": "East 4th Avenue", "city": "Chipley", "state": "Florida", "postcode": "32428", "lat": 30.775405999999997, "long": -85.530924}, {"house_number": "1207", "road": "South 3 Rd Avenue", "city": "Chipley", "state": "Florida", "postcode": "32428", "lat": 30.776679034925454, "long": -85.53096390191399}, {"house_number": "788", "road": "West Boulevard", "city": "Chipley", "state": "Florida", "postcode": "32428", "lat": 30.773462005854846, "long": -85.55121714788315}, {"house_number": "1436", "road": "South Boulevard", "city": "Chipley", "state": "Florida", "postcode": "32428", "lat": 30.772062874939063, "long": -85.55265198932484}, {"house_number": "788", "road": "Hoyt Street", "city": "Chipley", "state": "Florida", "postcode": "32428", "lat": 30.773153499564643, "long": -85.5540986644069}, {"house_number": "1463", "road": "West Jackson Avenue", "city": "Chipley", "state": "Florida", "postcode": "32428", "lat": 30.776789680714483, "long": -85.55288906844704}, {"house_number": "349", "road": "West Boulevard", "city": "Chipley", "state": "Florida", "postcode": "32428", "lat": 30.777047752798566, "long": -85.55125750224353}, {"house_number": "1450", "road": "US 90", "city": "Chipley", "state": "Florida", "postcode": "32428", "lat": 30.77618221524361, "long": -85.5550736204466}, {"house_number": "1522", "road": "US 90", "city": "Chipley", "state": "Florida", "postcode": "32428", "lat": 30.77586286208098, "long": -85.55725980780875}, {"house_number": "1544", "road": "South Boulevard", "city": "Chipley", "state": "Florida", "postcode": "32428", "lat": 30.77218814202625, "long": -85.56196601176065}, {"house_number": "1579", "road": "South Boulevard", "city": "Chipley", "state": "Florida", "postcode": "32428", "lat": 30.772223999999994, "long": -85.5644885}, {"house_number": "740", "road": "Pecan Street", "city": "Chipley", "state": "Florida", "postcode": "32428", "lat": 30.7748, "long": -85.53159199999999}, {"house_number": "1185", "road": "South 5th Avenue", "city": "Chipley", "state": "Florida", "postcode": "32428", "lat": 30.77418882582972, "long": -85.53228988135487}, {"house_number": "764", "road": "Orange Street", "city": "Chipley", "state": "Florida", "postcode": "32428", "lat": 30.77478223997778, "long": -85.53020765431069}, {"house_number": "751", "road": "South 5th Avenue", "city": "Chipley", "state": "Florida", "postcode": "32428", "lat": 30.774177308055354, "long": -85.52951578026908}, {"house_number": "751", "road": "South 5th Avenue", "city": "Chipley", "state": "Florida", "postcode": "32428", "lat": 30.774177308055354, "long": -85.52951578026908}, {"house_number": "757", "road": "Peach Street", "city": "Chipley", "state": "Florida", "postcode": "32428", "lat": 30.77489004940188, "long": -85.52886533591646}, {"house_number": "758", "road": "Peach Street", "city": "Chipley", "state": "Florida", "postcode": "32428", "lat": 30.774361999999993, "long": -85.52885149999997}, {"house_number": "1377", "road": "South Boulevard", "city": "Chipley", "state": "Florida", "postcode": "32428", "lat": 30.771989845596195, "long": -85.54813695674216}, {"house_number": "780", "road": "Iona Street", "city": "Chipley", "state": "Florida", "postcode": "32428", "lat": 30.772921500000002, "long": -85.549924}, {"house_number": "630", "road": "Iona Street", "city": "Chipley", "state": "Florida", "postcode": "32428", "lat": 30.774366999999998, "long": -85.5499495}, {"house_number": "900", "road": "Cherry Avenue", "city": "Chipley", "state": "Florida", "postcode": "32428", "lat": 30.772846165567042, "long": -85.54444453450424}, {"house_number": "754", "road": "South 1st Street", "city": "Chipley", "state": "Florida", "postcode": "32428", "lat": 30.773309499999993, "long": -85.545583}, {"house_number": "754", "road": "South 1st Street", "city": "Chipley", "state": "Florida", "postcode": "32428", "lat": 30.773309499999993, "long": -85.545583}, {"house_number": "900", "road": "West Estelle Avenue", "city": "Chipley", "state": "Florida", "postcode": "32428", "lat": 30.773745999999996, "long": -85.54440699999999}, {"house_number": "1330", "road": "Forrest Avenue", "city": "Chipley", "state": "Florida", "postcode": "32428", "lat": 30.774858717928343, "long": -85.54437004536427}, {"house_number": "788", "road": "2nd Street", "city": "Chipley", "state": "Florida", "postcode": "32428", "lat": 30.774299853935634, "long": -85.54321990971677}, {"house_number": "747", "road": "South 1st Street", "city": "Chipley", "state": "Florida", "postcode": "32428", "lat": 30.77430939865488, "long": -85.54555135658435}, {"house_number": "747", "road": "South 1st Street", "city": "Chipley", "state": "Florida", "postcode": "32428", "lat": 30.77430939865488, "long": -85.54555135658435}, {"house_number": "1308", "road": "Forrest Avenue", "city": "Chipley", "state": "Florida", "postcode": "32428", "lat": 30.7748467306056, "long": -85.54273501274163}, {"house_number": "774", "road": "3rd Street", "city": "Chipley", "state": "Florida", "postcode": "32428", "lat": 30.773355670267634, "long": -85.54232601468361}]