[{"house_number": "1149", "road": "Americana Boulevard", "city": "Sanford", "state": "Florida", "postcode": "32773", "lat": 28.76211253187923, "long": -81.28242696184726}, {"house_number": "1200", "road": "Bridgewater Drive", "city": "Lake Mary", "state": "Florida", "postcode": "32746", "lat": 28.76290020738998, "long": -81.3670522450501}, {"house_number": "349", "road": "4th Street", "city": "Lake Mary", "state": "Florida", "postcode": "32746", "lat": 28.74720149902821, "long": -81.32410356749807}, {"house_number": "385", "road": "Waymont Court", "city": "Lake Mary", "state": "Florida", "postcode": "32746", "lat": 28.753805486998694, "long": -81.3393114638915}, {"house_number": "1200", "road": "Red Cleveland Boulevard", "city": "Sanford", "state": "Florida", "postcode": "32773", "lat": 28.774552286649108, "long": -81.24147929143516}, {"house_number": "1200", "road": "Red Cleveland Boulevard", "city": "Sanford", "state": "Florida", "postcode": "32773", "lat": 28.774552286649108, "long": -81.24147929143516}, {"house_number": "1200", "road": "Red Cleveland Boulevard", "city": "Sanford", "state": "Florida", "postcode": "32773", "lat": 28.774552286649108, "long": -81.24147929143516}, {"house_number": "1200", "road": "Red Cleveland Boulevard", "city": "Sanford", "state": "Florida", "postcode": "32773", "lat": 28.774552286649108, "long": -81.24147929143516}, {"house_number": "1840", "road": "Rinehart Road", "city": "Sanford", "state": "Florida", "postcode": "32771", "lat": 28.808956499999997, "long": -81.33122649999999}, {"house_number": "1450", "road": "Airport Boulevard", "city": "Sanford", "state": "Florida", "postcode": "32773", "lat": 28.781260425072293, "long": -81.29735347659059}, {"house_number": "1650", "road": "Airport Boulevard", "city": "Sanford", "state": "Florida", "postcode": "32773", "lat": 28.78467447924934, "long": -81.29760506186024}, {"house_number": "948", "road": "East 7th Street", "city": "Sanford", "state": "Florida", "postcode": "32771", "lat": 28.806304317481246, "long": -81.25922798912744}, {"house_number": "2750", "road": "Beardall Avenue", "city": "Sanford", "state": "Florida", "postcode": "32773", "lat": 28.7779505046291, "long": -81.2226176045508}, {"house_number": "748", "road": "East 8th Street", "city": "Sanford", "state": "Florida", "postcode": "32771", "lat": 28.80535709583652, "long": -81.26128999515159}, {"house_number": "748", "road": "Locust Avenue", "city": "Sanford", "state": "Florida", "postcode": "32771", "lat": 28.805830471432238, "long": -81.26077675314535}, {"house_number": "748", "road": "Orange Avenue", "city": "Sanford", "state": "Florida", "postcode": "32771", "lat": 28.805838482107507, "long": -81.2597608970973}, {"house_number": "848", "road": "East 8th Street", "city": "Sanford", "state": "Florida", "postcode": "32771", "lat": 28.80536809590405, "long": -81.2602619950087}, {"house_number": "948", "road": "South Palmetto Avenue", "city": "Sanford", "state": "Florida", "postcode": "32771", "lat": 28.803989499999993, "long": -81.265923}, {"house_number": "248", "road": "East 10th Street", "city": "Sanford", "state": "Florida", "postcode": "32771", "lat": 28.803536831488206, "long": -81.26642900716902}, {"house_number": "348", "road": "East 9th Street", "city": "Sanford", "state": "Florida", "postcode": "32771", "lat": 28.804447232004875, "long": -81.2654170221011}, {"house_number": "348", "road": "East 10th Street", "city": "Sanford", "state": "Florida", "postcode": "32771", "lat": 28.803543095829706, "long": -81.26541399503235}, {"house_number": "848", "road": "Cypress Avenue", "city": "Sanford", "state": "Florida", "postcode": "32771", "lat": 28.804905005552765, "long": -81.26386660560588}, {"house_number": "1048", "road": "Sanford Avenue", "city": "Sanford", "state": "Florida", "postcode": "32771", "lat": 28.803095005435345, "long": -81.26489860524822}, {"house_number": "348", "road": "East 11th Street", "city": "Sanford", "state": "Florida", "postcode": "32771", "lat": 28.80263509575623, "long": -81.26540499505572}, {"house_number": "1048", "road": "South Palmetto Avenue", "city": "Sanford", "state": "Florida", "postcode": "32771", "lat": 28.803084003282542, "long": -81.2659196024446}, {"house_number": "248", "road": "East 12th Street", "city": "Sanford", "state": "Florida", "postcode": "32771", "lat": 28.801738596470944, "long": -81.26640799498935}, {"house_number": "248", "road": "East 11th Street", "city": "Sanford", "state": "Florida", "postcode": "32771", "lat": 28.80262459647095, "long": -81.26641999498938}, {"house_number": "1148", "road": "South Palmetto Avenue", "city": "Sanford", "state": "Florida", "postcode": "32771", "lat": 28.80218700555276, "long": -81.26591060560588}, {"house_number": "1148", "road": "Sanford Avenue", "city": "Sanford", "state": "Florida", "postcode": "32771", "lat": 28.80219800335404, "long": -81.2648896027315}, {"house_number": "348", "road": "East 12th Street", "city": "Sanford", "state": "Florida", "postcode": "32771", "lat": 28.801749095829713, "long": -81.26539599503232}, {"house_number": "948", "road": "Cypress Avenue", "city": "Sanford", "state": "Florida", "postcode": "32771", "lat": 28.804008020429425, "long": -81.26385306636149}, {"house_number": "448", "road": "East 10th Street", "city": "Sanford", "state": "Florida", "postcode": "32771", "lat": 28.803551098498048, "long": -81.26437699714876}, {"house_number": "448", "road": "East 11th Street", "city": "Sanford", "state": "Florida", "postcode": "32771", "lat": 28.802648593912927, "long": -81.26436799321338}, {"house_number": "948", "road": "Pine Avenue", "city": "Sanford", "state": "Florida", "postcode": "32771", "lat": 28.804018498894425, "long": -81.26282409978069}, {"house_number": "548", "road": "East 10th Street", "city": "Sanford", "state": "Florida", "postcode": "32771", "lat": 28.803557722452783, "long": -81.2633369741536}, {"house_number": "848", "road": "Pine Avenue", "city": "Sanford", "state": "Florida", "postcode": "32771", "lat": 28.8049125, "long": -81.26282399999998}, {"house_number": "1198", "road": "Cypress Avenue", "city": "Sanford", "state": "Florida", "postcode": "32771", "lat": 28.801952486681614, "long": -81.26383907903026}, {"house_number": "448", "road": "Celery Avenue", "city": "Sanford", "state": "Florida", "postcode": "32771", "lat": 28.801244535041125, "long": -81.2643560806919}, {"house_number": "1248", "road": "Sanford Avenue", "city": "Sanford", "state": "Florida", "postcode": "32771", "lat": 28.801496505722383, "long": -81.26488360451515}, {"house_number": "1998", "road": "Lake Harney Road", "city": "Geneva", "state": "Florida", "postcode": "32732", "lat": 28.744028592504407, "long": -81.08402749193833}, {"house_number": "650", "road": "Coffee Trail", "city": "Geneva", "state": "Florida", "postcode": "32732", "lat": 28.7466700106137, "long": -81.10709411135291}, {"house_number": "351", "road": "Culver Way", "city": "Geneva", "state": "Florida", "postcode": "32732", "lat": 28.74589581836756, "long": -81.11136647551666}, {"house_number": "950", "road": "North Hart Road", "city": "Geneva", "state": "Florida", "postcode": "32732", "lat": 28.74895173045596, "long": -81.11551501794256}, {"house_number": "950", "road": "North Hart Road", "city": "Geneva", "state": "Florida", "postcode": "32732", "lat": 28.74895173045596, "long": -81.11551501794256}, {"house_number": "1299", "road": "North Hart Road", "city": "Geneva", "state": "Florida", "postcode": "32732", "lat": 28.752593526344626, "long": -81.11333819317423}, {"house_number": "743", "road": "Willow Pond Lane", "city": "Geneva", "state": "Florida", "postcode": "32732", "lat": 28.75345291793167, "long": -81.11127536279531}, {"house_number": "789", "road": "Willow Pond Lane", "city": "Geneva", "state": "Florida", "postcode": "32732", "lat": 28.752052857953323, "long": -81.11125441615557}, {"house_number": "887", "road": "Teal Road", "city": "Geneva", "state": "Florida", "postcode": "32732", "lat": 28.751278808492653, "long": -81.09981235695}, {"house_number": "887", "road": "Teal Road", "city": "Geneva", "state": "Florida", "postcode": "32732", "lat": 28.751278808492653, "long": -81.09981235695}, {"house_number": "4698", "road": "South Sanford Avenue", "city": "Sanford", "state": "Florida", "postcode": "32773", "lat": 28.74004050532002, "long": -81.26437460536742}, {"house_number": "4573", "road": "South Sanford Avenue", "city": "Sanford", "state": "Florida", "postcode": "32773", "lat": 28.741840006599926, "long": -81.26439860546996}, {"house_number": "2803", "road": "Grove Drive", "city": "Sanford", "state": "Florida", "postcode": "32773", "lat": 28.7776714976839, "long": -81.26105244637905}, {"house_number": "2808", "road": "Central Drive", "city": "Sanford", "state": "Florida", "postcode": "32773", "lat": 28.77698640882825, "long": -81.26373086398544}, {"house_number": "808", "road": "Country Club Road", "city": "Lake Mary", "state": "Florida", "postcode": "32746", "lat": 28.76677699999999, "long": -81.32211699999999}, {"house_number": "2817", "road": "Regal Pine Trail", "city": "Oviedo", "state": "Florida", "postcode": "32766", "lat": 28.629329242410854, "long": -81.15095803685274}, {"house_number": "376", "road": "Hidden Hollow Court", "city": "Sanford", "state": "Florida", "postcode": "32773", "lat": 28.764164885087883, "long": -81.29750135333119}, {"house_number": "250", "road": "Waymont Court", "city": "Lake Mary", "state": "Florida", "postcode": "32746", "lat": 28.754681508308913, "long": -81.33973243411363}, {"house_number": "1148", "road": "Bishop Avenue", "city": "Oviedo", "state": "Florida", "postcode": "32765", "lat": 28.66318540391377, "long": -81.1837319200353}, {"house_number": "243", "road": "Coachman Court", "city": "Sanford", "state": "Florida", "postcode": "32773", "lat": 28.756233202555563, "long": -81.27541942964466}, {"house_number": "243", "road": "Coachman Court", "city": "Sanford", "state": "Florida", "postcode": "32773", "lat": 28.756233202555563, "long": -81.27541942964466}]