[{"house_number": "448", "road": "Olive Circle", "city": "Green Cove Springs", "state": "Florida", "postcode": "32043", "lat": 29.982462783584335, "long": -81.6911827778302}, {"house_number": "584", "road": "Leonard C. Taylor Parkway", "city": "Green Cove Springs", "state": "Florida", "postcode": "32043", "lat": 29.97812670981784, "long": -81.64360156882735}, {"house_number": "409", "road": "Sylvan Way", "city": "Keystone Heights", "state": "Florida", "postcode": "32656", "lat": 29.783051726094893, "long": -82.02720634143553}, {"house_number": "1011", "road": "Wall Street", "city": "Green Cove Springs", "state": "Florida", "postcode": "32043", "lat": 29.995422023345558, "long": -81.68775885017756}, {"house_number": "198", "road": "Center Street", "city": "Green Cove Springs", "state": "Florida", "postcode": "32043", "lat": 29.995286037977756, "long": -81.67815895187769}, {"house_number": "198", "road": "Center Street", "city": "Green Cove Springs", "state": "Florida", "postcode": "32043", "lat": 29.995286037977756, "long": -81.67815895187769}, {"house_number": "1050", "road": "Loring Avenue", "city": "Orange Park", "state": "Florida", "postcode": "32073", "lat": 30.180260651458752, "long": -81.71166032583194}, {"house_number": "1300", "road": "Miller Street", "city": "Orange Park", "state": "Florida", "postcode": "32073", "lat": 30.174893565575776, "long": -81.71372391294656}, {"house_number": "1269", "road": "Miller Street", "city": "Orange Park", "state": "Florida", "postcode": "32073", "lat": 30.17307720482345, "long": -81.71276747397461}, {"house_number": "981", "road": "Gano Avenue", "city": "Orange Park", "state": "Florida", "postcode": "32073", "lat": 30.171110810590516, "long": -81.71473749874372}, {"house_number": "1649", "road": "Solomon Street North", "city": "Orange Park", "state": "Florida", "postcode": "32073", "lat": 30.170197999138434, "long": -81.7143045264867}, {"house_number": "1150", "road": "Floyd Circle West", "city": "Orange Park", "state": "Florida", "postcode": "32073", "lat": 30.17196476498365, "long": -81.71203286658998}, {"house_number": "850", "road": "Floyd Circle North", "city": "Orange Park", "state": "Florida", "postcode": "32073", "lat": 30.17278803693578, "long": -81.71164758077632}, {"house_number": "1129", "road": "Morgan Circle East", "city": "Orange Park", "state": "Florida", "postcode": "32073", "lat": 30.175325914733605, "long": -81.70886324282667}, {"house_number": "1448", "road": "Floyd Circle East", "city": "Orange Park", "state": "Florida", "postcode": "32073", "lat": 30.171995318726978, "long": -81.71120363048122}, {"house_number": "751", "road": "Winfred Drive North", "city": "Orange Park", "state": "Florida", "postcode": "32073", "lat": 30.17088499999999, "long": -81.70913}, {"house_number": "551", "road": "Loring Village Court", "city": "Orange Park", "state": "Florida", "postcode": "32073", "lat": 30.181235235244507, "long": -81.70534647211666}, {"house_number": "349", "road": "Candy Lane", "city": "Orange Park", "state": "Florida", "postcode": "32073", "lat": 30.179641941269555, "long": -81.70510941764047}, {"house_number": "763", "road": "Plainfield Avenue", "city": "Orange Park", "state": "Florida", "postcode": "32073", "lat": 30.18084521851091, "long": -81.70467814337562}, {"house_number": "820", "road": "Plainfield Avenue", "city": "Orange Park", "state": "Florida", "postcode": "32073", "lat": 30.18005, "long": -81.704595}, {"house_number": "869", "road": "Plainfield Avenue", "city": "Orange Park", "state": "Florida", "postcode": "32073", "lat": 30.178931036401455, "long": -81.70449200830275}, {"house_number": "451", "road": "Newport Drive", "city": "Orange Park", "state": "Florida", "postcode": "32073", "lat": 30.182039194292248, "long": -81.70381498886465}, {"house_number": "1448", "road": "Plainfield Avenue", "city": "Orange Park", "state": "Florida", "postcode": "32073", "lat": 30.172034788366297, "long": -81.70583939534338}, {"house_number": "501", "road": "Hurley Street", "city": "Orange Park", "state": "Florida", "postcode": "32073", "lat": 30.171290575559492, "long": -81.70462492743505}, {"house_number": "1548", "road": "Plainfield Avenue", "city": "Orange Park", "state": "Florida", "postcode": "32073", "lat": 30.17084536034303, "long": -81.70623102344639}, {"house_number": "1112", "road": "Plainfield Avenue", "city": "Orange Park", "state": "Florida", "postcode": "32073", "lat": 30.176229696118504, "long": -81.70446416434179}, {"house_number": "600", "road": "San Robar Drive", "city": "Orange Park", "state": "Florida", "postcode": "32073", "lat": 30.175910629410943, "long": -81.70673534394844}, {"house_number": "1162", "road": "Plainfield Avenue", "city": "Orange Park", "state": "Florida", "postcode": "32073", "lat": 30.175532133537835, "long": -81.70469223424436}, {"house_number": "1260", "road": "Plainfield Avenue", "city": "Orange Park", "state": "Florida", "postcode": "32073", "lat": 30.174179842659594, "long": -81.70513002007438}, {"house_number": "1448", "road": "Smith Street", "city": "Orange Park", "state": "Florida", "postcode": "32073", "lat": 30.172094997818753, "long": -81.70318004171601}, {"house_number": "1549", "road": "Smith Street", "city": "Orange Park", "state": "Florida", "postcode": "32073", "lat": 30.170899999999996, "long": -81.70312499999997}, {"house_number": "1808", "road": "Miller Street", "city": "Orange Park", "state": "Florida", "postcode": "32073", "lat": 30.168404999999993, "long": -81.71318}, {"house_number": "949", "road": "Kingsley Avenue", "city": "Orange Park", "state": "Florida", "postcode": "32073", "lat": 30.165495999999994, "long": -81.71360949999996}, {"house_number": "949", "road": "Kingsley Avenue", "city": "Orange Park", "state": "Florida", "postcode": "32073", "lat": 30.165495999999994, "long": -81.71360949999996}, {"house_number": "849", "road": "Kingsley Avenue", "city": "Orange Park", "state": "Florida", "postcode": "32073", "lat": 30.165534650626874, "long": -81.71185192740907}, {"house_number": "849", "road": "Kingsley Avenue", "city": "Orange Park", "state": "Florida", "postcode": "32073", "lat": 30.165534650626874, "long": -81.71185192740907}, {"house_number": "753", "road": "Winfred Drive West", "city": "Orange Park", "state": "Florida", "postcode": "32073", "lat": 30.16942922185683, "long": -81.70974860812927}, {"house_number": "753", "road": "Winfred Drive West", "city": "Orange Park", "state": "Florida", "postcode": "32073", "lat": 30.16942922185683, "long": -81.70974860812927}, {"house_number": "1806", "road": "Railroad Avenue South", "city": "Orange Park", "state": "Florida", "postcode": "32073", "lat": 30.167485057666095, "long": -81.7100242041818}, {"house_number": "600", "road": "Morgan Street", "city": "Orange Park", "state": "Florida", "postcode": "32073", "lat": 30.174914279574697, "long": -81.70680795361814}, {"house_number": "750", "road": "Kingsley Avenue", "city": "Orange Park", "state": "Florida", "postcode": "32073", "lat": 30.16559467107489, "long": -81.709880425837}, {"house_number": "2016", "road": "Doctors Lake Drive", "city": "Orange Park", "state": "Florida", "postcode": "32073", "lat": 30.165046739845597, "long": -81.71051799419722}, {"house_number": "601", "road": "Claire Lane", "city": "Orange Park", "state": "Florida", "postcode": "32073", "lat": 30.173342514414202, "long": -81.70765009100502}, {"house_number": "855", "road": "Milwaukee Avenue", "city": "Orange Park", "state": "Florida", "postcode": "32073", "lat": 30.162444999999988, "long": -81.71222999999998}, {"house_number": "1149", "road": "Chateau Place", "city": "Orange Park", "state": "Florida", "postcode": "32073", "lat": 30.162285221618813, "long": -81.7182251008027}, {"house_number": "2299", "road": "Furma Street", "city": "Orange Park", "state": "Florida", "postcode": "32073", "lat": 30.160501910625324, "long": -81.71160931353236}, {"house_number": "805", "road": "Milwaukee Avenue", "city": "Orange Park", "state": "Florida", "postcode": "32073", "lat": 30.16248618299088, "long": -81.71088396398886}, {"house_number": "2249", "road": "Birdwood Drive", "city": "Orange Park", "state": "Florida", "postcode": "32073", "lat": 30.161207929895884, "long": -81.71452408502059}, {"house_number": "947", "road": "Birdwood Drive", "city": "Orange Park", "state": "Florida", "postcode": "32073", "lat": 30.157619341532833, "long": -81.71351066993302}, {"house_number": "947", "road": "Birdwood Drive", "city": "Orange Park", "state": "Florida", "postcode": "32073", "lat": 30.157619341532833, "long": -81.71351066993302}, {"house_number": "947", "road": "Birdwood Drive", "city": "Orange Park", "state": "Florida", "postcode": "32073", "lat": 30.157619341532833, "long": -81.71351066993302}, {"house_number": "947", "road": "Birdwood Drive", "city": "Orange Park", "state": "Florida", "postcode": "32073", "lat": 30.157619341532833, "long": -81.71351066993302}, {"house_number": "947", "road": "Birdwood Drive", "city": "Orange Park", "state": "Florida", "postcode": "32073", "lat": 30.157619341532833, "long": -81.71351066993302}, {"house_number": "947", "road": "Birdwood Drive", "city": "Orange Park", "state": "Florida", "postcode": "32073", "lat": 30.157619341532833, "long": -81.71351066993302}, {"house_number": "947", "road": "Birdwood Drive", "city": "Orange Park", "state": "Florida", "postcode": "32073", "lat": 30.157619341532833, "long": -81.71351066993302}, {"house_number": "947", "road": "Birdwood Drive", "city": "Orange Park", "state": "Florida", "postcode": "32073", "lat": 30.157619341532833, "long": -81.71351066993302}, {"house_number": "947", "road": "Birdwood Drive", "city": "Orange Park", "state": "Florida", "postcode": "32073", "lat": 30.157619341532833, "long": -81.71351066993302}, {"house_number": "947", "road": "Birdwood Drive", "city": "Orange Park", "state": "Florida", "postcode": "32073", "lat": 30.157619341532833, "long": -81.71351066993302}, {"house_number": "947", "road": "Birdwood Drive", "city": "Orange Park", "state": "Florida", "postcode": "32073", "lat": 30.157619341532833, "long": -81.71351066993302}, {"house_number": "947", "road": "Birdwood Drive", "city": "Orange Park", "state": "Florida", "postcode": "32073", "lat": 30.157619341532833, "long": -81.71351066993302}, {"house_number": "947", "road": "Birdwood Drive", "city": "Orange Park", "state": "Florida", "postcode": "32073", "lat": 30.157619341532833, "long": -81.71351066993302}, {"house_number": "947", "road": "Birdwood Drive", "city": "Orange Park", "state": "Florida", "postcode": "32073", "lat": 30.157619341532833, "long": -81.71351066993302}, {"house_number": "947", "road": "Birdwood Drive", "city": "Orange Park", "state": "Florida", "postcode": "32073", "lat": 30.157619341532833, "long": -81.71351066993302}, {"house_number": "1348", "road": "Black Gum Court", "city": "Orange Park", "state": "Florida", "postcode": "32073", "lat": 30.171645146388716, "long": -81.72318504917139}, {"house_number": "1452", "road": "Dog Fennel Court", "city": "Orange Park", "state": "Florida", "postcode": "32073", "lat": 30.169204600516096, "long": -81.72338498389352}, {"house_number": "1425", "road": "Dog Fennel Court", "city": "Orange Park", "state": "Florida", "postcode": "32073", "lat": 30.168942110150212, "long": -81.72256878282953}, {"house_number": "1448", "road": "Loblolly Court", "city": "Orange Park", "state": "Florida", "postcode": "32073", "lat": 30.168919629393294, "long": -81.72321425054331}, {"house_number": "1522", "road": "Slash Pine Court", "city": "Orange Park", "state": "Florida", "postcode": "32073", "lat": 30.16979723852709, "long": -81.72185394466787}, {"house_number": "3454", "road": "Rio Vista Circle", "city": "Green Cove Springs", "state": "Florida", "postcode": "32043", "lat": 29.98612896753439, "long": -81.66648264845804}, {"house_number": "576", "road": "Leonard C. Taylor Parkway", "city": "Green Cove Springs", "state": "Florida", "postcode": "32043", "lat": 29.978036708385186, "long": -81.64321656581295}, {"house_number": "3950", "road": "Kelsey Road", "city": "Green Cove Springs", "state": "Florida", "postcode": "32043", "lat": 29.978553697049446, "long": -81.64370216443787}, {"house_number": "451", "road": "Highland Avenue South", "city": "Green Cove Springs", "state": "Florida", "postcode": "32043", "lat": 29.98397530529033, "long": -81.69324492091017}, {"house_number": "351", "road": "Oakridge Avenue South", "city": "Green Cove Springs", "state": "Florida", "postcode": "32043", "lat": 29.985579999999995, "long": -81.69602499999999}, {"house_number": "6516", "road": "Triest Avenue", "city": "Keystone Heights", "state": "Florida", "postcode": "32656", "lat": 29.78421, "long": -82.02286500000001}, {"house_number": "4137", "road": "Eldridge Avenue", "city": "Orange Park", "state": "Florida", "postcode": "32073", "lat": 30.190700502613247, "long": -81.69893010336281}, {"house_number": "300", "road": "Park Avenue", "city": "Orange Park", "state": "Florida", "postcode": "32073", "lat": 30.186029856156498, "long": -81.70211717200431}, {"house_number": "502", "road": "Plainfield Avenue", "city": "Orange Park", "state": "Florida", "postcode": "32073", "lat": 30.183439903186308, "long": -81.70415962471805}, {"house_number": "7485", "road": "Donald Street", "city": "Keystone Heights", "state": "Florida", "postcode": "32656", "lat": 29.782370475413245, "long": -82.02350683263299}, {"house_number": "2148", "road": "Dogwood Lane", "city": "Orange Park", "state": "Florida", "postcode": "32073", "lat": 30.162785, "long": -81.71282}, {"house_number": "2448", "road": "Dogwood Lane", "city": "Orange Park", "state": "Florida", "postcode": "32073", "lat": 30.158149210874512, "long": -81.71264980426574}, {"house_number": "2299", "road": "Hollyleaf Lane", "city": "Orange Park", "state": "Florida", "postcode": "32073", "lat": 30.160976732743073, "long": -81.71055747548748}, {"house_number": "6550", "road": "Patti Street", "city": "Keystone Heights", "state": "Florida", "postcode": "32656", "lat": 29.783206236293825, "long": -82.02391200246949}]