[{"house_number": "648", "road": "Northeast 223rd Avenue", "city": "Cross City", "state": "Florida", "postcode": "32628", "lat": 29.646071226718686, "long": -83.13171315311509}, {"house_number": "250", "road": "Southwest 351 Highway", "city": "Cross City", "state": "Florida", "postcode": "32628", "lat": 29.59076453276746, "long": -83.13079499862066}, {"house_number": "250", "road": "Southwest 351 Highway", "city": "Cross City", "state": "Florida", "postcode": "32628", "lat": 29.59076453276746, "long": -83.13079499862066}, {"house_number": "500", "road": "Northeast 162nd Street", "city": "Cross City", "state": "Florida", "postcode": "32628", "lat": 29.635600026921445, "long": -83.11580815740915}, {"house_number": "500", "road": "Northeast 162nd Street", "city": "Cross City", "state": "Florida", "postcode": "32628", "lat": 29.635600026921445, "long": -83.11580815740915}, {"house_number": "351", "road": "Northeast 296th Avenue", "city": "Cross City", "state": "Florida", "postcode": "32628", "lat": 29.65670177681272, "long": -83.12860873847994}, {"house_number": "73", "road": "Northeast 222nd Avenue", "city": "Cross City", "state": "Florida", "postcode": "32628", "lat": 29.638920070581314, "long": -83.12189503212224}, {"house_number": "1605", "road": "Southwest 351 Highway", "city": "Cross City", "state": "Florida", "postcode": "32628", "lat": 29.612796983987128, "long": -83.135419898821}, {"house_number": "153", "road": "Northeast 162nd Street", "city": "Cross City", "state": "Florida", "postcode": "32628", "lat": 29.63204496955411, "long": -83.11589393018181}, {"house_number": "850", "road": "Southeast 49th Avenue", "city": "Cross City", "state": "Florida", "postcode": "32628", "lat": 29.621967487665355, "long": -83.12369189689385}, {"house_number": "148", "road": "Southeast 278th Street", "city": "Cross City", "state": "Florida", "postcode": "32628", "lat": 29.632371178614743, "long": -83.12550330133969}, {"house_number": "50", "road": "Southeast 33rd Avenue", "city": "Cross City", "state": "Florida", "postcode": "32628", "lat": 29.62807, "long": -83.11854}, {"house_number": "150", "road": "Northeast 176th Avenue", "city": "Cross City", "state": "Florida", "postcode": "32628", "lat": 29.627851085610725, "long": -83.11271087690972}, {"house_number": "211", "road": "Northeast 152nd Street", "city": "Cross City", "state": "Florida", "postcode": "32628", "lat": 29.639962007181882, "long": -83.11790607733072}, {"house_number": "461", "road": "SE 22nd Ave", "city": "Cross City", "state": "Florida", "postcode": "32628", "lat": 29.631625474023373, "long": -83.12366499767928}]