[{"house_number": "17429", "road": "Charles Johns Street", "city": "Blountstown", "state": "Florida", "postcode": "32424", "lat": 30.451818000917235, "long": -85.04922983113939}, {"house_number": "20748", "road": "Fannin Avenue", "city": "Blountstown", "state": "Florida", "postcode": "32424", "lat": 30.442300929089704, "long": -85.0440194949922}, {"house_number": "16624", "road": "FL 71", "city": "Blountstown", "state": "Florida", "postcode": "32424", "lat": 30.436403104950767, "long": -85.04918883626843}, {"house_number": "902", "road": "Boyd Street", "city": "Blountstown", "state": "Florida", "postcode": "32424", "lat": 30.434464860240475, "long": -85.04307692211167}, {"house_number": "902", "road": "Boyd Street", "city": "Blountstown", "state": "Florida", "postcode": "32424", "lat": 30.434464860240475, "long": -85.04307692211167}, {"house_number": "20295", "road": "Mc Clellan Avenue", "city": "Blountstown", "state": "Florida", "postcode": "32424", "lat": 30.44564976749319, "long": -85.05238507204697}, {"house_number": "20295", "road": "Mc Clellan Avenue", "city": "Blountstown", "state": "Florida", "postcode": "32424", "lat": 30.44564976749319, "long": -85.05238507204697}, {"house_number": "1100", "road": "Smith Street", "city": "Blountstown", "state": "Florida", "postcode": "32424", "lat": 30.43387449286361, "long": -85.03360882167021}, {"house_number": "1100", "road": "Smith Street", "city": "Blountstown", "state": "Florida", "postcode": "32424", "lat": 30.43387449286361, "long": -85.03360882167021}, {"house_number": "16750", "road": "South Pear Street", "city": "Blountstown", "state": "Florida", "postcode": "32424", "lat": 30.442772988599682, "long": -85.04497353358667}, {"house_number": "16356", "road": "South Main Street", "city": "Blountstown", "state": "Florida", "postcode": "32424", "lat": 30.43692400119599, "long": -85.04592888339504}, {"house_number": "16356", "road": "South Main Street", "city": "Blountstown", "state": "Florida", "postcode": "32424", "lat": 30.43692400119599, "long": -85.04592888339504}, {"house_number": "20124", "road": "Marie Avenue", "city": "Blountstown", "state": "Florida", "postcode": "32424", "lat": 30.45502210484408, "long": -85.05417800505808}, {"house_number": "20242", "road": "Evans Street", "city": "Blountstown", "state": "Florida", "postcode": "32424", "lat": 30.450669499999997, "long": -85.05267649999999}, {"house_number": "349", "road": "Depot Avenue", "city": "Blountstown", "state": "Florida", "postcode": "32424", "lat": 30.446465371787806, "long": -85.04830063396929}, {"house_number": "349", "road": "Depot Avenue", "city": "Blountstown", "state": "Florida", "postcode": "32424", "lat": 30.446465371787806, "long": -85.04830063396929}, {"house_number": "6700", "road": "FL 71", "city": "Blountstown", "state": "Florida", "postcode": "32424", "lat": 30.287881999999993, "long": -85.14327249999998}, {"house_number": "6700", "road": "FL 71", "city": "Blountstown", "state": "Florida", "postcode": "32424", "lat": 30.287881999999993, "long": -85.14327249999998}, {"house_number": "6700", "road": "FL 71", "city": "Blountstown", "state": "Florida", "postcode": "32424", "lat": 30.287881999999993, "long": -85.14327249999998}, {"house_number": "19549", "road": "South Avenue", "city": "Blountstown", "state": "Florida", "postcode": "32424", "lat": 30.4423609632277, "long": -85.06409550071089}, {"house_number": "19800", "road": "South Avenue", "city": "Blountstown", "state": "Florida", "postcode": "32424", "lat": 30.442315797368288, "long": -85.0605340762328}, {"house_number": "949", "road": "Franklin Street", "city": "Blountstown", "state": "Florida", "postcode": "32424", "lat": 30.450787999999992, "long": -85.05623599999998}, {"house_number": "17247", "road": "Franklin Street", "city": "Blountstown", "state": "Florida", "postcode": "32424", "lat": 30.450228143004104, "long": -85.05608024653088}, {"house_number": "20028", "road": "Franklin Street", "city": "Blountstown", "state": "Florida", "postcode": "32424", "lat": 30.45123149999999, "long": -85.05657299999999}, {"house_number": "16549", "road": "FL 71", "city": "Blountstown", "state": "Florida", "postcode": "32424", "lat": 30.43590479593298, "long": -85.05041275110281}, {"house_number": "16250", "road": "Smith Street", "city": "Blountstown", "state": "Florida", "postcode": "32424", "lat": 30.43447450319813, "long": -85.03362337827186}, {"house_number": "25451", "road": "J W Dillard Street", "city": "Altha", "state": "Florida", "postcode": "32421", "lat": 30.568542134629954, "long": -85.13328931483886}, {"house_number": "18949", "road": "Mason Road", "city": "Blountstown", "state": "Florida", "postcode": "32424", "lat": 30.46412811016546, "long": -85.0437180097988}, {"house_number": "20599", "road": "West Hentz Avenue", "city": "Blountstown", "state": "Florida", "postcode": "32424", "lat": 30.45609198847545, "long": -85.0461721178948}, {"house_number": "20599", "road": "West Hentz Avenue", "city": "Blountstown", "state": "Florida", "postcode": "32424", "lat": 30.45609198847545, "long": -85.0461721178948}, {"house_number": "17348", "road": "4th Avenue", "city": "Blountstown", "state": "Florida", "postcode": "32424", "lat": 30.45144849999999, "long": -85.051047}, {"house_number": "17348", "road": "4th Avenue", "city": "Blountstown", "state": "Florida", "postcode": "32424", "lat": 30.45144849999999, "long": -85.051047}, {"house_number": "20453", "road": "Walnut Street", "city": "Blountstown", "state": "Florida", "postcode": "32424", "lat": 30.444121570308344, "long": -85.04835430892294}, {"house_number": "20453", "road": "Walnut Street", "city": "Blountstown", "state": "Florida", "postcode": "32424", "lat": 30.444121570308344, "long": -85.04835430892294}, {"house_number": "20629", "road": "East Central Avenue", "city": "Blountstown", "state": "Florida", "postcode": "32424", "lat": 30.443198204894223, "long": -85.04539750926376}, {"house_number": "8237", "road": "FL 71", "city": "Blountstown", "state": "Florida", "postcode": "32424", "lat": 30.312736472317308, "long": -85.12811807606786}, {"house_number": "250", "road": "North Main Street", "city": "Blountstown", "state": "Florida", "postcode": "32424", "lat": 30.445121994239756, "long": -85.04579659439334}, {"house_number": "250", "road": "North Main Street", "city": "Blountstown", "state": "Florida", "postcode": "32424", "lat": 30.445121994239756, "long": -85.04579659439334}, {"house_number": "25582", "road": "Main Street", "city": "Altha", "state": "Florida", "postcode": "32421", "lat": 30.57010249437406, "long": -85.12722809299369}, {"house_number": "16548", "road": "Veterans Street", "city": "Blountstown", "state": "Florida", "postcode": "32424", "lat": 30.4392765, "long": -85.04222149999998}, {"house_number": "20499", "road": "West Marie Avenue", "city": "Blountstown", "state": "Florida", "postcode": "32424", "lat": 30.454940397375513, "long": -85.04827095803446}, {"house_number": "696", "road": "Patterson Street", "city": "Blountstown", "state": "Florida", "postcode": "32424", "lat": 30.43653147796986, "long": -85.03703046217036}]