[{"house_number": "12650", "road": "91st Street", "city": "Fellsmere", "state": "Florida", "postcode": "32948", "lat": 27.760988441040084, "long": -80.5869949973802}, {"house_number": "12650", "road": "91st Street", "city": "Fellsmere", "state": "Florida", "postcode": "32948", "lat": 27.760988441040084, "long": -80.5869949973802}, {"house_number": "12584", "road": "91st Street", "city": "Fellsmere", "state": "Florida", "postcode": "32948", "lat": 27.760954999999996, "long": -80.58424}, {"house_number": "4921", "road": "41st Street", "city": "Gifford", "state": "Florida", "postcode": "32967", "lat": 27.66790965816203, "long": -80.43804000604054}, {"house_number": "4956", "road": "41st Street", "city": "Gifford", "state": "Florida", "postcode": "32967", "lat": 27.667919999999988, "long": -80.43875999999999}, {"house_number": "3350", "road": "41st Street", "city": "Gifford", "state": "Florida", "postcode": "32967", "lat": 27.6677224812307, "long": -80.4197099778685}, {"house_number": "6210", "road": "33rd Street", "city": "Gifford", "state": "Florida", "postcode": "32966", "lat": 27.653449999999985, "long": -80.45283499999998}, {"house_number": "12889", "road": "91st Street", "city": "Fellsmere", "state": "Florida", "postcode": "32948", "lat": 27.761029999999998, "long": -80.59079999999999}, {"house_number": "5664", "road": "41st Street", "city": "Gifford", "state": "Florida", "postcode": "32967", "lat": 27.667961766465705, "long": -80.44375508975119}, {"house_number": "5753", "road": "41st Street", "city": "Gifford", "state": "Florida", "postcode": "32967", "lat": 27.667970000000004, "long": -80.444165}, {"house_number": "5938", "road": "45th Street", "city": "Gifford", "state": "Florida", "postcode": "32967", "lat": 27.67531999999999, "long": -80.44958999999999}, {"house_number": "6449", "road": "26th Street", "city": "West Vero Corridor", "state": "Florida", "postcode": "32966", "lat": 27.646224934487343, "long": -80.4588400528563}, {"house_number": "5850", "road": "45th Street", "city": "Gifford", "state": "Florida", "postcode": "32967", "lat": 27.67530962751277, "long": -80.44753500285314}, {"house_number": "5952", "road": "45th Street", "city": "Gifford", "state": "Florida", "postcode": "32967", "lat": 27.67531999999999, "long": -80.44904}, {"house_number": "1898", "road": "Pointe West Way", "city": "West Vero Corridor", "state": "Florida", "postcode": "32966", "lat": 27.633326151019983, "long": -80.48855597676616}, {"house_number": "4886", "road": "45th Street", "city": "Gifford", "state": "Florida", "postcode": "32967", "lat": 27.675239999999988, "long": -80.43736999999999}, {"house_number": "4994", "road": "45th Street", "city": "Gifford", "state": "Florida", "postcode": "32967", "lat": 27.675239999999988, "long": -80.43778499999999}, {"house_number": "5450", "road": "45th Street", "city": "Gifford", "state": "Florida", "postcode": "32967", "lat": 27.67527475655434, "long": -80.44261000300047}, {"house_number": "5372", "road": "45th Street", "city": "Gifford", "state": "Florida", "postcode": "32967", "lat": 27.675279999999997, "long": -80.44309849999999}, {"house_number": "12350", "road": "91st Street", "city": "Fellsmere", "state": "Florida", "postcode": "32948", "lat": 27.760905670325005, "long": -80.57961503770825}, {"house_number": "6850", "road": "20th Street", "city": "West Vero Corridor", "state": "Florida", "postcode": "32966", "lat": 27.63900027449037, "long": -80.46956499850214}, {"house_number": "7681", "road": "20th Street", "city": "West Vero Corridor", "state": "Florida", "postcode": "32966", "lat": 27.639074827140192, "long": -80.48393000099517}, {"house_number": "8151", "road": "20th Street", "city": "West Vero Corridor", "state": "Florida", "postcode": "32966", "lat": 27.63908999999999, "long": -80.49544999999999}, {"house_number": "7575", "road": "26th Street", "city": "West Vero Corridor", "state": "Florida", "postcode": "32966", "lat": 27.646345329791327, "long": -80.4838744614593}, {"house_number": "127", "road": "Bimini Cay Circle", "city": "West Vero Corridor", "state": "Florida", "postcode": "32966", "lat": 27.628812269756768, "long": -80.50756250968132}, {"house_number": "127", "road": "Bimini Cay Circle", "city": "West Vero Corridor", "state": "Florida", "postcode": "32966", "lat": 27.628812269756768, "long": -80.50756250968132}, {"house_number": "267", "road": "Bimini Cay Circle", "city": "West Vero Corridor", "state": "Florida", "postcode": "32966", "lat": 27.62984424162418, "long": -80.50713393121815}, {"house_number": "267", "road": "Bimini Cay Circle", "city": "West Vero Corridor", "state": "Florida", "postcode": "32966", "lat": 27.62984424162418, "long": -80.50713393121815}, {"house_number": "267", "road": "Bimini Cay Circle", "city": "West Vero Corridor", "state": "Florida", "postcode": "32966", "lat": 27.62984424162418, "long": -80.50713393121815}, {"house_number": "267", "road": "Bimini Cay Circle", "city": "West Vero Corridor", "state": "Florida", "postcode": "32966", "lat": 27.62984424162418, "long": -80.50713393121815}, {"house_number": "267", "road": "Bimini Cay Circle", "city": "West Vero Corridor", "state": "Florida", "postcode": "32966", "lat": 27.62984424162418, "long": -80.50713393121815}, {"house_number": "267", "road": "Bimini Cay Circle", "city": "West Vero Corridor", "state": "Florida", "postcode": "32966", "lat": 27.62984424162418, "long": -80.50713393121815}, {"house_number": "267", "road": "Bimini Cay Circle", "city": "West Vero Corridor", "state": "Florida", "postcode": "32966", "lat": 27.62984424162418, "long": -80.50713393121815}, {"house_number": "981", "road": "Pirate Cove Lane", "city": "Vero Beach", "state": "Florida", "postcode": "32963", "lat": 27.62853298205374, "long": -80.35174930508637}, {"house_number": "2035", "road": "36th Avenue", "city": "Vero Beach", "state": "Florida", "postcode": "32960", "lat": 27.63935499999999, "long": -80.42246}, {"house_number": "2036", "road": "35th Avenue", "city": "Vero Beach", "state": "Florida", "postcode": "32960", "lat": 27.639344795342193, "long": -80.42147800766354}, {"house_number": "2551", "road": "Buena Vista Boulevard", "city": "Vero Beach", "state": "Florida", "postcode": "32960", "lat": 27.645330170024252, "long": -80.406631001764}, {"house_number": "5339", "road": "FL A1A", "city": "Indian River Shores", "state": "Florida", "postcode": "32963", "lat": 27.679440008987118, "long": -80.36605497723174}, {"house_number": "6283", "road": "FL A1A", "city": "Indian River Shores", "state": "Florida", "postcode": "32963", "lat": 27.688919999999992, "long": -80.36962}, {"house_number": "162", "road": "Ocean Beach Trail", "city": "Indian River Shores", "state": "Florida", "postcode": "32963", "lat": 27.68838013874418, "long": -80.3675293080019}, {"house_number": "106", "road": "Rivercove Lane", "city": "Indian River Shores", "state": "Florida", "postcode": "32963", "lat": 27.688572418283872, "long": -80.37422501662637}, {"house_number": "108", "road": "Estuary Drive", "city": "Indian River Shores", "state": "Florida", "postcode": "32963", "lat": 27.688039550570878, "long": -80.37366477048928}, {"house_number": "107", "road": "Rivercove Lane", "city": "Indian River Shores", "state": "Florida", "postcode": "32963", "lat": 27.68855210158025, "long": -80.37390993002498}, {"house_number": "2949", "road": "20th Street", "city": "Vero Beach", "state": "Florida", "postcode": "32960", "lat": 27.63841733828885, "long": -80.41551004824215}, {"house_number": "2825", "road": "20th Street", "city": "Vero Beach", "state": "Florida", "postcode": "32960", "lat": 27.638276327450292, "long": -80.41554003955729}, {"house_number": "7971", "road": "Cambridge Mnr", "city": "West Vero Corridor", "state": "Florida", "postcode": "32966", "lat": 27.63874904131093, "long": -80.49179826818242}, {"house_number": "1970", "road": "Sixty Oaks Lane", "city": "West Vero Corridor", "state": "Florida", "postcode": "32966", "lat": 27.63810075310572, "long": -80.45322723291923}, {"house_number": "2001", "road": "Avilla Avenue", "city": "Vero Beach", "state": "Florida", "postcode": "32960", "lat": 27.63856552332185, "long": -80.41219788746935}, {"house_number": "1906", "road": "41st Avenue", "city": "Vero Beach", "state": "Florida", "postcode": "32960", "lat": 27.63676988139795, "long": -80.427864961125}, {"house_number": "1985", "road": "41st Avenue", "city": "Vero Beach", "state": "Florida", "postcode": "32960", "lat": 27.638044983231662, "long": -80.42785342690101}, {"house_number": "1976", "road": "16th Avenue", "city": "Vero Beach", "state": "Florida", "postcode": "32960", "lat": 27.63786506795568, "long": -80.401417855756}, {"house_number": "1446", "road": "19th Place", "city": "Vero Beach", "state": "Florida", "postcode": "32960", "lat": 27.63759988397206, "long": -80.40020500539956}, {"house_number": "1961", "road": "14th Avenue", "city": "Vero Beach", "state": "Florida", "postcode": "32960", "lat": 27.637839997778688, "long": -80.39935994239312}, {"house_number": "1989", "road": "14th Avenue", "city": "Vero Beach", "state": "Florida", "postcode": "32960", "lat": 27.638354976143347, "long": -80.39935671526626}, {"house_number": "1986", "road": "Sixty Oaks Lane", "city": "West Vero Corridor", "state": "Florida", "postcode": "32966", "lat": 27.63858843847202, "long": -80.45322945996405}, {"house_number": "1952", "road": "Sixty Oaks Lane", "city": "West Vero Corridor", "state": "Florida", "postcode": "32966", "lat": 27.637806044642932, "long": -80.45322464198293}, {"house_number": "753", "road": "Egret Point", "city": "Vero Beach", "state": "Florida", "postcode": "32963", "lat": 27.637008255153493, "long": -80.35911833128586}, {"house_number": "745", "road": "Egret Point", "city": "Vero Beach", "state": "Florida", "postcode": "32963", "lat": 27.63719850770437, "long": -80.35887057555561}, {"house_number": "1820", "road": "58th Avenue", "city": "Vero Beach", "state": "Florida", "postcode": "32966", "lat": 27.635994660590125, "long": -80.44660735975482}, {"house_number": "1903", "road": "Tarpon Lane", "city": "Vero Beach", "state": "Florida", "postcode": "32960", "lat": 27.636510295691377, "long": -80.37613292537037}, {"house_number": "1955", "road": "28th Avenue", "city": "Vero Beach", "state": "Florida", "postcode": "32960", "lat": 27.637175, "long": -80.41476999999999}, {"house_number": "1901", "road": "90th Avenue", "city": "West Vero Corridor", "state": "Florida", "postcode": "32966", "lat": 27.637881999999994, "long": -80.51230349999999}, {"house_number": "1994", "road": "10th Court", "city": "Vero Beach", "state": "Florida", "postcode": "32960", "lat": 27.637940000000004, "long": -80.39451499999998}, {"house_number": "7972", "road": "Ascot Place", "city": "West Vero Corridor", "state": "Florida", "postcode": "32966", "lat": 27.63733460201645, "long": -80.49182501637917}, {"house_number": "1950", "road": "Olde Bridge Drive", "city": "West Vero Corridor", "state": "Florida", "postcode": "32966", "lat": 27.63817500294186, "long": -80.49119496176476}, {"house_number": "1886", "road": "19th Avenue", "city": "Vero Beach", "state": "Florida", "postcode": "32960", "lat": 27.636720023237565, "long": -80.40450727751957}, {"house_number": "1853", "road": "19th Place", "city": "Vero Beach", "state": "Florida", "postcode": "32960", "lat": 27.637664677598607, "long": -80.40381500555698}, {"house_number": "1832", "road": "19th Place", "city": "Vero Beach", "state": "Florida", "postcode": "32960", "lat": 27.637674970599562, "long": -80.40422500057798}, {"house_number": "1964", "road": "6th Avenue", "city": "Vero Beach", "state": "Florida", "postcode": "32960", "lat": 27.637385, "long": -80.38507}, {"house_number": "1446", "road": "19th Place", "city": "Vero Beach", "state": "Florida", "postcode": "32960", "lat": 27.63758999999999, "long": -80.39993999999999}, {"house_number": "1975", "road": "10th Court", "city": "Vero Beach", "state": "Florida", "postcode": "32960", "lat": 27.637669999999993, "long": -80.39451999999999}, {"house_number": "2602", "road": "19th Place", "city": "Vero Beach", "state": "Florida", "postcode": "32960", "lat": 27.637479608428368, "long": -80.41316501492362}, {"house_number": "2655", "road": "19th Place", "city": "Vero Beach", "state": "Florida", "postcode": "32960", "lat": 27.63748456977481, "long": -80.41359998810678}, {"house_number": "1927", "road": "27th Avenue", "city": "Vero Beach", "state": "Florida", "postcode": "32960", "lat": 27.63736000945585, "long": -80.41377458372732}, {"house_number": "1932", "road": "Olde Bridge Drive", "city": "West Vero Corridor", "state": "Florida", "postcode": "32966", "lat": 27.637529975737507, "long": -80.49114967534258}, {"house_number": "1987", "road": "Olde Bridge Drive", "city": "West Vero Corridor", "state": "Florida", "postcode": "32966", "lat": 27.6379398330337, "long": -80.49114997614767}, {"house_number": "1921", "road": "10th Court", "city": "Vero Beach", "state": "Florida", "postcode": "32960", "lat": 27.636931637500098, "long": -80.39452881048237}, {"house_number": "1953", "road": "10th Court", "city": "Vero Beach", "state": "Florida", "postcode": "32960", "lat": 27.63736490796982, "long": -80.3945226036812}, {"house_number": "1933", "road": "Sixty Oaks Lane", "city": "West Vero Corridor", "state": "Florida", "postcode": "32966", "lat": 27.637539999999987, "long": -80.45325}, {"house_number": "1952", "road": "6th Avenue", "city": "Vero Beach", "state": "Florida", "postcode": "32960", "lat": 27.637184999999988, "long": -80.385075}, {"house_number": "1981", "road": "19th Avenue", "city": "Vero Beach", "state": "Florida", "postcode": "32960", "lat": 27.637424998847635, "long": -80.4044899706334}, {"house_number": "1926", "road": "Sixty Oaks Lane", "city": "West Vero Corridor", "state": "Florida", "postcode": "32966", "lat": 27.63721344817897, "long": -80.4532479508471}, {"house_number": "1552", "road": "19th Street", "city": "Vero Beach", "state": "Florida", "postcode": "32960", "lat": 27.63620984655775, "long": -80.40165500787624}, {"house_number": "1905", "road": "19th Street", "city": "Vero Beach", "state": "Florida", "postcode": "32960", "lat": 27.63626999999999, "long": -80.40475500000001}, {"house_number": "1945", "road": "19th Street", "city": "Vero Beach", "state": "Florida", "postcode": "32960", "lat": 27.63626999999999, "long": -80.40525}, {"house_number": "909", "road": "Greenway Lane", "city": "Vero Beach", "state": "Florida", "postcode": "32963", "lat": 27.63654999999999, "long": -80.35565}, {"house_number": "903", "road": "Greenway Lane", "city": "Vero Beach", "state": "Florida", "postcode": "32963", "lat": 27.63654999999999, "long": -80.35611}, {"house_number": "7476", "road": "White Oak Lane", "city": "West Vero Corridor", "state": "Florida", "postcode": "32966", "lat": 27.638507738991443, "long": -80.48141189449878}, {"house_number": "2349", "road": "17th Street Southwest", "city": "Florida Ridge", "state": "Florida", "postcode": "32962", "lat": 27.57240438307063, "long": -80.41151705962679}, {"house_number": "2051", "road": "20th Ave Southwest", "city": "Florida Ridge", "state": "Florida", "postcode": "32962", "lat": 27.56660060445109, "long": -80.40617162536353}, {"house_number": "191", "road": "Lakeview Way", "city": "Indian River Shores", "state": "Florida", "postcode": "32963", "lat": 27.688648800926273, "long": -80.37214154433858}, {"house_number": "3301", "road": "110th Place", "city": "Windsor", "state": "Florida", "postcode": "32963", "lat": 27.795679644831395, "long": -80.41658757301019}, {"house_number": "261", "road": "16th Place Southwest", "city": "Florida Ridge", "state": "Florida", "postcode": "32962", "lat": 27.573194500628745, "long": -80.37878364346507}, {"house_number": "1001", "road": "4th Street", "city": "Vero Beach", "state": "Florida", "postcode": "32962", "lat": 27.608859587692432, "long": -80.39348149846892}, {"house_number": "145", "road": "Rivermist Way", "city": "Indian River Shores", "state": "Florida", "postcode": "32963", "lat": 27.6896077864075, "long": -80.37443607835036}, {"house_number": "664", "road": "Brush Foot Drive", "city": "Sebastian", "state": "Florida", "postcode": "32958", "lat": 27.803891609402726, "long": -80.49557502399432}, {"house_number": "1592", "road": "2nd Road Southwest", "city": "Florida Ridge", "state": "Florida", "postcode": "32962", "lat": 27.574236297460676, "long": -80.37897722652353}, {"house_number": "2433", "road": "US 1", "city": "Vero Beach", "state": "Florida", "postcode": "32960", "lat": 27.643528787312253, "long": -80.3987281876196}, {"house_number": "2484", "road": "US 1", "city": "Vero Beach", "state": "Florida", "postcode": "32960", "lat": 27.64410999999999, "long": -80.39893999999997}, {"house_number": "4811", "road": "38th Circle", "city": "Gifford", "state": "Florida", "postcode": "32967", "lat": 27.682111179176644, "long": -80.42396826392216}, {"house_number": "4811", "road": "38th Circle", "city": "Gifford", "state": "Florida", "postcode": "32967", "lat": 27.682111179176644, "long": -80.42396826392216}, {"house_number": "4811", "road": "38th Circle", "city": "Gifford", "state": "Florida", "postcode": "32967", "lat": 27.682111179176644, "long": -80.42396826392216}, {"house_number": "105", "road": "Chiefs Trail", "city": "Indian River Shores", "state": "Florida", "postcode": "32963", "lat": 27.740885766924333, "long": -80.3865464175917}, {"house_number": "1452", "road": "24th Street", "city": "Vero Beach", "state": "Florida", "postcode": "32960", "lat": 27.64322999999999, "long": -80.40003}, {"house_number": "5800", "road": "24th Street", "city": "West Vero Corridor", "state": "Florida", "postcode": "32966", "lat": 27.64383499999999, "long": -80.44656999999998}, {"house_number": "2409", "road": "18th Avenue", "city": "Vero Beach", "state": "Florida", "postcode": "32960", "lat": 27.643435000000004, "long": -80.40335}, {"house_number": "2459", "road": "18th Avenue", "city": "Vero Beach", "state": "Florida", "postcode": "32960", "lat": 27.644005504976985, "long": -80.40333711557349}, {"house_number": "1825", "road": "24th Street", "city": "Vero Beach", "state": "Florida", "postcode": "32960", "lat": 27.64328451776076, "long": -80.40320501506213}, {"house_number": "2359", "road": "Ocean Drive", "city": "Vero Beach", "state": "Florida", "postcode": "32963", "lat": 27.64307008555565, "long": -80.35346963777779}, {"house_number": "1901", "road": "23rd Street", "city": "Vero Beach", "state": "Florida", "postcode": "32960", "lat": 27.642140922975642, "long": -80.40463522580654}, {"house_number": "1901", "road": "23rd Street", "city": "Vero Beach", "state": "Florida", "postcode": "32960", "lat": 27.642134961552724, "long": -80.40413000074193}, {"house_number": "1901", "road": "23rd Street", "city": "Vero Beach", "state": "Florida", "postcode": "32960", "lat": 27.642129999999998, "long": -80.40361999999998}, {"house_number": "1602", "road": "23rd Street", "city": "Vero Beach", "state": "Florida", "postcode": "32960", "lat": 27.642084990199837, "long": -80.40107500019231}, {"house_number": "447", "road": "22nd Place", "city": "Vero Beach", "state": "Florida", "postcode": "32960", "lat": 27.640511187113344, "long": -80.38179022130524}, {"house_number": "2100", "road": "10th Avenue", "city": "Vero Beach", "state": "Florida", "postcode": "32960", "lat": 27.64005500033691, "long": -80.39319998702172}, {"house_number": "2180", "road": "10th Avenue", "city": "Vero Beach", "state": "Florida", "postcode": "32960", "lat": 27.640829962620696, "long": -80.39320230817151}, {"house_number": "2065", "road": "18th Avenue", "city": "Vero Beach", "state": "Florida", "postcode": "32960", "lat": 27.64014498488737, "long": -80.40340952354192}, {"house_number": "2151", "road": "18th Avenue", "city": "Vero Beach", "state": "Florida", "postcode": "32960", "lat": 27.640719999999995, "long": -80.40339999999998}, {"house_number": "572", "road": "River Drive", "city": "Vero Beach", "state": "Florida", "postcode": "32963", "lat": 27.640390757610987, "long": -80.3621863894347}, {"house_number": "2151", "road": "8th Avenue Southwest", "city": "Vero Beach", "state": "Florida", "postcode": "32960", "lat": 27.64042498974246, "long": -80.38911456122578}, {"house_number": "1216", "road": "21st Street", "city": "Vero Beach", "state": "Florida", "postcode": "32960", "lat": 27.639724780621897, "long": -80.39804500549808}, {"house_number": "2107", "road": "15th Avenue", "city": "Vero Beach", "state": "Florida", "postcode": "32960", "lat": 27.63998999773951, "long": -80.40035995248859}, {"house_number": "2157", "road": "15th Avenue", "city": "Vero Beach", "state": "Florida", "postcode": "32960", "lat": 27.640564995562457, "long": -80.40033983573801}, {"house_number": "2115", "road": "14th Avenue", "city": "Vero Beach", "state": "Florida", "postcode": "32960", "lat": 27.639974999999996, "long": -80.39933999999998}, {"house_number": "2140", "road": "14th Avenue", "city": "Vero Beach", "state": "Florida", "postcode": "32960", "lat": 27.64055494595637, "long": -80.39933197259214}, {"house_number": "2158", "road": "Seville Avenue", "city": "Vero Beach", "state": "Florida", "postcode": "32960", "lat": 27.640697271250026, "long": -80.412574113084}, {"house_number": "2206", "road": "Avilla Avenue", "city": "Vero Beach", "state": "Florida", "postcode": "32960", "lat": 27.639691588227855, "long": -80.41284529101041}, {"house_number": "2245", "road": "Avilla Avenue", "city": "Vero Beach", "state": "Florida", "postcode": "32960", "lat": 27.640019999999996, "long": -80.41330999999998}, {"house_number": "2086", "road": "28th Avenue", "city": "Vero Beach", "state": "Florida", "postcode": "32960", "lat": 27.63977496483916, "long": -80.41473253574009}, {"house_number": "2116", "road": "28th Avenue", "city": "Vero Beach", "state": "Florida", "postcode": "32960", "lat": 27.64037507713378, "long": -80.41473473509949}, {"house_number": "504", "road": "River Drive", "city": "Vero Beach", "state": "Florida", "postcode": "32963", "lat": 27.640049361338345, "long": -80.36376711836216}, {"house_number": "514", "road": "River Drive", "city": "Vero Beach", "state": "Florida", "postcode": "32963", "lat": 27.63994087801426, "long": -80.36260087395334}, {"house_number": "8315", "road": "FL A1A", "city": "Indian River Shores", "state": "Florida", "postcode": "32963", "lat": 27.741211999999994, "long": -80.3859935}, {"house_number": "8315", "road": "FL A1A", "city": "Indian River Shores", "state": "Florida", "postcode": "32963", "lat": 27.741211999999994, "long": -80.3859935}, {"house_number": "548", "road": "Kingfish Drive", "city": "West Vero Corridor", "state": "Florida", "postcode": "32961", "lat": 27.634953873253743, "long": -80.50577633160991}]