[{"house_number": "1147", "road": "South Cooper Drive", "city": "Deltona", "state": "Florida", "postcode": "32725", "lat": 28.912795764494707, "long": -81.24243699700796}, {"house_number": "1110", "road": "South Cooper Drive", "city": "Deltona", "state": "Florida", "postcode": "32725", "lat": 28.912770583010406, "long": -81.24491750030462}, {"house_number": "2670", "road": "Newmark Drive", "city": "Deltona", "state": "Florida", "postcode": "32738", "lat": 28.90877063417096, "long": -81.1921592970877}, {"house_number": "2713", "road": "Newmark Drive", "city": "Deltona", "state": "Florida", "postcode": "32738", "lat": 28.910117842031138, "long": -81.19126250849628}, {"house_number": "1717", "road": "Buena Vista Avenue", "city": "Ormond Beach", "state": "Florida", "postcode": "32117", "lat": 29.260948800550494, "long": -81.04548349695571}, {"house_number": "1706", "road": "Areca Way", "city": "Ormond Beach", "state": "Florida", "postcode": "32117", "lat": 29.261389237291095, "long": -81.04496479181051}, {"house_number": "1708", "road": "Riverside Drive", "city": "Ormond Beach", "state": "Florida", "postcode": "32117", "lat": 29.261941353319543, "long": -81.04361329690965}, {"house_number": "111", "road": "Rhode Island Avenue", "city": "Orange City", "state": "Florida", "postcode": "32763", "lat": 28.934060439373237, "long": -81.30073594716636}, {"house_number": "3453", "road": "Florentine Street", "city": "Deltona", "state": "Florida", "postcode": "32738", "lat": 28.90546672871497, "long": -81.16592899867298}, {"house_number": "920", "road": "Marquette Court", "city": "Deltona", "state": "Florida", "postcode": "32725", "lat": 28.88957639951539, "long": -81.24793221169837}, {"house_number": "2580", "road": "Old New York Avenue", "city": "DeLand", "state": "Florida", "postcode": "32720", "lat": 29.015185233243173, "long": -81.3569919842568}, {"house_number": "415", "road": "South Grand Avenue", "city": "DeLand", "state": "Florida", "postcode": "32720", "lat": 29.020238999999993, "long": -81.34715349999999}, {"house_number": "5616", "road": "Knox Drive", "city": "Port Orange", "state": "Florida", "postcode": "32127", "lat": 29.11689499999999, "long": -80.98600549999998}, {"house_number": "713", "road": "Sleepy Hollow Drive", "city": "Port Orange", "state": "Florida", "postcode": "32127", "lat": 29.123679999999993, "long": -80.99974199999998}, {"house_number": "208", "road": "Desoto Drive", "city": "New Smyrna Beach", "state": "Florida", "postcode": "32169", "lat": 29.033817320437837, "long": -80.91254369981208}, {"house_number": "303", "road": "Desoto Drive", "city": "New Smyrna Beach", "state": "Florida", "postcode": "32169", "lat": 29.033717138455366, "long": -80.91222943341383}, {"house_number": "53", "road": "Desoto Drive", "city": "New Smyrna Beach", "state": "Florida", "postcode": "32169", "lat": 29.033639570963192, "long": -80.91215353767527}, {"house_number": "350", "road": "North Causeway", "city": "New Smyrna Beach", "state": "Florida", "postcode": "32169", "lat": 29.03562058536846, "long": -80.91222222849575}, {"house_number": "398", "road": "North Causeway", "city": "New Smyrna Beach", "state": "Florida", "postcode": "32169", "lat": 29.03642153902946, "long": -80.91103819145579}, {"house_number": "321", "road": "Granada Street", "city": "New Smyrna Beach", "state": "Florida", "postcode": "32169", "lat": 29.034394039544676, "long": -80.91189218960697}, {"house_number": "380", "road": "Granada Street", "city": "New Smyrna Beach", "state": "Florida", "postcode": "32169", "lat": 29.035124040549942, "long": -80.91081268770341}, {"house_number": "207", "road": "Saludo Street", "city": "New Smyrna Beach", "state": "Florida", "postcode": "32169", "lat": 29.034811507765294, "long": -80.90997421909655}, {"house_number": "353", "road": "Desoto Drive", "city": "New Smyrna Beach", "state": "Florida", "postcode": "32169", "lat": 29.033903426277455, "long": -80.91117649984305}, {"house_number": "440", "road": "Granada Street", "city": "New Smyrna Beach", "state": "Florida", "postcode": "32169", "lat": 29.03582458185811, "long": -80.9097960440256}, {"house_number": "383", "road": "Desoto Drive", "city": "New Smyrna Beach", "state": "Florida", "postcode": "32169", "lat": 29.03403272357274, "long": -80.90990178455142}, {"house_number": "445", "road": "Desoto Drive", "city": "New Smyrna Beach", "state": "Florida", "postcode": "32169", "lat": 29.035194064399228, "long": -80.90910171347781}, {"house_number": "303", "road": "Cortez Street", "city": "New Smyrna Beach", "state": "Florida", "postcode": "32169", "lat": 29.055261519517973, "long": -80.90799783795853}, {"house_number": "1621", "road": "North Peninsula Avenue", "city": "New Smyrna Beach", "state": "Florida", "postcode": "32169", "lat": 29.054824582258316, "long": -80.90730282208976}, {"house_number": "204", "road": "Tide Street", "city": "New Smyrna Beach", "state": "Florida", "postcode": "32169", "lat": 29.05424109819741, "long": -80.90744999878365}, {"house_number": "1511", "road": "North Peninsula Avenue", "city": "New Smyrna Beach", "state": "Florida", "postcode": "32169", "lat": 29.053486703934887, "long": -80.9066913356534}, {"house_number": "306", "road": "Cortez Street", "city": "New Smyrna Beach", "state": "Florida", "postcode": "32169", "lat": 29.05555851886055, "long": -80.90714382644798}, {"house_number": "1616", "road": "Beacon Street", "city": "New Smyrna Beach", "state": "Florida", "postcode": "32169", "lat": 29.05498408160094, "long": -80.90637982314487}, {"house_number": "401", "road": "Cortez Street", "city": "New Smyrna Beach", "state": "Florida", "postcode": "32169", "lat": 29.055877663342834, "long": -80.90624550167084}, {"house_number": "1636", "road": "North Atlantic Avenue", "city": "New Smyrna Beach", "state": "Florida", "postcode": "32169", "lat": 29.055234035349155, "long": -80.9053959478118}, {"house_number": "1636", "road": "North Atlantic Avenue", "city": "New Smyrna Beach", "state": "Florida", "postcode": "32169", "lat": 29.055234035349155, "long": -80.9053959478118}, {"house_number": "1515", "road": "Beacon Street", "city": "New Smyrna Beach", "state": "Florida", "postcode": "32169", "lat": 29.05364908212442, "long": -80.90575982453237}, {"house_number": "1416", "road": "Beacon Street", "city": "New Smyrna Beach", "state": "Florida", "postcode": "32169", "lat": 29.052089932831503, "long": -80.90504964945953}, {"house_number": "1417", "road": "North Peninsula Avenue", "city": "New Smyrna Beach", "state": "Florida", "postcode": "32169", "lat": 29.05177815119108, "long": -80.90590566902547}, {"house_number": "3774", "road": "Olson Drive", "city": "Daytona Beach", "state": "Florida", "postcode": "32124", "lat": 29.14600943746877, "long": -81.1429896682985}, {"house_number": "3701", "road": "Olson Drive", "city": "Daytona Beach", "state": "Florida", "postcode": "32124", "lat": 29.146594166429797, "long": -81.14145555543601}, {"house_number": "1282", "road": "Mills Drive", "city": "New Smyrna Beach", "state": "Florida", "postcode": "32168", "lat": 29.003933999999987, "long": -80.93813649999998}, {"house_number": "1606", "road": "Ross Lane", "city": "New Smyrna Beach", "state": "Florida", "postcode": "32168", "lat": 29.016243829651664, "long": -80.94097040930846}, {"house_number": "1603", "road": "Canal Street", "city": "New Smyrna Beach", "state": "Florida", "postcode": "32168", "lat": 29.01584762586481, "long": -80.93986753799595}, {"house_number": "1609", "road": "Canal Street", "city": "New Smyrna Beach", "state": "Florida", "postcode": "32168", "lat": 29.015546715251354, "long": -80.94035962256231}, {"house_number": "121", "road": "Wallace Road", "city": "New Smyrna Beach", "state": "Florida", "postcode": "32168", "lat": 29.015730499999993, "long": -80.942397}, {"house_number": "1606", "road": "Ross Lane", "city": "New Smyrna Beach", "state": "Florida", "postcode": "32168", "lat": 29.016491241780034, "long": -80.94052180327093}, {"house_number": "1288", "road": "Mills Drive", "city": "New Smyrna Beach", "state": "Florida", "postcode": "32168", "lat": 29.004119121032232, "long": -80.93847869152226}, {"house_number": "1270", "road": "Mills Drive", "city": "New Smyrna Beach", "state": "Florida", "postcode": "32168", "lat": 29.003841499999993, "long": -80.93796499999999}, {"house_number": "1400", "road": "Ross Lane", "city": "New Smyrna Beach", "state": "Florida", "postcode": "32168", "lat": 29.017218165001818, "long": -80.93929102533424}, {"house_number": "1400", "road": "Ross Lane", "city": "New Smyrna Beach", "state": "Florida", "postcode": "32168", "lat": 29.016855022466697, "long": -80.939898120485}, {"house_number": "2230", "road": "Doster Drive", "city": "New Smyrna Beach", "state": "Florida", "postcode": "32168", "lat": 29.002013499999997, "long": -80.95023749999999}, {"house_number": "764", "road": "Bolton Road", "city": "New Smyrna Beach", "state": "Florida", "postcode": "32168", "lat": 29.005710750801317, "long": -80.9534448030778}, {"house_number": "764", "road": "Bolton Road", "city": "New Smyrna Beach", "state": "Florida", "postcode": "32168", "lat": 29.005088690791084, "long": -80.95332243673457}, {"house_number": "2209", "road": "Live Oak Drive", "city": "New Smyrna Beach", "state": "Florida", "postcode": "32168", "lat": 29.00564212398651, "long": -80.95160057212779}, {"house_number": "576", "road": "Wildwood Drive", "city": "New Smyrna Beach", "state": "Florida", "postcode": "32168", "lat": 29.007566249305988, "long": -80.959236388673}, {"house_number": "625", "road": "Wildwood Drive", "city": "New Smyrna Beach", "state": "Florida", "postcode": "32168", "lat": 29.007092999999994, "long": -80.95892749999999}, {"house_number": "450", "road": "Patricia Drive", "city": "New Smyrna Beach", "state": "Florida", "postcode": "32168", "lat": 29.008940000277775, "long": -80.9666477357156}, {"house_number": "2426", "road": "Tecca Drive", "city": "New Smyrna Beach", "state": "Florida", "postcode": "32168", "lat": 29.00874450398814, "long": -80.96577016020768}, {"house_number": "3822", "road": "South Atlantic Avenue", "city": "Daytona Beach Shores", "state": "Florida", "postcode": "32118", "lat": 29.139651450972828, "long": -80.96292259160808}, {"house_number": "3831", "road": "Cardinal Boulevard", "city": "Daytona Beach Shores", "state": "Florida", "postcode": "32127", "lat": 29.139208499999988, "long": -80.963651}, {"house_number": "3833", "road": "Cardinal Boulevard", "city": "Daytona Beach Shores", "state": "Florida", "postcode": "32127", "lat": 29.139047010290515, "long": -80.96356398097683}, {"house_number": "1317", "road": "North Peninsula Avenue", "city": "New Smyrna Beach", "state": "Florida", "postcode": "32169", "lat": 29.049625853413996, "long": -80.9049321822573}, {"house_number": "403", "road": "Tide Street", "city": "New Smyrna Beach", "state": "Florida", "postcode": "32169", "lat": 29.054248505675293, "long": -80.90551449991948}, {"house_number": "305", "road": "Inlet Street", "city": "New Smyrna Beach", "state": "Florida", "postcode": "32169", "lat": 29.05319201939464, "long": -80.90504533143707}, {"house_number": "1414", "road": "North Atlantic Avenue", "city": "New Smyrna Beach", "state": "Florida", "postcode": "32169", "lat": 29.05238765326385, "long": -80.90417695436089}, {"house_number": "204", "road": "Beachway Avenue", "city": "New Smyrna Beach", "state": "Florida", "postcode": "32169", "lat": 29.05098001863892, "long": -80.9050458196631}, {"house_number": "1317", "road": "Beacon Street", "city": "New Smyrna Beach", "state": "Florida", "postcode": "32169", "lat": 29.049925598650344, "long": -80.9040830872037}, {"house_number": "302", "road": "Beachway Avenue", "city": "New Smyrna Beach", "state": "Florida", "postcode": "32169", "lat": 29.051283520185738, "long": -80.90418334005994}, {"house_number": "1316", "road": "North Atlantic Avenue", "city": "New Smyrna Beach", "state": "Florida", "postcode": "32169", "lat": 29.05022765401746, "long": -80.90318899023941}, {"house_number": "1206", "road": "Beacon Street", "city": "New Smyrna Beach", "state": "Florida", "postcode": "32169", "lat": 29.047949229641045, "long": -80.90317621692991}, {"house_number": "309", "road": "Hillsboro Street", "city": "New Smyrna Beach", "state": "Florida", "postcode": "32169", "lat": 29.048871019472415, "long": -80.90308333712996}, {"house_number": "1210", "road": "North Atlantic Avenue", "city": "New Smyrna Beach", "state": "Florida", "postcode": "32169", "lat": 29.04810358207094, "long": -80.90221831993338}, {"house_number": "1110", "road": "North Peninsula Avenue", "city": "New Smyrna Beach", "state": "Florida", "postcode": "32169", "lat": 29.046519222452535, "long": -80.9033924130774}, {"house_number": "445", "road": "Fox Squirrel Drive", "city": "Deltona", "state": "Florida", "postcode": "32725", "lat": 28.873022501075027, "long": -81.22671660108033}, {"house_number": "445", "road": "Hidden Ridge Drive", "city": "Deltona", "state": "Florida", "postcode": "32725", "lat": 28.873522405860285, "long": -81.22466605760553}, {"house_number": "1665", "road": "Pinelyn Road", "city": "Deltona", "state": "Florida", "postcode": "32725", "lat": 28.87164294777255, "long": -81.22567108313268}, {"house_number": "1741", "road": "North Tanner Court", "city": "Deltona", "state": "Florida", "postcode": "32725", "lat": 28.87087750934405, "long": -81.22401290791797}, {"house_number": "335", "road": "Saxon Boulevard", "city": "Deltona", "state": "Florida", "postcode": "32725", "lat": 28.870986562255283, "long": -81.22328912546112}, {"house_number": "1838", "road": "South Kingway Drive", "city": "Deltona", "state": "Florida", "postcode": "32738", "lat": 28.872982514797854, "long": -81.22114880753446}, {"house_number": "1838", "road": "South Kingway Drive", "city": "Deltona", "state": "Florida", "postcode": "32738", "lat": 28.872982514797854, "long": -81.22114880753446}, {"house_number": "1838", "road": "South Kingway Drive", "city": "Deltona", "state": "Florida", "postcode": "32738", "lat": 28.872982514797854, "long": -81.22114880753446}, {"house_number": "1838", "road": "South Kingway Drive", "city": "Deltona", "state": "Florida", "postcode": "32738", "lat": 28.872982514797854, "long": -81.22114880753446}, {"house_number": "1760", "road": "South Tanner Court", "city": "Deltona", "state": "Florida", "postcode": "32738", "lat": 28.870134711220583, "long": -81.22278317935165}, {"house_number": "447", "road": "East Viscaya Circle", "city": "Deltona", "state": "Florida", "postcode": "32738", "lat": 28.8744759655374, "long": -81.21629401089359}, {"house_number": "1690", "road": "Panama Court", "city": "Deltona", "state": "Florida", "postcode": "32725", "lat": 28.86828373150453, "long": -81.22569407445556}, {"house_number": "245", "road": "Saxon Boulevard", "city": "Deltona", "state": "Florida", "postcode": "32725", "lat": 28.868841669606557, "long": -81.22497444208247}, {"house_number": "1825", "road": "South Tanner Court", "city": "Deltona", "state": "Florida", "postcode": "32738", "lat": 28.86903733852052, "long": -81.22104497695165}, {"house_number": "440", "road": "Saxon Boulevard", "city": "Deltona", "state": "Florida", "postcode": "32725", "lat": 28.874539247240154, "long": -81.2211477743832}, {"house_number": "1830", "road": "Snook Drive", "city": "Deltona", "state": "Florida", "postcode": "32738", "lat": 28.87096976649265, "long": -81.22108652669345}, {"house_number": "1870", "road": "Snook Drive", "city": "Deltona", "state": "Florida", "postcode": "32738", "lat": 28.87269075963827, "long": -81.21978820055979}, {"house_number": "370", "road": "West Viscaya Circle", "city": "Deltona", "state": "Florida", "postcode": "32738", "lat": 28.872191424431403, "long": -81.21879697884158}, {"house_number": "1923", "road": "Snook Drive", "city": "Deltona", "state": "Florida", "postcode": "32738", "lat": 28.87352783261438, "long": -81.21781435835686}, {"house_number": "401", "road": "East Viscaya Circle", "city": "Deltona", "state": "Florida", "postcode": "32738", "lat": 28.873102651341117, "long": -81.21629086200588}, {"house_number": "2060", "road": "Doyle Road", "city": "Deltona", "state": "Florida", "postcode": "32738", "lat": 28.864428999999998, "long": -81.21346449999999}, {"house_number": "4738", "road": "Dixie Drive", "city": "Ponce Inlet", "state": "Florida", "postcode": "32127", "lat": 29.094979068124612, "long": -80.93743839030701}, {"house_number": "72", "road": "Aurora Avenue", "city": "Ponce Inlet", "state": "Florida", "postcode": "32127", "lat": 29.094713874409692, "long": -80.93627436859309}, {"house_number": "55", "road": "Oceanview Avenue", "city": "Ponce Inlet", "state": "Florida", "postcode": "32127", "lat": 29.09695609967614, "long": -80.93714849891217}, {"house_number": "4724", "road": "South Atlantic Avenue", "city": "Ponce Inlet", "state": "Florida", "postcode": "32127", "lat": 29.095892916218688, "long": -80.93494071592956}, {"house_number": "81", "road": "Alberta Avenue", "city": "Ponce Inlet", "state": "Florida", "postcode": "32127", "lat": 29.095331632350963, "long": -80.93721597516459}, {"house_number": "4758", "road": "South Atlantic Avenue", "city": "Ponce Inlet", "state": "Florida", "postcode": "32127", "lat": 29.09371664095984, "long": -80.9333852767753}, {"house_number": "117", "road": "Inlet Harbor Road", "city": "Ponce Inlet", "state": "Florida", "postcode": "32127", "lat": 29.0908182611399, "long": -80.9375506740199}, {"house_number": "115", "road": "Ivydale Manor Drive", "city": "DeLand", "state": "Florida", "postcode": "32724", "lat": 28.97337356100229, "long": -81.26958445315637}, {"house_number": "4778", "road": "South Peninsula Drive", "city": "Ponce Inlet", "state": "Florida", "postcode": "32127", "lat": 29.09207457302603, "long": -80.93663187320172}, {"house_number": "4789", "road": "South Peninsula Drive", "city": "Ponce Inlet", "state": "Florida", "postcode": "32127", "lat": 29.090886012886788, "long": -80.93594068482017}, {"house_number": "4805", "road": "South Peninsula Drive", "city": "Ponce Inlet", "state": "Florida", "postcode": "32127", "lat": 29.08949940142082, "long": -80.935241153655}, {"house_number": "90", "road": "Buschman Drive", "city": "Ponce Inlet", "state": "Florida", "postcode": "32127", "lat": 29.091743451558923, "long": -80.93578123447323}, {"house_number": "75", "road": "Buschman Drive", "city": "Ponce Inlet", "state": "Florida", "postcode": "32127", "lat": 29.09156297256569, "long": -80.93396568281157}, {"house_number": "4816", "road": "South Peninsula Drive", "city": "Ponce Inlet", "state": "Florida", "postcode": "32127", "lat": 29.0883688015737, "long": -80.93447621668814}, {"house_number": "75", "road": "Calumet Avenue", "city": "Ponce Inlet", "state": "Florida", "postcode": "32127", "lat": 29.092585416969797, "long": -80.93529412209958}, {"house_number": "146", "road": "Bounty Lane", "city": "Ponce Inlet", "state": "Florida", "postcode": "32127", "lat": 29.084336083667104, "long": -80.93408931587075}, {"house_number": "30", "road": "Calumet Avenue", "city": "Ponce Inlet", "state": "Florida", "postcode": "32127", "lat": 29.09259521737201, "long": -80.93314280426807}, {"house_number": "4786", "road": "South Atlantic Avenue", "city": "Ponce Inlet", "state": "Florida", "postcode": "32127", "lat": 29.091155235788428, "long": -80.93139141968064}, {"house_number": "4791", "road": "Michael Lane", "city": "Ponce Inlet", "state": "Florida", "postcode": "32127", "lat": 29.090964021642122, "long": -80.93425248376427}, {"house_number": "1", "road": "Kelly Bea Court", "city": "Ponce Inlet", "state": "Florida", "postcode": "32127", "lat": 29.089502038004447, "long": -80.9338665932837}, {"house_number": "66", "road": "Inlet Harbor Road", "city": "Ponce Inlet", "state": "Florida", "postcode": "32127", "lat": 29.08980865539689, "long": -80.93325454337257}, {"house_number": "63", "road": "Buschman Drive", "city": "Ponce Inlet", "state": "Florida", "postcode": "32127", "lat": 29.090319267969615, "long": -80.93257688542671}, {"house_number": "299", "road": "Garden Street", "city": "DeLand", "state": "Florida", "postcode": "32720", "lat": 29.09755159975942, "long": -81.33940949526473}, {"house_number": "3895", "road": "Willow Avenue", "city": "DeLand", "state": "Florida", "postcode": "32720", "lat": 29.09691350392993, "long": -81.34074660449166}, {"house_number": "360", "road": "Garden Street", "city": "DeLand", "state": "Florida", "postcode": "32720", "lat": 29.09754503496032, "long": -81.34156950318145}, {"house_number": "445", "road": "Azalea Street", "city": "DeLand", "state": "Florida", "postcode": "32720", "lat": 29.09187636879367, "long": -81.34115983847848}, {"house_number": "3790", "road": "Willow Avenue", "city": "DeLand", "state": "Florida", "postcode": "32720", "lat": 29.094083013347962, "long": -81.34071928944942}, {"house_number": "3790", "road": "Willow Avenue", "city": "DeLand", "state": "Florida", "postcode": "32720", "lat": 29.094083013347962, "long": -81.34071928944942}, {"house_number": "1766", "road": "Twin Oaks Drive", "city": "DeLand", "state": "Florida", "postcode": "32720", "lat": 29.096631473725488, "long": -81.35004834544281}, {"house_number": "3976", "road": "Grand Avenue", "city": "DeLand", "state": "Florida", "postcode": "32720", "lat": 29.0982595633976, "long": -81.3546869986759}, {"house_number": "3543", "road": "Mirano Terrace", "city": "New Smyrna Beach", "state": "Florida", "postcode": "32168", "lat": 29.048815812550426, "long": -81.03789839477118}, {"house_number": "1760", "road": "Sand Pine Trail", "city": "DeLand", "state": "Florida", "postcode": "32724", "lat": 29.111295963418737, "long": -81.26908968910864}, {"house_number": "4150", "road": "Marsh Road", "city": "DeLand", "state": "Florida", "postcode": "32724", "lat": 29.112517654281216, "long": -81.27103985637419}, {"house_number": "2", "road": "Saddlers Run", "city": "Ormond Beach", "state": "Florida", "postcode": "32174", "lat": 29.266775693202245, "long": -81.13014298552592}, {"house_number": "75", "road": "Saddlers Run", "city": "Ormond Beach", "state": "Florida", "postcode": "32174", "lat": 29.26838711915801, "long": -81.13302775413564}, {"house_number": "4137", "road": "Marsh Road", "city": "DeLand", "state": "Florida", "postcode": "32724", "lat": 29.110975999352323, "long": -81.27097601607052}, {"house_number": "4471", "road": "Grissom Road", "city": "DeLand", "state": "Florida", "postcode": "32724", "lat": 29.12230146749067, "long": -81.27942304864351}, {"house_number": "4473", "road": "Daugharty Road", "city": "DeLand", "state": "Florida", "postcode": "32724", "lat": 29.125881632127715, "long": -81.27809583993998}, {"house_number": "920", "road": "Island Grove Drive", "city": "DeLand", "state": "Florida", "postcode": "32724", "lat": 29.11237210142947, "long": -81.2831394800522}, {"house_number": "3620", "road": "Royal Fern Circle", "city": "DeLand", "state": "Florida", "postcode": "32724", "lat": 29.092088583907696, "long": -81.30488288319653}, {"house_number": "16", "road": "Circle Creek Way", "city": "Ormond Beach", "state": "Florida", "postcode": "32174", "lat": 29.26807114664708, "long": -81.14395998856308}, {"house_number": "1", "road": "Creek Branch Way", "city": "Ormond Beach", "state": "Florida", "postcode": "32174", "lat": 29.268650077818876, "long": -81.14476912586973}, {"house_number": "1", "road": "Slow Stream Way", "city": "Ormond Beach", "state": "Florida", "postcode": "32174", "lat": 29.267132863600377, "long": -81.14321905098494}, {"house_number": "325", "road": "Van Hook Road", "city": "DeLand", "state": "Florida", "postcode": "32724", "lat": 29.105751457119656, "long": -81.33310850629974}, {"house_number": "102", "road": "West Loop", "city": "Oak Hill", "state": "Florida", "postcode": "32759", "lat": 28.872252978517796, "long": -80.85619498252552}, {"house_number": "5751", "road": "White Acres Lane", "city": "Port Orange", "state": "Florida", "postcode": "32127", "lat": 29.113626680221078, "long": -81.01296289549106}, {"house_number": "4621", "road": "South Atlantic Avenue", "city": "Ponce Inlet", "state": "Florida", "postcode": "32127", "lat": 29.1023918362083, "long": -80.94041793588805}, {"house_number": "1985", "road": "Bayview Drive", "city": "New Smyrna Beach", "state": "Florida", "postcode": "32168", "lat": 29.064376999999986, "long": -80.96795299999998}, {"house_number": "2002", "road": "Creek Shore Trail", "city": "New Smyrna Beach", "state": "Florida", "postcode": "32168", "lat": 29.065878104886608, "long": -80.97965163437046}, {"house_number": "2240", "road": "Creek Shore Trail", "city": "New Smyrna Beach", "state": "Florida", "postcode": "32168", "lat": 29.07192313967251, "long": -80.98209887386517}, {"house_number": "1985", "road": "Bayview Drive", "city": "New Smyrna Beach", "state": "Florida", "postcode": "32168", "lat": 29.064599999999988, "long": -80.96795299999998}, {"house_number": "506", "road": "Old Mission Road", "city": "New Smyrna Beach", "state": "Florida", "postcode": "32168", "lat": 29.011838375723986, "long": -80.93722612404375}, {"house_number": "1301", "road": "Whitewood Drive", "city": "Deltona", "state": "Florida", "postcode": "32725", "lat": 28.899242979313236, "long": -81.26380821460296}, {"house_number": "4899", "road": "Front Street", "city": "Ponce Inlet", "state": "Florida", "postcode": "32127", "lat": 29.081377268483376, "long": -80.93443799902006}]