[{"house_number": "146", "road": "West Sterling Way", "city": "Tavares", "state": "Florida", "postcode": "34788", "lat": 28.869121897317278, "long": -81.77089210210598}, {"house_number": "1575", "road": "Pine Meadows Golf Course Road", "city": "Tavares", "state": "Florida", "postcode": "32726", "lat": 28.8834270249195, "long": -81.679733635651}, {"house_number": "18025", "road": "CR 455", "city": "Clermont", "state": "Florida", "postcode": "34756", "lat": 28.609557278614453, "long": -81.69979929019746}, {"house_number": "16901", "road": "West Phil C Peters Road", "city": "Winter Garden", "state": "Florida", "postcode": "34787", "lat": 28.499233206315747, "long": -81.6762183987271}, {"house_number": "16901", "road": "West Phil C Peters Road", "city": "Winter Garden", "state": "Florida", "postcode": "34787", "lat": 28.499233206315747, "long": -81.6762183987271}, {"house_number": "353", "road": "West Ardice Avenue", "city": "Tavares", "state": "Florida", "postcode": "32726", "lat": 28.829214183182543, "long": -81.68858549914003}, {"house_number": "67", "road": "Maine Street", "city": "Tavares", "state": "Florida", "postcode": "32726", "lat": 28.852448102530502, "long": -81.66071137816107}, {"house_number": "31", "road": "Sand Lk Place", "city": "Tavares", "state": "Florida", "postcode": "32726", "lat": 28.874517354541506, "long": -81.71185884409836}, {"house_number": "603", "road": "West Seminole Avenue", "city": "Tavares", "state": "Florida", "postcode": "32726", "lat": 28.830576540867764, "long": -81.69206294726719}, {"house_number": "2311", "road": "Kaley Ridge Road", "city": "Clermont", "state": "Florida", "postcode": "32711", "lat": 28.578347030862172, "long": -81.71561640580916}, {"house_number": "2399", "road": "Kaley Ridge Road", "city": "Clermont", "state": "Florida", "postcode": "32711", "lat": 28.578018497587667, "long": -81.71284372037994}, {"house_number": "839", "road": "Zeek Ridge Court", "city": "Clermont", "state": "Florida", "postcode": "32711", "lat": 28.5783515, "long": -81.71440849999998}, {"house_number": "946", "road": "Grace Ridge Street", "city": "Clermont", "state": "Florida", "postcode": "32711", "lat": 28.57881675070743, "long": -81.71164849789899}, {"house_number": "846", "road": "Zeek Ridge Court", "city": "Clermont", "state": "Florida", "postcode": "01532", "lat": 28.579016499999987, "long": -81.714405}, {"house_number": "3221", "road": "CR 44", "city": "Tavares", "state": "Florida", "postcode": "32726", "lat": 28.860166436623302, "long": -81.65294656153303}, {"house_number": "920", "road": "Kentucky Boulevard", "city": "Tavares", "state": "Florida", "postcode": "32726", "lat": 28.84549196410203, "long": -81.66531489925113}, {"house_number": "1111", "road": "Lakeshore Drive", "city": "Tavares", "state": "Florida", "postcode": "32627", "lat": 28.843923527087252, "long": -81.69811613933037}, {"house_number": "1254", "road": "North Magnolia Circle", "city": "Tavares", "state": "Florida", "postcode": "32726", "lat": 28.839516824851703, "long": -81.69871503147874}, {"house_number": "1980", "road": "Prevatt Street", "city": "Tavares", "state": "Florida", "postcode": "32627", "lat": 28.83562598250081, "long": -81.69292452707259}, {"house_number": "2453", "road": "South Grove Street", "city": "Tavares", "state": "Florida", "postcode": "32726", "lat": 28.83111895088045, "long": -81.68346951509773}, {"house_number": "1677", "road": "Lakeshore Drive", "city": "Tavares", "state": "Florida", "postcode": "32627", "lat": 28.837347985769355, "long": -81.70423898900435}, {"house_number": "2817", "road": "Hardenbergh Lane", "city": "Tavares", "state": "Florida", "postcode": "32726", "lat": 28.845780417311175, "long": -81.65227541622825}, {"house_number": "3021", "road": "Hardenbergh Lane", "city": "Tavares", "state": "Florida", "postcode": "32726", "lat": 28.84524938230683, "long": -81.64922290514697}, {"house_number": "912", "road": "Wall Street", "city": "Tavares", "state": "Florida", "postcode": "32726", "lat": 28.861511007081248, "long": -81.66278527807015}, {"house_number": "1148", "road": "Pine Meadows Golf Course Road", "city": "Tavares", "state": "Florida", "postcode": "32726", "lat": 28.88273514314318, "long": -81.68159558511613}, {"house_number": "16916", "road": "Lakeview Avenue", "city": "Umatilla", "state": "Florida", "postcode": "32784", "lat": 28.89179546524122, "long": -81.6758230593147}, {"house_number": "36728", "road": "Coyote Pass", "city": "Tavares", "state": "Florida", "postcode": "32726", "lat": 28.884185992283783, "long": -81.6999973934083}, {"house_number": "37129", "road": "FL 19", "city": "Umatilla", "state": "Florida", "postcode": "32627", "lat": 28.888480378057697, "long": -81.68693910553017}, {"house_number": "16520", "road": "Orange Avenue", "city": "Tavares", "state": "Florida", "postcode": "32784", "lat": 28.89153920127553, "long": -81.6831775945793}, {"house_number": "37225", "road": "Wiley Lane", "city": "Umatilla", "state": "Florida", "postcode": "32627", "lat": 28.890097939168882, "long": -81.68095189368373}, {"house_number": "3022", "road": "Pine Cove Place", "city": "Tavares", "state": "Florida", "postcode": "32784", "lat": 28.884973976580543, "long": -81.67870430469512}, {"house_number": "1210", "road": "Wall Street", "city": "Tavares", "state": "Florida", "postcode": "32726", "lat": 28.86391350145941, "long": -81.66281271832355}, {"house_number": "50", "road": "East Laurel Oak Drive", "city": "Tavares", "state": "Florida", "postcode": "32726", "lat": 28.863820295667434, "long": -81.68469491983282}, {"house_number": "549", "road": "CR 44", "city": "Tavares", "state": "Florida", "postcode": "32736", "lat": 28.875293843931914, "long": -81.68128999983105}, {"house_number": "2368", "road": "Country Club Road", "city": "Tavares", "state": "Florida", "postcode": "32726", "lat": 28.832340136420516, "long": -81.658701555888}, {"house_number": "1404", "road": "Westmorland Avenue", "city": "Tavares", "state": "Florida", "postcode": "32726", "lat": 28.824287247943452, "long": -81.66991853153945}, {"house_number": "2507", "road": "Carmel Lane", "city": "Tavares", "state": "Florida", "postcode": "32726", "lat": 28.850672818713488, "long": -81.6578020019543}, {"house_number": "2657", "road": "Country Club Road", "city": "Tavares", "state": "Florida", "postcode": "32726", "lat": 28.829554849071194, "long": -81.65868750448362}, {"house_number": "2657", "road": "Country Club Road", "city": "Tavares", "state": "Florida", "postcode": "32726", "lat": 28.829554849071194, "long": -81.65868750448362}, {"house_number": "747", "road": "Sunrise Drive", "city": "Tavares", "state": "Florida", "postcode": "32726", "lat": 28.846158523475424, "long": -81.64915680815426}, {"house_number": "16374", "road": "McKinley Road", "city": "Tavares", "state": "Florida", "postcode": "32784", "lat": 28.88680045633571, "long": -81.68443070075821}, {"house_number": "14915", "road": "CR Old 441", "city": "Tavares", "state": "Florida", "postcode": "32778", "lat": 28.803919454333997, "long": -81.7093472823169}, {"house_number": "16928", "road": "Orange Avenue", "city": "Umatilla", "state": "Florida", "postcode": "32627", "lat": 28.890981898313786, "long": -81.6754314713741}, {"house_number": "16928", "road": "Orange Avenue", "city": "Umatilla", "state": "Florida", "postcode": "32627", "lat": 28.890981898313786, "long": -81.6754314713741}, {"house_number": "16636", "road": "Orange Avenue", "city": "Umatilla", "state": "Florida", "postcode": "32627", "lat": 28.89097806812041, "long": -81.68033949967783}, {"house_number": "2400", "road": "Kurt Street", "city": "Tavares", "state": "Florida", "postcode": "32726", "lat": 28.83101050257444, "long": -81.691721838675}, {"house_number": "431", "road": "West Seminole Avenue", "city": "Tavares", "state": "Florida", "postcode": "32726", "lat": 28.830588450546408, "long": -81.69068498832894}, {"house_number": "710", "road": "Abrams Road", "city": "Tavares", "state": "Florida", "postcode": "32726", "lat": 28.84470350089514, "long": -81.65454722475693}, {"house_number": "706", "road": "Abrams Road", "city": "Tavares", "state": "Florida", "postcode": "32726", "lat": 28.84573051106845, "long": -81.65454443444438}, {"house_number": "2749", "road": "Getford Road", "city": "Tavares", "state": "Florida", "postcode": "32726", "lat": 28.86561038490456, "long": -81.65379604328162}, {"house_number": "2749", "road": "Getford Road", "city": "Tavares", "state": "Florida", "postcode": "32726", "lat": 28.86561038490456, "long": -81.65379604328162}, {"house_number": "2640", "road": "Waterview Drive", "city": "Tavares", "state": "Florida", "postcode": "32726", "lat": 28.879943541977987, "long": -81.7107014792056}, {"house_number": "2815", "road": "Joleen Drive", "city": "Tavares", "state": "Florida", "postcode": "32726", "lat": 28.8515476870374, "long": -81.6555239449129}, {"house_number": "1203", "road": "Lakeview Drive", "city": "Tavares", "state": "Florida", "postcode": "32726", "lat": 28.824373056379365, "long": -81.67273041396321}, {"house_number": "281", "road": "West Charlotte Avenue", "city": "Tavares", "state": "Florida", "postcode": "32726", "lat": 28.831465006072836, "long": -81.6883673871373}, {"house_number": "1274", "road": "North Palmetto Circle", "city": "Tavares", "state": "Florida", "postcode": "32726", "lat": 28.838578725608134, "long": -81.698923930889}, {"house_number": "341", "road": "Cherry Tree Street", "city": "Tavares", "state": "Florida", "postcode": "32726", "lat": 28.850631172785985, "long": -81.65580139348978}, {"house_number": "469", "road": "Old Mt Dora Road", "city": "Tavares", "state": "Florida", "postcode": "32726", "lat": 28.82923025545452, "long": -81.68115943943003}, {"house_number": "104", "road": "Fruitwood Avenue", "city": "Tavares", "state": "Florida", "postcode": "32726", "lat": 28.851849996154048, "long": -81.65817532233358}, {"house_number": "15852", "road": "Green Cove Boulevard", "city": "Clermont", "state": "Florida", "postcode": "34714", "lat": 28.39784400751497, "long": -81.69128097289205}, {"house_number": "712", "road": "Jason Drive", "city": "The Villages", "state": "Florida", "postcode": "32159", "lat": 28.941047499999996, "long": -81.93847149999999}, {"house_number": "1800", "road": "Hicks Ditch Road", "city": "Tavares", "state": "Florida", "postcode": "32726", "lat": 28.872765004992853, "long": -81.67109476178504}, {"house_number": "1220", "road": "Lakeview Drive", "city": "Tavares", "state": "Florida", "postcode": "32726", "lat": 28.824394096725644, "long": -81.67224647870556}, {"house_number": "2953", "road": "Lake Louise Drive", "city": "Tavares", "state": "Florida", "postcode": "32726", "lat": 28.824652683786002, "long": -81.67139697969478}, {"house_number": "2211", "road": "Harlem Avenue", "city": "Tavares", "state": "Florida", "postcode": "32726", "lat": 28.862753351272126, "long": -81.66178699953602}, {"house_number": "2211", "road": "Harlem Avenue", "city": "Tavares", "state": "Florida", "postcode": "32726", "lat": 28.862753351272126, "long": -81.66178699953602}, {"house_number": "2924", "road": "Dupont Street", "city": "Tavares", "state": "Florida", "postcode": "32726", "lat": 28.824543502152363, "long": -81.66769011973649}, {"house_number": "2924", "road": "Dupont Street", "city": "Tavares", "state": "Florida", "postcode": "32726", "lat": 28.824543502152363, "long": -81.66769011973649}, {"house_number": "91", "road": "Sunrise Lane", "city": "Tavares", "state": "Florida", "postcode": "32726", "lat": 28.851725633288833, "long": -81.64732736019656}, {"house_number": "9", "road": "Sunrise Lane", "city": "Tavares", "state": "Florida", "postcode": "32726", "lat": 28.852740780982316, "long": -81.64830270716746}, {"house_number": "9", "road": "Sunrise Lane", "city": "Tavares", "state": "Florida", "postcode": "32726", "lat": 28.852740780982316, "long": -81.64830270716746}, {"house_number": "418", "road": "West Blue Water Edge Drive", "city": "Tavares", "state": "Florida", "postcode": "32726", "lat": 28.854583562414266, "long": -81.64138274737516}, {"house_number": "34450", "road": "Parkview Avenue", "city": "Tavares", "state": "Florida", "postcode": "32736", "lat": 28.85002942308457, "long": -81.64283927609233}, {"house_number": "604", "road": "Palmer Drive", "city": "Lady Lake", "state": "Florida", "postcode": "32159", "lat": 28.929377544843476, "long": -81.91680658502051}, {"house_number": "5201", "road": "Greens Drive", "city": "Lady Lake", "state": "Florida", "postcode": "32159", "lat": 28.923552148284916, "long": -81.86591658623877}, {"house_number": "16604", "road": "McKinley Road", "city": "Umatilla", "state": "Florida", "postcode": "32784", "lat": 28.885536999999985, "long": -81.68112099999999}, {"house_number": "16604", "road": "McKinley Road", "city": "Umatilla", "state": "Florida", "postcode": "32784", "lat": 28.88553699999999, "long": -81.68131849999997}, {"house_number": "1231", "road": "Pineapple Lane", "city": "Tavares", "state": "Florida", "postcode": "32726", "lat": 28.825282145753157, "long": -81.67223675002447}, {"house_number": "1231", "road": "Pineapple Lane", "city": "Tavares", "state": "Florida", "postcode": "32726", "lat": 28.825282145753157, "long": -81.67223675002447}, {"house_number": "1231", "road": "Pineapple Lane", "city": "Tavares", "state": "Florida", "postcode": "32726", "lat": 28.825282145753157, "long": -81.67223675002447}, {"house_number": "1231", "road": "Pineapple Lane", "city": "Tavares", "state": "Florida", "postcode": "32726", "lat": 28.825282145753157, "long": -81.67223675002447}, {"house_number": "2136", "road": "East Orange Avenue", "city": "Tavares", "state": "Florida", "postcode": "32726", "lat": 28.852919062675483, "long": -81.66334150084779}, {"house_number": "2946", "road": "Dupont Street", "city": "Tavares", "state": "Florida", "postcode": "32726", "lat": 28.82419950318484, "long": -81.66768679433254}, {"house_number": "3050", "road": "CR 44", "city": "Tavares", "state": "Florida", "postcode": "32726", "lat": 28.866378000192597, "long": -81.65301297860097}, {"house_number": "2602", "road": "Montecito Avenue", "city": "Tavares", "state": "Florida", "postcode": "32726", "lat": 28.84978986435549, "long": -81.6564844986058}, {"house_number": "36111", "road": "Via Gran", "city": "Tavares", "state": "Florida", "postcode": "32735", "lat": 28.8753894676611, "long": -81.7297745081017}, {"house_number": "34", "road": "Ohio Boulevard", "city": "Tavares", "state": "Florida", "postcode": "32726", "lat": 28.852845010451254, "long": -81.66383322007728}, {"house_number": "16302", "road": "McKinley Road", "city": "Umatilla", "state": "Florida", "postcode": "32784", "lat": 28.887281629882242, "long": -81.68526085827925}, {"house_number": "37340", "road": "Saint Louis Avenue", "city": "Umatilla", "state": "Florida", "postcode": "32784", "lat": 28.892641994974017, "long": -81.68081234872321}, {"house_number": "37322", "road": "Saint Louis Avenue", "city": "Umatilla", "state": "Florida", "postcode": "32784", "lat": 28.891502393584325, "long": -81.68069452339357}, {"house_number": "1218", "road": "Overlook Road", "city": "Tavares", "state": "Florida", "postcode": "32627", "lat": 28.839201183698787, "long": -81.70169946468634}, {"house_number": "2230", "road": "Harlem Avenue", "city": "Tavares", "state": "Florida", "postcode": "32726", "lat": 28.86274776783414, "long": -81.66274900257508}, {"house_number": "1341", "road": "Eustis Road", "city": "Tavares", "state": "Florida", "postcode": "32627", "lat": 28.839904017441263, "long": -81.70015373602432}, {"house_number": "1341", "road": "Eustis Road", "city": "Tavares", "state": "Florida", "postcode": "32627", "lat": 28.839904017441263, "long": -81.70015373602432}, {"house_number": "1465", "road": "Eustis Road", "city": "Tavares", "state": "Florida", "postcode": "32627", "lat": 28.839062377616802, "long": -81.7001434072571}, {"house_number": "3110", "road": "CR 44", "city": "Tavares", "state": "Florida", "postcode": "32726", "lat": 28.864617495499758, "long": -81.6529944114279}, {"house_number": "2624", "road": "Villa Way", "city": "Tavares", "state": "Florida", "postcode": "32726", "lat": 28.829780075053055, "long": -81.67106601679708}, {"house_number": "2415", "road": "East Crooked Lake Drive", "city": "Tavares", "state": "Florida", "postcode": "32726", "lat": 28.831639524274497, "long": -81.66032094135882}, {"house_number": "2982", "road": "Lake Woodward Drive", "city": "Tavares", "state": "Florida", "postcode": "32726", "lat": 28.824145506376716, "long": -81.67579731977683}, {"house_number": "36035", "road": "Via Gran", "city": "Tavares", "state": "Florida", "postcode": "32735", "lat": 28.873755086185472, "long": -81.73017634674864}, {"house_number": "3305", "road": "Indian Trail", "city": "Tavares", "state": "Florida", "postcode": "32735", "lat": 28.873473377468603, "long": -81.7243345130596}, {"house_number": "34804", "road": "Estes Road", "city": "Tavares", "state": "Florida", "postcode": "32736", "lat": 28.856574636362012, "long": -81.63837307208057}, {"house_number": "240", "road": "East Floral Avenue", "city": "Tavares", "state": "Florida", "postcode": "32726", "lat": 28.85932240528815, "long": -81.68263250041163}, {"house_number": "2009", "road": "South Fish Camp Road", "city": "Tavares", "state": "Florida", "postcode": "32735", "lat": 28.87552786198716, "long": -81.72882969867842}, {"house_number": "2009", "road": "South Fish Camp Road", "city": "Tavares", "state": "Florida", "postcode": "32735", "lat": 28.87552786198716, "long": -81.72882969867842}, {"house_number": "223", "road": "Temple Circle", "city": "Tavares", "state": "Florida", "postcode": "32735", "lat": 28.874445806522843, "long": -81.71578723611611}, {"house_number": "36000", "road": "South Fish Camp Road", "city": "Tavares", "state": "Florida", "postcode": "32735", "lat": 28.873747999916105, "long": -81.72877849452186}, {"house_number": "10742", "road": "Fischer Lake Road", "city": "Howey-in-the-Hills", "state": "Florida", "postcode": "34737", "lat": 28.67757224681578, "long": -81.7758246283555}, {"house_number": "3701", "road": "CR 44", "city": "Tavares", "state": "Florida", "postcode": "32735", "lat": 28.882579499999988, "long": -81.72649349999999}, {"house_number": "37212", "road": "Turner Drive", "city": "Umatilla", "state": "Florida", "postcode": "32784", "lat": 28.890511004086246, "long": -81.67477493445811}, {"house_number": "16104", "road": "FL 19", "city": "Groveland", "state": "Florida", "postcode": "34736", "lat": 28.581672786254547, "long": -81.85545846260081}, {"house_number": "16104", "road": "FL 19", "city": "Groveland", "state": "Florida", "postcode": "34736", "lat": 28.581672786254547, "long": -81.85545846260081}, {"house_number": "13025", "road": "Double Run Road", "city": "Astatula", "state": "Florida", "postcode": "34705", "lat": 28.679571956821945, "long": -81.7381570155116}, {"house_number": "27051", "road": "Moss View Drive", "city": "Tavares", "state": "Florida", "postcode": "32756", "lat": 28.739887999999993, "long": -81.70022549999999}, {"house_number": "27012", "road": "Grand Oak Lane", "city": "Tavares", "state": "Florida", "postcode": "32756", "lat": 28.733583365278108, "long": -81.68977071999714}, {"house_number": "27061", "road": "Moss View Drive", "city": "Tavares", "state": "Florida", "postcode": "32756", "lat": 28.742018977583005, "long": -81.70150304697977}, {"house_number": "6373", "road": "Domenico Court", "city": "Groveland", "state": "Florida", "postcode": "34736", "lat": 28.54646697447375, "long": -81.84853407508486}, {"house_number": "5015", "road": "FL 33", "city": "Groveland", "state": "Florida", "postcode": "34736", "lat": 28.476897412606977, "long": -81.83181662952224}, {"house_number": "6008", "road": "FL 33", "city": "Groveland", "state": "Florida", "postcode": "34736", "lat": 28.481300879366845, "long": -81.83221362397734}, {"house_number": "6008", "road": "FL 33", "city": "Groveland", "state": "Florida", "postcode": "34736", "lat": 28.481300879366845, "long": -81.83221362397734}, {"house_number": "9101", "road": "Hammock Ridge Road", "city": "Clermont", "state": "Florida", "postcode": "34711", "lat": 28.51582342786264, "long": -81.73103803753837}, {"house_number": "9101", "road": "Hammock Ridge Road", "city": "Clermont", "state": "Florida", "postcode": "34711", "lat": 28.51582342786264, "long": -81.73103803753837}, {"house_number": "9101", "road": "Hammock Ridge Road", "city": "Clermont", "state": "Florida", "postcode": "34711", "lat": 28.51582342786264, "long": -81.73103803753837}, {"house_number": "9101", "road": "Hammock Ridge Road", "city": "Clermont", "state": "Florida", "postcode": "34711", "lat": 28.51582342786264, "long": -81.73103803753837}, {"house_number": "9101", "road": "Hammock Ridge Road", "city": "Clermont", "state": "Florida", "postcode": "34711", "lat": 28.51582342786264, "long": -81.73103803753837}, {"house_number": "9101", "road": "Hammock Ridge Road", "city": "Clermont", "state": "Florida", "postcode": "34711", "lat": 28.51582342786264, "long": -81.73103803753837}, {"house_number": "9101", "road": "Hammock Ridge Road", "city": "Clermont", "state": "Florida", "postcode": "34711", "lat": 28.51582342786264, "long": -81.73103803753837}, {"house_number": "9101", "road": "Hammock Ridge Road", "city": "Clermont", "state": "Florida", "postcode": "34711", "lat": 28.51582342786264, "long": -81.73103803753837}, {"house_number": "9101", "road": "Hammock Ridge Road", "city": "Clermont", "state": "Florida", "postcode": "34711", "lat": 28.51582342786264, "long": -81.73103803753837}, {"house_number": "9101", "road": "Hammock Ridge Road", "city": "Clermont", "state": "Florida", "postcode": "34711", "lat": 28.51582342786264, "long": -81.73103803753837}, {"house_number": "9101", "road": "Hammock Ridge Road", "city": "Clermont", "state": "Florida", "postcode": "34711", "lat": 28.51582342786264, "long": -81.73103803753837}, {"house_number": "9101", "road": "Hammock Ridge Road", "city": "Clermont", "state": "Florida", "postcode": "34711", "lat": 28.51582342786264, "long": -81.73103803753837}, {"house_number": "9101", "road": "Hammock Ridge Road", "city": "Clermont", "state": "Florida", "postcode": "34711", "lat": 28.51582342786264, "long": -81.73103803753837}, {"house_number": "9101", "road": "Hammock Ridge Road", "city": "Clermont", "state": "Florida", "postcode": "34711", "lat": 28.51582342786264, "long": -81.73103803753837}]