[{"house_number": "6872", "road": "Kapok Drive", "city": "Milton", "state": "Florida", "postcode": "32583", "lat": 30.57959829705459, "long": -87.03708874600142}, {"house_number": "7749", "road": "Leisure Street", "city": "Navarre", "state": "Florida", "postcode": "32566", "lat": 30.417060999999993, "long": -86.90041799999997}, {"house_number": "9295", "road": "Plano Court", "city": "Navarre", "state": "Florida", "postcode": "32566", "lat": 30.427072378447665, "long": -86.83354189037141}, {"house_number": "3967", "road": "Sunny Manor Circle", "city": "Milton", "state": "Florida", "postcode": "32583", "lat": 30.575646258166998, "long": -87.03558214008254}, {"house_number": "4396", "road": "Mason West Road", "city": "Jay", "state": "Florida", "postcode": "32565", "lat": 30.917387946851115, "long": -87.0042930726895}, {"house_number": "734", "road": "Mike Gibson Lane", "city": "Milton", "state": "Florida", "postcode": "32583", "lat": 30.462157861973203, "long": -87.0964069068253}, {"house_number": "9854", "road": "Violet Circle", "city": "Navarre", "state": "Florida", "postcode": "32566", "lat": 30.412525999999993, "long": -86.81014099999999}, {"house_number": "705", "road": "Mike Gibson Lane", "city": "Milton", "state": "Florida", "postcode": "32583", "lat": 30.460784328945053, "long": -87.0966548127169}, {"house_number": "9212", "road": "Sunset Drive", "city": "Navarre", "state": "Florida", "postcode": "32566", "lat": 30.41721062444365, "long": -86.83703751796708}, {"house_number": "2484", "road": "Heritage Circle", "city": "Navarre", "state": "Florida", "postcode": "32566", "lat": 30.418981499999997, "long": -86.82149799999999}, {"house_number": "2208", "road": "Nina Street", "city": "Navarre", "state": "Florida", "postcode": "32566", "lat": 30.413211185059023, "long": -86.81409462720576}, {"house_number": "2213", "road": "Peachwood Court", "city": "Navarre", "state": "Florida", "postcode": "32566", "lat": 30.414171999999997, "long": -86.824014}, {"house_number": "6834", "road": "Hunt Street", "city": "Milton", "state": "Florida", "postcode": "32570", "lat": 30.629497, "long": -87.03791299999999}, {"house_number": "6738", "road": "Ravine Street", "city": "Milton", "state": "Florida", "postcode": "32570", "lat": 30.628584999999998, "long": -87.04168849999999}, {"house_number": "6738", "road": "Ravine Street", "city": "Milton", "state": "Florida", "postcode": "32570", "lat": 30.628584999999998, "long": -87.04168849999999}, {"house_number": "6758", "road": "Ravine Street", "city": "Milton", "state": "Florida", "postcode": "32570", "lat": 30.628560364533264, "long": -87.04062007892742}, {"house_number": "6436", "road": "Lakeshore Drive", "city": "Milton", "state": "Florida", "postcode": "32570", "lat": 30.62812666361299, "long": -87.0539843097633}, {"house_number": "15555", "road": "Highway 87 N", "city": "Jay", "state": "Florida", "postcode": "32565", "lat": 30.999291833696613, "long": -87.03771726415168}, {"house_number": "9699", "road": "Parker Lake Circle", "city": "Navarre", "state": "Florida", "postcode": "32566", "lat": 30.42138027440753, "long": -86.81650126145153}, {"house_number": "2369", "road": "Meadow Run Lane", "city": "Navarre", "state": "Florida", "postcode": "32566", "lat": 30.419917499999997, "long": -86.8125345}, {"house_number": "9831", "road": "Parker Lake Circle", "city": "Navarre", "state": "Florida", "postcode": "32566", "lat": 30.420620301758568, "long": -86.81231981922765}, {"house_number": "9762", "road": "Parker Lake Circle", "city": "Navarre", "state": "Florida", "postcode": "32566", "lat": 30.42098193609062, "long": -86.81427769921012}, {"house_number": "2211", "road": "Bergren Road", "city": "Gulf Breeze", "state": "Florida", "postcode": "32563", "lat": 30.415800814127103, "long": -86.97658931888382}, {"house_number": "2211", "road": "Bergren Road", "city": "Gulf Breeze", "state": "Florida", "postcode": "32563", "lat": 30.415800814127103, "long": -86.97658931888382}, {"house_number": "2211", "road": "Bergren Road", "city": "Gulf Breeze", "state": "Florida", "postcode": "32563", "lat": 30.415800814127103, "long": -86.97658931888382}, {"house_number": "2211", "road": "Bergren Road", "city": "Gulf Breeze", "state": "Florida", "postcode": "32563", "lat": 30.415800814127103, "long": -86.97658931888382}, {"house_number": "5342", "road": "Broad Street", "city": "Milton", "state": "Florida", "postcode": "32570", "lat": 30.627743999999993, "long": -87.03750849999999}, {"house_number": "3973", "road": "Buttonbush Drive", "city": "Milton", "state": "Florida", "postcode": "32583", "lat": 30.57815949999999, "long": -87.03482799999999}, {"house_number": "6974", "road": "Sundial Boulevard", "city": "Milton", "state": "Florida", "postcode": "32583", "lat": 30.575476328005635, "long": -87.03349820872245}, {"house_number": "3953", "road": "Holleyberry Lane", "city": "Milton", "state": "Florida", "postcode": "32583", "lat": 30.577839267489907, "long": -87.03539768120952}, {"house_number": "969", "road": "Clearview Street", "city": "Milton", "state": "Florida", "postcode": "32583", "lat": 30.470406619874044, "long": -87.09109806120217}, {"house_number": "5644", "road": "Raughton Road", "city": "Milton", "state": "Florida", "postcode": "32583", "lat": 30.4722565, "long": -87.09210099999999}, {"house_number": "1824", "road": "Roll Tide Drive", "city": "Milton", "state": "Florida", "postcode": "32583", "lat": 30.500152521817704, "long": -87.05085034249495}, {"house_number": "976", "road": "Dolphin Road", "city": "Milton", "state": "Florida", "postcode": "32583", "lat": 30.471217920444907, "long": -87.09430190245438}, {"house_number": "901", "road": "Dolphin Road", "city": "Milton", "state": "Florida", "postcode": "32583", "lat": 30.468214999999997, "long": -87.09485899999999}, {"house_number": "5957", "road": "Castleberry Lane", "city": "Milton", "state": "Florida", "postcode": "32583", "lat": 30.476387227058535, "long": -87.07900925794023}]