[{"house_number": "1149", "road": "North Shannon Avenue", "city": "Indialantic", "state": "Florida", "postcode": "32903", "lat": 28.098179499999993, "long": -80.57066849999998}, {"house_number": "1905", "road": "Post Road", "city": "Melbourne", "state": "Florida", "postcode": "32935", "lat": 28.172004115912593, "long": -80.65270750550472}, {"house_number": "1950", "road": "Nottingham Road", "city": "Melbourne", "state": "Florida", "postcode": "32935", "lat": 28.172852879434036, "long": -80.65349332278657}, {"house_number": "1987", "road": "Nottingham Road", "city": "Melbourne", "state": "Florida", "postcode": "32935", "lat": 28.17285003047525, "long": -80.65423300307806}, {"house_number": "4457", "road": "Indian River Drive", "city": "Cocoa", "state": "Florida", "postcode": "32927", "lat": 28.444119021918315, "long": -80.75997736482941}, {"house_number": "1693", "road": "Las Palmos Drive", "city": "Palm Bay", "state": "Florida", "postcode": "32908", "lat": 27.9561821570599, "long": -80.67669591514671}, {"house_number": "356", "road": "Fiske Boulevard North", "city": "Cocoa", "state": "Florida", "postcode": "32922", "lat": 28.361585499999993, "long": -80.74258949999998}, {"house_number": "4599", "road": "Indian River Drive", "city": "Cocoa", "state": "Florida", "postcode": "32927", "lat": 28.446342264529875, "long": -80.76104205409986}, {"house_number": "4061", "road": "Preservation Circle", "city": "Melbourne", "state": "Florida", "postcode": "32934", "lat": 28.167025222468695, "long": -80.7167398712265}, {"house_number": "4135", "road": "Preservation Circle", "city": "Melbourne", "state": "Florida", "postcode": "32934", "lat": 28.168766459319574, "long": -80.71622737513228}, {"house_number": "4288", "road": "Preservation Circle", "city": "Melbourne", "state": "Florida", "postcode": "32934", "lat": 28.168150159308443, "long": -80.7194961661941}, {"house_number": "3826", "road": "Old Dixie Highway", "city": "Grant-Valkaria", "state": "Florida", "postcode": "32950", "lat": 27.95897597534348, "long": -80.54172707764685}, {"house_number": "3953", "road": "Captain Morgan's Lane", "city": "Grant-Valkaria", "state": "Florida", "postcode": "32950", "lat": 27.957733872642915, "long": -80.54213039120512}, {"house_number": "1949", "road": "Lake Drive", "city": "Cocoa West", "state": "Florida", "postcode": "32926", "lat": 28.36017608743054, "long": -80.76332899380016}, {"house_number": "1950", "road": "Lazy Lane", "city": "Cocoa West", "state": "Florida", "postcode": "32926", "lat": 28.358986067159115, "long": -80.76379846574413}, {"house_number": "1343", "road": "Pineapple Avenue", "city": "Melbourne", "state": "Florida", "postcode": "32935", "lat": 28.129116990076145, "long": -80.62515906164808}, {"house_number": "349", "road": "Woodland Drive", "city": "West Melbourne", "state": "Florida", "postcode": "32904", "lat": 28.08383474778886, "long": -80.65787955647991}, {"house_number": "4573", "road": "Ashley Drive", "city": "Titusville", "state": "Florida", "postcode": "32780", "lat": 28.559743221194854, "long": -80.84253826664278}, {"house_number": "200", "road": "Center Street", "city": "Cape Canaveral", "state": "Florida", "postcode": "32920", "lat": 28.381396052156816, "long": -80.60707452454105}, {"house_number": "9122", "road": "Fleming Grant Road", "city": "Micco", "state": "Florida", "postcode": "32976", "lat": 27.853852697805742, "long": -80.52212791804182}, {"house_number": "9226", "road": "Fleming Grant Road", "city": "Micco", "state": "Florida", "postcode": "32976", "lat": 27.84986134498721, "long": -80.51918013675568}, {"house_number": "2235", "road": "Jay Jay Road", "city": "Titusville", "state": "Florida", "postcode": "32796", "lat": 28.644727346057973, "long": -80.82725499932283}, {"house_number": "2293", "road": "Jay Jay Road", "city": "Titusville", "state": "Florida", "postcode": "32796", "lat": 28.644725499999993, "long": -80.82750199999998}, {"house_number": "2782", "road": "Jay Jay Road", "city": "Titusville", "state": "Florida", "postcode": "32796", "lat": 28.64462172629937, "long": -80.83397249932585}, {"house_number": "2726", "road": "Jay Jay Road", "city": "Titusville", "state": "Florida", "postcode": "32796", "lat": 28.64462524088786, "long": -80.83319900069719}, {"house_number": "2726", "road": "Jay Jay Road", "city": "Titusville", "state": "Florida", "postcode": "32796", "lat": 28.64462524088786, "long": -80.83319900069719}, {"house_number": "2454", "road": "Jay Jay Road", "city": "Titusville", "state": "Florida", "postcode": "32796", "lat": 28.644678340475334, "long": -80.82960698821142}, {"house_number": "2648", "road": "Jay Jay Road", "city": "Titusville", "state": "Florida", "postcode": "32796", "lat": 28.64462999999999, "long": -80.83218}, {"house_number": "3084", "road": "Dairy Road", "city": "Titusville", "state": "Florida", "postcode": "32796", "lat": 28.637204002522438, "long": -80.84343650002543}, {"house_number": "2961", "road": "Dairy Road", "city": "Titusville", "state": "Florida", "postcode": "32796", "lat": 28.637215999999995, "long": -80.84230699999999}, {"house_number": "2983", "road": "Dairy Road", "city": "Titusville", "state": "Florida", "postcode": "32796", "lat": 28.6372135, "long": -80.84252599999999}, {"house_number": "1908", "road": "Thesy Drive", "city": "Viera", "state": "Florida", "postcode": "32940", "lat": 28.253271898813434, "long": -80.7194963359115}, {"house_number": "1650", "road": "Monterey Drive", "city": "Palm Bay", "state": "Florida", "postcode": "32905", "lat": 28.03673799999999, "long": -80.61871099999999}, {"house_number": "1360", "road": "Knecht Road Northeast", "city": "Palm Bay", "state": "Florida", "postcode": "32905", "lat": 28.030931993361257, "long": -80.61575807525703}, {"house_number": "1851", "road": "Palm Bay Road Northeast", "city": "Palm Bay", "state": "Florida", "postcode": "32905", "lat": 28.03513677588988, "long": -80.61769750540341}, {"house_number": "1250", "road": "Norwood Avenue", "city": "Titusville", "state": "Florida", "postcode": "32796", "lat": 28.61688710139152, "long": -80.81755043776482}, {"house_number": "1870", "road": "Southland Avenue", "city": "Melbourne", "state": "Florida", "postcode": "32935", "lat": 28.137643999999987, "long": -80.63688099999999}, {"house_number": "1710", "road": "Vista Lake Circle", "city": "June Park", "state": "Florida", "postcode": "32904", "lat": 28.08036188409311, "long": -80.6898553932295}, {"house_number": "3350", "road": "South Babcock Street", "city": "Melbourne", "state": "Florida", "postcode": "32901", "lat": 28.058429993589105, "long": -80.6213621478044}, {"house_number": "3064", "road": "Camberly Circle", "city": "Viera", "state": "Florida", "postcode": "32940", "lat": 28.23446691567351, "long": -80.74446649500747}, {"house_number": "4662", "road": "Preservation Circle", "city": "Melbourne", "state": "Florida", "postcode": "32934", "lat": 28.164591388268565, "long": -80.7161425761618}, {"house_number": "4902", "road": "Stafford Drive", "city": "Melbourne", "state": "Florida", "postcode": "32934", "lat": 28.163051275563802, "long": -80.71362266284315}, {"house_number": "4823", "road": "Triverton Court", "city": "Melbourne", "state": "Florida", "postcode": "32934", "lat": 28.167603887913728, "long": -80.7094759407577}, {"house_number": "1060", "road": "North Range Road", "city": "Cocoa", "state": "Florida", "postcode": "32926", "lat": 28.3728205, "long": -80.77147799999999}, {"house_number": "3714", "road": "Pascoli Place", "city": "Melbourne", "state": "Florida", "postcode": "32934", "lat": 28.131510210927043, "long": -80.68600550179346}, {"house_number": "3683", "road": "Pascoli Place", "city": "Melbourne", "state": "Florida", "postcode": "32934", "lat": 28.131465106250964, "long": -80.68522327054707}, {"house_number": "1548", "road": "Abberton Court", "city": "Melbourne", "state": "Florida", "postcode": "32934", "lat": 28.13180808699151, "long": -80.68576474586557}, {"house_number": "3696", "road": "Tibaldi Place", "city": "Melbourne", "state": "Florida", "postcode": "32934", "lat": 28.12853929926213, "long": -80.68602526929085}, {"house_number": "1219", "road": "Tipperary Drive", "city": "Viera", "state": "Florida", "postcode": "32940", "lat": 28.2590265, "long": -80.70105099999999}, {"house_number": "266", "road": "Wading Bird Circle", "city": "Palm Bay", "state": "Florida", "postcode": "32908", "lat": 27.996316418574473, "long": -80.71637069518502}, {"house_number": "225", "road": "Alcantarra Street Northwest", "city": "Palm Bay", "state": "Florida", "postcode": "32907", "lat": 28.01016222445424, "long": -80.67614500064808}, {"house_number": "2585", "road": "Wingate Boulevard", "city": "West Melbourne", "state": "Florida", "postcode": "32904", "lat": 28.06041813837987, "long": -80.65976622050002}, {"house_number": "178", "road": "Reading Avenue", "city": "Titusville", "state": "Florida", "postcode": "32796", "lat": 28.613355326203585, "long": -80.85757273734046}, {"house_number": "300", "road": "Reading Avenue", "city": "Titusville", "state": "Florida", "postcode": "32796", "lat": 28.61232773427345, "long": -80.85794792395777}, {"house_number": "3830", "road": "Utes Drive", "city": "Titusville", "state": "Florida", "postcode": "32796", "lat": 28.612935999999998, "long": -80.85795149999998}, {"house_number": "4007", "road": "Fair Point Lane", "city": "Melbourne", "state": "Florida", "postcode": "32934", "lat": 28.16012453063298, "long": -80.69074774990645}, {"house_number": "216", "road": "Young Avenue", "city": "Cocoa Beach", "state": "Florida", "postcode": "32931", "lat": 28.369529999999997, "long": -80.60341249999999}, {"house_number": "1184", "road": "South Orlando Avenue", "city": "Cocoa Beach", "state": "Florida", "postcode": "32931", "lat": 28.297127499244787, "long": -80.6094815302303}, {"house_number": "1130", "road": "South Orlando Avenue", "city": "Cocoa Beach", "state": "Florida", "postcode": "32931", "lat": 28.297519499999993, "long": -80.60949149999999}, {"house_number": "1166", "road": "South Orlando Avenue", "city": "Cocoa Beach", "state": "Florida", "postcode": "32931", "lat": 28.297363999999995, "long": -80.60948749999999}, {"house_number": "313", "road": "South 11th Street", "city": "Cocoa Beach", "state": "Florida", "postcode": "32931", "lat": 28.298777, "long": -80.6107535}, {"house_number": "329", "road": "South 11th Street", "city": "Cocoa Beach", "state": "Florida", "postcode": "32931", "lat": 28.29877207664861, "long": -80.61108649470891}, {"house_number": "768", "road": "South Patrick Drive", "city": "South Patrick Shores", "state": "Florida", "postcode": "32937", "lat": 28.19148799841365, "long": -80.6061931544682}, {"house_number": "4335", "road": "London Town Lane", "city": "Titusville", "state": "Florida", "postcode": "32796", "lat": 28.65490145780126, "long": -80.8672205198849}, {"house_number": "449", "road": "Colony Street", "city": "Melbourne Beach", "state": "Florida", "postcode": "32951", "lat": 28.073971171411376, "long": -80.56099734291037}, {"house_number": "249", "road": "Riverside Park Drive", "city": "Indian Harbour Beach", "state": "Florida", "postcode": "32937", "lat": 28.1564382784347, "long": -80.59986439382254}, {"house_number": "1117", "road": "Hollow Brook Lane", "city": "Malabar", "state": "Florida", "postcode": "32950", "lat": 28.01200025718794, "long": -80.59972017226497}, {"house_number": "1294", "road": "Pemberton Trail", "city": "Malabar", "state": "Florida", "postcode": "32950", "lat": 28.007328263521686, "long": -80.5985975231181}, {"house_number": "349", "road": "Evergreen Street", "city": "June Park", "state": "Florida", "postcode": "32904", "lat": 28.07278099948939, "long": -80.6820085761931}, {"house_number": "908", "road": "South Fork Circle", "city": "Melbourne", "state": "Florida", "postcode": "32901", "lat": 28.0491813861624, "long": -80.63675550112896}, {"house_number": "294", "road": "Sawyer Avenue", "city": "Merritt Island", "state": "Florida", "postcode": "32953", "lat": 28.380819439223245, "long": -80.71001290585538}, {"house_number": "1230", "road": "Sandy Lane", "city": "Titusville", "state": "Florida", "postcode": "32796", "lat": 28.631856438552905, "long": -80.83974403768849}, {"house_number": "4749", "road": "Periwinkle Lane", "city": "Titusville", "state": "Florida", "postcode": "32780", "lat": 28.556095776942698, "long": -80.80310858157397}, {"house_number": "4749", "road": "Periwinkle Lane", "city": "Titusville", "state": "Florida", "postcode": "32780", "lat": 28.556095776942698, "long": -80.80310858157397}, {"house_number": "3915", "road": "Hunters Ridge Way", "city": "Titusville", "state": "Florida", "postcode": "32796", "lat": 28.630537382711573, "long": -80.8566369991819}, {"house_number": "2401", "road": "Talmadge Drive", "city": "Titusville", "state": "Florida", "postcode": "32780", "lat": 28.58770996513365, "long": -80.82005755920906}, {"house_number": "7290", "road": "George T. Edwards Drive", "city": "Melbourne", "state": "Florida", "postcode": "32940", "lat": 28.23106622671486, "long": -80.7214244135835}, {"house_number": "957", "road": "Brevard Avenue", "city": "Rockledge", "state": "Florida", "postcode": "32955", "lat": 28.347744552372035, "long": -80.72617196366443}, {"house_number": "2150", "road": "Lois Lane", "city": "Cocoa West", "state": "Florida", "postcode": "32926", "lat": 28.357951493725334, "long": -80.76624006238251}, {"house_number": "402", "road": "Islanda Court", "city": "Satellite Beach", "state": "Florida", "postcode": "32937", "lat": 28.180744001409572, "long": -80.60552799999999}, {"house_number": "307", "road": "Camelot Circle", "city": "Malabar", "state": "Florida", "postcode": "32950", "lat": 28.000159587767296, "long": -80.56256085815919}, {"house_number": "307", "road": "Camelot Circle", "city": "Malabar", "state": "Florida", "postcode": "32950", "lat": 28.000159587767296, "long": -80.56256085815919}, {"house_number": "307", "road": "Camelot Circle", "city": "Malabar", "state": "Florida", "postcode": "32950", "lat": 28.000159587767296, "long": -80.56256085815919}, {"house_number": "307", "road": "Camelot Circle", "city": "Malabar", "state": "Florida", "postcode": "32950", "lat": 28.000159587767296, "long": -80.56256085815919}, {"house_number": "2500", "road": "Merrman Drive", "city": "Palm Shores", "state": "Florida", "postcode": "32940", "lat": 28.198250295362747, "long": -80.66213748842215}, {"house_number": "1140", "road": "Joyal Drive", "city": "Melbourne", "state": "Florida", "postcode": "32934", "lat": 28.13548899684886, "long": -80.67289306803856}, {"house_number": "625", "road": "Abeto Street Northeast", "city": "Palm Bay", "state": "Florida", "postcode": "32905", "lat": 28.01274368202152, "long": -80.5768800409304}, {"house_number": "3880", "road": "Utes Drive", "city": "Titusville", "state": "Florida", "postcode": "32796", "lat": 28.612967816014248, "long": -80.85886192803062}, {"house_number": "3485", "road": "Mulberry Drive", "city": "Titusville", "state": "Florida", "postcode": "32780", "lat": 28.56652032839245, "long": -80.84190255550091}, {"house_number": "150", "road": "Rattan Avenue", "city": "Cape Canaveral", "state": "Florida", "postcode": "32920", "lat": 28.379279257879393, "long": -80.60738847923623}, {"house_number": "199", "road": "Virginia Avenue", "city": "Cocoa West", "state": "Florida", "postcode": "32922", "lat": 28.3526029966675, "long": -80.75132028384824}, {"house_number": "547", "road": "Glenbrook Circle", "city": "Rockledge", "state": "Florida", "postcode": "32955", "lat": 28.298448928009716, "long": -80.71917177210824}, {"house_number": "363", "road": "South Point Court", "city": "South Patrick Shores", "state": "Florida", "postcode": "32937", "lat": 28.19125901890812, "long": -80.61077125697679}, {"house_number": "251", "road": "Richie Avenue", "city": "Cape Canaveral", "state": "Florida", "postcode": "32920", "lat": 28.384560603839688, "long": -80.60702613053898}, {"house_number": "251", "road": "Richie Avenue", "city": "Cape Canaveral", "state": "Florida", "postcode": "32920", "lat": 28.384560603839688, "long": -80.60702613053898}, {"house_number": "136", "road": "Cocoa Palms Drive", "city": "Cape Canaveral", "state": "Florida", "postcode": "32920", "lat": 28.37963894736888, "long": -80.60741965089898}, {"house_number": "198", "road": "International Drive", "city": "Cape Canaveral", "state": "Florida", "postcode": "32920", "lat": 28.3877012836506, "long": -80.60690441947602}, {"house_number": "149", "road": "Harbor Drive", "city": "Cape Canaveral", "state": "Florida", "postcode": "32920", "lat": 28.39900887784708, "long": -80.60409235292197}, {"house_number": "50", "road": "Allison Drive", "city": "Cocoa", "state": "Florida", "postcode": "32922", "lat": 28.349517405324537, "long": -80.72797299705408}, {"house_number": "50", "road": "Allison Drive", "city": "Cocoa", "state": "Florida", "postcode": "32922", "lat": 28.349517405324537, "long": -80.72797299705408}, {"house_number": "50", "road": "Allison Drive", "city": "Cocoa", "state": "Florida", "postcode": "32922", "lat": 28.349517405324537, "long": -80.72797299705408}, {"house_number": "1073", "road": "Shares Drive", "city": "Rockledge", "state": "Florida", "postcode": "32955", "lat": 28.334255259953903, "long": -80.71721310248635}, {"house_number": "250", "road": "Woodsmill Boulevard", "city": "Cocoa", "state": "Florida", "postcode": "32926", "lat": 28.380380832558693, "long": -80.81010792263956}, {"house_number": "3914", "road": "Mount Carmel Lane", "city": "Melbourne", "state": "Florida", "postcode": "32901", "lat": 28.042661355139707, "long": -80.60924504099242}, {"house_number": "4450", "road": "Mustang Road", "city": "Melbourne", "state": "Florida", "postcode": "32934", "lat": 28.15436749999999, "long": -80.70027150076287}, {"house_number": "651", "road": "Kurek Court", "city": "Merritt Island", "state": "Florida", "postcode": "32953", "lat": 28.367719506171763, "long": -80.70163801054026}, {"house_number": "1275", "road": "Hastings Road Southwest", "city": "Palm Bay", "state": "Florida", "postcode": "32908", "lat": 27.982246807484447, "long": -80.7081343709477}, {"house_number": "4206", "road": "Woodlake Drive Northeast", "city": "Palm Bay", "state": "Florida", "postcode": "32905", "lat": 28.04062815075568, "long": -80.60791601028858}, {"house_number": "4206", "road": "Woodlake Drive Northeast", "city": "Palm Bay", "state": "Florida", "postcode": "32905", "lat": 28.04062815075568, "long": -80.60791601028858}, {"house_number": "4206", "road": "Woodlake Drive Northeast", "city": "Palm Bay", "state": "Florida", "postcode": "32905", "lat": 28.04062815075568, "long": -80.60791601028858}, {"house_number": "1454", "road": "Arlington Lane Northeast", "city": "Palm Bay", "state": "Florida", "postcode": "32905", "lat": 28.034441643292634, "long": -80.61267030752727}, {"house_number": "348", "road": "Hall Road", "city": "Palm Bay", "state": "Florida", "postcode": "32909", "lat": 27.991077451215542, "long": -80.61477899910443}, {"house_number": "1425", "road": "Medplex Parkway", "city": "Palm Bay", "state": "Florida", "postcode": "32907", "lat": 28.000132315222086, "long": -80.61269126335961}, {"house_number": "1240", "road": "Ranchero Avenue", "city": "Titusville", "state": "Florida", "postcode": "32780", "lat": 28.583355499130487, "long": -80.81654236713264}, {"house_number": "1456", "road": "College Avenue", "city": "Cocoa", "state": "Florida", "postcode": "32922", "lat": 28.37592713643038, "long": -80.76129584913595}, {"house_number": "320", "road": "Tunbridge Drive", "city": "Rockledge", "state": "Florida", "postcode": "32955", "lat": 28.302217969655917, "long": -80.71074348994257}, {"house_number": "749", "road": "Sea Palm Lane", "city": "Satellite Beach", "state": "Florida", "postcode": "32937", "lat": 28.16041849869362, "long": -80.58692454973034}, {"house_number": "812", "road": "Inverness Avenue", "city": "Suntree", "state": "Florida", "postcode": "32940", "lat": 28.2240649613101, "long": -80.69165601114278}, {"house_number": "812", "road": "Inverness Avenue", "city": "Suntree", "state": "Florida", "postcode": "32940", "lat": 28.2240649613101, "long": -80.69165601114278}, {"house_number": "181", "road": "Skyline Circle", "city": "Satellite Beach", "state": "Florida", "postcode": "32937", "lat": 28.169900884942685, "long": -80.59045473493737}, {"house_number": "181", "road": "Skyline Circle", "city": "Satellite Beach", "state": "Florida", "postcode": "32937", "lat": 28.169900884942685, "long": -80.59045473493737}, {"house_number": "625", "road": "Seville Court", "city": "Satellite Beach", "state": "Florida", "postcode": "32937", "lat": 28.178986112266415, "long": -80.60679943771447}, {"house_number": "473", "road": "Flicker Circle", "city": "Satellite Beach", "state": "Florida", "postcode": "32937", "lat": 28.19340473613455, "long": -80.60392723446577}, {"house_number": "473", "road": "Flicker Circle", "city": "Satellite Beach", "state": "Florida", "postcode": "32937", "lat": 28.19340473613455, "long": -80.60392723446577}, {"house_number": "923", "road": "East New Haven Avenue", "city": "Melbourne", "state": "Florida", "postcode": "32901", "lat": 28.078349309137124, "long": -80.60530470923904}, {"house_number": "3898", "road": "Gail Boulevard", "city": "West Melbourne", "state": "Florida", "postcode": "32904", "lat": 28.071171131867636, "long": -80.645124092273}, {"house_number": "1581", "road": "Waldorf Circle Northeast", "city": "Palm Bay", "state": "Florida", "postcode": "32905", "lat": 28.01947436282537, "long": -80.62756076038876}]