[{"house_number": "4448", "road": "Northwest 49th Street", "city": "Gainesville", "state": "Florida", "postcode": "32606", "lat": 29.695186951707534, "long": -82.39517735526663}, {"house_number": "9717", "road": "Southwest 52nd Lane", "city": "Gainesville", "state": "Florida", "postcode": "32608", "lat": 29.605230902823273, "long": -82.44554339937129}, {"house_number": "4849", "road": "Northwest 46th Place", "city": "Gainesville", "state": "Florida", "postcode": "32606", "lat": 29.69700094775593, "long": -82.39446367340129}, {"house_number": "14011", "road": "Northwest 166th Place", "city": "Alachua", "state": "Florida", "postcode": "32615", "lat": 29.8071955, "long": -82.49477549999997}, {"house_number": "16456", "road": "Northwest 141 Street", "city": "Alachua", "state": "Florida", "postcode": "32615", "lat": 29.805860999999993, "long": -82.49577549999998}, {"house_number": "14149", "road": "Northwest 166th Place", "city": "Alachua", "state": "Florida", "postcode": "32615", "lat": 29.807265252288317, "long": -82.49636454058847}, {"house_number": "14028", "road": "Northwest 167th Place", "city": "Alachua", "state": "Florida", "postcode": "32615", "lat": 29.808354753340602, "long": -82.49514799890859}, {"house_number": "14028", "road": "Northwest 167th Place", "city": "Alachua", "state": "Florida", "postcode": "32615", "lat": 29.808354753340602, "long": -82.49514799890859}, {"house_number": "14154", "road": "Northwest 167th Place", "city": "Alachua", "state": "Florida", "postcode": "32615", "lat": 29.808353999999998, "long": -82.49632649999998}, {"house_number": "14154", "road": "Northwest 167th Place", "city": "Alachua", "state": "Florida", "postcode": "32615", "lat": 29.808353999999998, "long": -82.49632649999998}, {"house_number": "16419", "road": "Northwest 141 Street", "city": "Alachua", "state": "Florida", "postcode": "32615", "lat": 29.805340500657646, "long": -82.49579002299022}, {"house_number": "16557", "road": "Northwest 141 Street", "city": "Alachua", "state": "Florida", "postcode": "32615", "lat": 29.80691849685308, "long": -82.49575429662104}, {"house_number": "16553", "road": "Northwest 141 Street", "city": "Alachua", "state": "Florida", "postcode": "32615", "lat": 29.8065595045549, "long": -82.49576071305667}, {"house_number": "16512", "road": "Northwest 141 Street", "city": "Alachua", "state": "Florida", "postcode": "32615", "lat": 29.806340999999996, "long": -82.49576449999999}, {"house_number": "16512", "road": "Northwest 141 Street", "city": "Alachua", "state": "Florida", "postcode": "32615", "lat": 29.806340999999996, "long": -82.49576449999999}, {"house_number": "11300", "road": "Southwest 282nd Street", "city": "Newberry", "state": "Florida", "postcode": "32669", "lat": 29.549397693545053, "long": -82.63971612336333}, {"house_number": "15050", "road": "CR 346", "city": "Archer", "state": "Florida", "postcode": "32618", "lat": 29.529984035122848, "long": -82.5041895076201}, {"house_number": "15351", "road": "CR 346", "city": "Archer", "state": "Florida", "postcode": "32618", "lat": 29.530001999999996, "long": -82.506381}, {"house_number": "14950", "road": "CR 346", "city": "Archer", "state": "Florida", "postcode": "32618", "lat": 29.52996449999999, "long": -82.5014185}, {"house_number": "13099", "road": "Southwest 143rd Street", "city": "Archer", "state": "Florida", "postcode": "32618", "lat": 29.53417799999999, "long": -82.49620349999998}, {"house_number": "13099", "road": "Southwest 143rd Street", "city": "Archer", "state": "Florida", "postcode": "32618", "lat": 29.53417799999999, "long": -82.49620349999998}, {"house_number": "12902", "road": "Southwest 143rd Street", "city": "Archer", "state": "Florida", "postcode": "32618", "lat": 29.53590550035189, "long": -82.49621023255857}, {"house_number": "12902", "road": "Southwest 143rd Street", "city": "Archer", "state": "Florida", "postcode": "32618", "lat": 29.53590550035189, "long": -82.49621023255857}, {"house_number": "13349", "road": "Southwest 154th Street", "city": "Archer", "state": "Florida", "postcode": "32618", "lat": 29.531091971865813, "long": -82.50657676164333}, {"house_number": "13349", "road": "Southwest 154th Street", "city": "Archer", "state": "Florida", "postcode": "32618", "lat": 29.531091971865813, "long": -82.50657676164333}, {"house_number": "12949", "road": "Southwest 154th Street", "city": "Archer", "state": "Florida", "postcode": "32618", "lat": 29.533535987951378, "long": -82.50658562032689}, {"house_number": "12949", "road": "Southwest 154th Street", "city": "Archer", "state": "Florida", "postcode": "32618", "lat": 29.533535987951378, "long": -82.50658562032689}, {"house_number": "12949", "road": "Southwest 154th Street", "city": "Archer", "state": "Florida", "postcode": "32618", "lat": 29.533535987951378, "long": -82.50658562032689}, {"house_number": "12949", "road": "Southwest 154th Street", "city": "Archer", "state": "Florida", "postcode": "32618", "lat": 29.533535987951378, "long": -82.50658562032689}, {"house_number": "4648", "road": "Southwest 18th Place", "city": "Gainesville", "state": "Florida", "postcode": "32607", "lat": 29.636113169649693, "long": -82.39470373078635}, {"house_number": "2449", "road": "Northwest 28th Street", "city": "Gainesville", "state": "Florida", "postcode": "32605", "lat": 29.675095874006338, "long": -82.36513446152894}, {"house_number": "2449", "road": "Northwest 28th Street", "city": "Gainesville", "state": "Florida", "postcode": "32605", "lat": 29.675095874006338, "long": -82.36513446152894}, {"house_number": "2850", "road": "Northwest 28 place", "city": "Gainesville", "state": "Florida", "postcode": "32605", "lat": 29.67751751608747, "long": -82.36467154013201}, {"house_number": "7950", "road": "Northwest 47th Way", "city": "Gainesville", "state": "Florida", "postcode": "32653", "lat": 29.72738344823051, "long": -82.39338106700102}, {"house_number": "15079", "road": "Northwest 147th Drive", "city": "Alachua", "state": "Florida", "postcode": "32615", "lat": 29.794533866591653, "long": -82.50225861656655}, {"house_number": "848", "road": "Southwest 56th Terrace", "city": "Gainesville", "state": "Florida", "postcode": "32607", "lat": 29.64427351064465, "long": -82.40197139297064}, {"house_number": "650", "road": "Northwest 10th Terrace", "city": "Gainesville", "state": "Florida", "postcode": "32601", "lat": 29.656624498102655, "long": -82.33555415549735}, {"house_number": "5191", "road": "Southwest 29 Drive", "city": "Gainesville", "state": "Florida", "postcode": "32608", "lat": 29.606242417104582, "long": -82.3627631233739}, {"house_number": "5191", "road": "Southwest 29 Drive", "city": "Gainesville", "state": "Florida", "postcode": "32608", "lat": 29.606242417104582, "long": -82.3627631233739}, {"house_number": "5191", "road": "Southwest 29 Drive", "city": "Gainesville", "state": "Florida", "postcode": "32608", "lat": 29.606242417104582, "long": -82.3627631233739}, {"house_number": "5191", "road": "Southwest 29 Drive", "city": "Gainesville", "state": "Florida", "postcode": "32608", "lat": 29.606242417104582, "long": -82.3627631233739}, {"house_number": "5191", "road": "Southwest 29 Drive", "city": "Gainesville", "state": "Florida", "postcode": "32608", "lat": 29.606242417104582, "long": -82.3627631233739}, {"house_number": "5191", "road": "Southwest 29 Drive", "city": "Gainesville", "state": "Florida", "postcode": "32608", "lat": 29.606242417104582, "long": -82.3627631233739}, {"house_number": "26133", "road": "Southwest 67th Avenue", "city": "Newberry", "state": "Florida", "postcode": "32669", "lat": 29.59159338178869, "long": -82.61827268493317}, {"house_number": "26532", "road": "Southwest 67th Avenue", "city": "Newberry", "state": "Florida", "postcode": "32669", "lat": 29.591435499999996, "long": -82.62216649999999}, {"house_number": "25672", "road": "Southwest 67th Avenue", "city": "Newberry", "state": "Florida", "postcode": "32669", "lat": 29.591701323878056, "long": -82.61307249482222}, {"house_number": "25400", "road": "Southwest 66th Avenue", "city": "Newberry", "state": "Florida", "postcode": "32669", "lat": 29.592647, "long": -82.61045999999999}, {"house_number": "25092", "road": "Southwest 67th Avenue", "city": "Newberry", "state": "Florida", "postcode": "32669", "lat": 29.591866359153908, "long": -82.60736535418107}, {"house_number": "25364", "road": "Southwest 67th Avenue", "city": "Newberry", "state": "Florida", "postcode": "32669", "lat": 29.591792499999993, "long": -82.60995199999999}, {"house_number": "2359", "road": "Northwest 33rd Place", "city": "Gainesville", "state": "Florida", "postcode": "32605", "lat": 29.683645803379775, "long": -82.35776684973303}, {"house_number": "23050", "road": "Northwest 4th Place", "city": "Newberry", "state": "Florida", "postcode": "32669", "lat": 29.658476999999994, "long": -82.58679099999998}, {"house_number": "362", "road": "Northwest 232nd Terrace", "city": "Newberry", "state": "Florida", "postcode": "32669", "lat": 29.657949063572733, "long": -82.5887311629061}, {"house_number": "461", "road": "Northwest 232nd Terrace", "city": "Newberry", "state": "Florida", "postcode": "32669", "lat": 29.658875429964333, "long": -82.58876432749416}, {"house_number": "23164", "road": "Northwest 5th Place", "city": "Newberry", "state": "Florida", "postcode": "32669", "lat": 29.65930799999999, "long": -82.58757749999998}, {"house_number": "504", "road": "Northwest 228 Terrace", "city": "Newberry", "state": "Florida", "postcode": "32669", "lat": 29.658885847926783, "long": -82.58465539054673}, {"house_number": "673", "road": "Northwest 230 Way", "city": "Newberry", "state": "Florida", "postcode": "32669", "lat": 29.6605060900635, "long": -82.58639509190576}, {"house_number": "22914", "road": "Northwest 5th Place", "city": "Newberry", "state": "Florida", "postcode": "32669", "lat": 29.659326171462236, "long": -82.58557660542107}, {"house_number": "23000", "road": "Northwest 6 Lane", "city": "Newberry", "state": "Florida", "postcode": "32669", "lat": 29.66014499999999, "long": -82.58608849999999}, {"house_number": "23000", "road": "Northwest 6 Lane", "city": "Newberry", "state": "Florida", "postcode": "32669", "lat": 29.66014499999999, "long": -82.58608849999999}, {"house_number": "23351", "road": "Northwest 7th Road", "city": "Newberry", "state": "Florida", "postcode": "32669", "lat": 29.66152668814854, "long": -82.58896000667399}, {"house_number": "23229", "road": "Northwest 7th Road", "city": "Newberry", "state": "Florida", "postcode": "32669", "lat": 29.661521936390578, "long": -82.58821798346092}, {"house_number": "13350", "road": "236 Terrace", "city": "High Springs", "state": "Florida", "postcode": "32643", "lat": 29.783900009116987, "long": -82.59387628860378}, {"house_number": "6512", "road": "Southwest 90th Street", "city": "Gainesville", "state": "Florida", "postcode": "32608", "lat": 29.593751738269056, "long": -82.43826644922659}, {"house_number": "10744", "road": "North State Road 121", "city": "Gainesville", "state": "Florida", "postcode": "32609", "lat": 29.753921764969288, "long": -82.35637407928952}, {"house_number": "10100", "road": "North State Road 121", "city": "Gainesville", "state": "Florida", "postcode": "32653", "lat": 29.74700468651546, "long": -82.35503304470916}, {"house_number": "10205", "road": "North State Road 121", "city": "Gainesville", "state": "Florida", "postcode": "32653", "lat": 29.748115705231974, "long": -82.35525028613358}, {"house_number": "6592", "road": "Southwest 90th Street", "city": "Gainesville", "state": "Florida", "postcode": "32608", "lat": 29.59297281801417, "long": -82.43826305490467}, {"house_number": "9661", "road": "County Road 235", "city": "Newberry", "state": "Florida", "postcode": "32615", "lat": 29.74529488818197, "long": -82.53685396260907}, {"house_number": "9850", "road": "County Road 235", "city": "Newberry", "state": "Florida", "postcode": "32615", "lat": 29.747319686015462, "long": -82.53561411629818}, {"house_number": "10458", "road": "Northwest 164 Terrace", "city": "Alachua", "state": "Florida", "postcode": "32615", "lat": 29.749744999999997, "long": -82.53412249999998}, {"house_number": "19852", "road": "Santa Fe Boulevard", "city": "High Springs", "state": "Florida", "postcode": "32643", "lat": 29.837850076221898, "long": -82.60135690398367}, {"house_number": "19852", "road": "Santa Fe Boulevard", "city": "High Springs", "state": "Florida", "postcode": "32643", "lat": 29.837850076221898, "long": -82.60135690398367}, {"house_number": "4949", "road": "Southwest 19th Place", "city": "Gainesville", "state": "Florida", "postcode": "32607", "lat": 29.634837641366097, "long": -82.39672665012549}, {"house_number": "6749", "road": "Southwest 250th Street", "city": "Newberry", "state": "Florida", "postcode": "32669", "lat": 29.59049448940919, "long": -82.60633960210839}, {"house_number": "8870", "road": "Southwest 25th Road", "city": "Gainesville", "state": "Florida", "postcode": "32607", "lat": 29.629934026353062, "long": -82.43671053587713}, {"house_number": "8870", "road": "Southwest 25th Road", "city": "Gainesville", "state": "Florida", "postcode": "32607", "lat": 29.629934026353062, "long": -82.43671053587713}, {"house_number": "25098", "road": "Southwest 22nd Avenue", "city": "Newberry", "state": "Florida", "postcode": "32669", "lat": 29.632318879783718, "long": -82.6077091567337}, {"house_number": "25148", "road": "Southwest 17th Avenue", "city": "Newberry", "state": "Florida", "postcode": "32669", "lat": 29.63729969398602, "long": -82.60805870973017}, {"house_number": "5366", "road": "Northwest 15th Place", "city": "Gainesville", "state": "Florida", "postcode": "32605", "lat": 29.66620960312605, "long": -82.40045525649688}, {"house_number": "25499", "road": "Southwest 30th Avenue", "city": "Newberry", "state": "Florida", "postcode": "32669", "lat": 29.624226874389247, "long": -82.61690198628244}, {"house_number": "25499", "road": "Southwest 30th Avenue", "city": "Newberry", "state": "Florida", "postcode": "32669", "lat": 29.624226874389247, "long": -82.61690198628244}, {"house_number": "25499", "road": "Southwest 30th Avenue", "city": "Newberry", "state": "Florida", "postcode": "32669", "lat": 29.624226874389247, "long": -82.61690198628244}, {"house_number": "25499", "road": "Southwest 30th Avenue", "city": "Newberry", "state": "Florida", "postcode": "32669", "lat": 29.624226874389247, "long": -82.61690198628244}, {"house_number": "25211", "road": "Southwest 22nd Avenue", "city": "Newberry", "state": "Florida", "postcode": "32669", "lat": 29.63185083813556, "long": -82.60869560193983}, {"house_number": "3212", "road": "Northwest 49th Street", "city": "Gainesville", "state": "Florida", "postcode": "32606", "lat": 29.68166199572183, "long": -82.39529830301868}, {"house_number": "3212", "road": "Northwest 49th Street", "city": "Gainesville", "state": "Florida", "postcode": "32606", "lat": 29.68166199572183, "long": -82.39529830301868}, {"house_number": "21050", "road": "Northwest 190th Avenue", "city": "High Springs", "state": "Florida", "postcode": "32643", "lat": 29.82931427352314, "long": -82.56853698943743}, {"house_number": "21050", "road": "Northwest 190th Avenue", "city": "High Springs", "state": "Florida", "postcode": "32643", "lat": 29.82931427352314, "long": -82.56853698943743}, {"house_number": "21050", "road": "Northwest 190th Avenue", "city": "High Springs", "state": "Florida", "postcode": "32643", "lat": 29.82931427352314, "long": -82.56853698943743}, {"house_number": "21050", "road": "Northwest 190th Avenue", "city": "High Springs", "state": "Florida", "postcode": "32643", "lat": 29.82931427352314, "long": -82.56853698943743}, {"house_number": "21050", "road": "Northwest 190th Avenue", "city": "High Springs", "state": "Florida", "postcode": "32643", "lat": 29.82931427352314, "long": -82.56853698943743}, {"house_number": "13850", "road": "Northwest 214th Terrace", "city": "High Springs", "state": "Florida", "postcode": "32643", "lat": 29.783786561419607, "long": -82.57182046401397}, {"house_number": "13850", "road": "Northwest 214th Terrace", "city": "High Springs", "state": "Florida", "postcode": "32643", "lat": 29.783786561419607, "long": -82.57182046401397}, {"house_number": "13850", "road": "Northwest 214th Terrace", "city": "High Springs", "state": "Florida", "postcode": "32643", "lat": 29.783786561419607, "long": -82.57182046401397}, {"house_number": "13850", "road": "Northwest 214th Terrace", "city": "High Springs", "state": "Florida", "postcode": "32643", "lat": 29.783786561419607, "long": -82.57182046401397}, {"house_number": "750", "road": "Line Avenue", "city": "Waldo", "state": "Florida", "postcode": "32609", "lat": 29.791090919450813, "long": -82.18056199975729}, {"house_number": "750", "road": "Line Avenue", "city": "Waldo", "state": "Florida", "postcode": "32609", "lat": 29.791090919450813, "long": -82.18056199975729}, {"house_number": "750", "road": "Line Avenue", "city": "Waldo", "state": "Florida", "postcode": "32609", "lat": 29.791090919450813, "long": -82.18056199975729}, {"house_number": "3627", "road": "Southwest 19th Avenue", "city": "Gainesville", "state": "Florida", "postcode": "32607", "lat": 29.635205499999994, "long": -82.37609799999998}, {"house_number": "15964", "road": "North State Road 121", "city": "Gainesville", "state": "Florida", "postcode": "32653", "lat": 29.801277499999994, "long": -82.38484349999999}, {"house_number": "13659", "road": "Northwest 202nd Street", "city": "High Springs", "state": "Florida", "postcode": "32615", "lat": 29.781041499999997, "long": -82.5601595}, {"house_number": "13659", "road": "Northwest 202nd Street", "city": "High Springs", "state": "Florida", "postcode": "32615", "lat": 29.781041499999997, "long": -82.5601595}, {"house_number": "1998", "road": "Northwest 43rd Street", "city": "Gainesville", "state": "Florida", "postcode": "32605", "lat": 29.671373499999998, "long": -82.388992}, {"house_number": "1640", "road": "Northwest 9th Street", "city": "Gainesville", "state": "Florida", "postcode": "32609", "lat": 29.66700149999999, "long": -82.334079}, {"house_number": "1674", "road": "Northwest 9th Street", "city": "Gainesville", "state": "Florida", "postcode": "32609", "lat": 29.667305492218407, "long": -82.33408177823598}, {"house_number": "1800", "road": "Northwest 7th Street", "city": "Gainesville", "state": "Florida", "postcode": "32609", "lat": 29.668472302505762, "long": -82.33191239822156}]