[{"house_number": "3249", "road": "CR 143", "city": "Jennings", "state": "Florida", "postcode": "32053", "lat": 30.572280733584396, "long": -83.15283195059426}, {"house_number": "3249", "road": "CR 143", "city": "Jennings", "state": "Florida", "postcode": "32053", "lat": 30.572280733584396, "long": -83.15283195059426}, {"house_number": "3249", "road": "CR 143", "city": "Jennings", "state": "Florida", "postcode": "32053", "lat": 30.572280733584396, "long": -83.15283195059426}, {"house_number": "3249", "road": "CR 143", "city": "Jennings", "state": "Florida", "postcode": "32053", "lat": 30.572280733584396, "long": -83.15283195059426}, {"house_number": "4300", "road": "CR 143", "city": "Jennings", "state": "Florida", "postcode": "32053", "lat": 30.55523123979215, "long": -83.18478130993516}, {"house_number": "4300", "road": "CR 143", "city": "Jennings", "state": "Florida", "postcode": "32053", "lat": 30.55523123979215, "long": -83.18478130993516}, {"house_number": "207", "road": "1st Street Northeast", "city": "Jasper", "state": "Florida", "postcode": "32052", "lat": 30.518958554099804, "long": -82.94605849254819}, {"house_number": "150", "road": "4th Avenue Northwest", "city": "Jasper", "state": "Florida", "postcode": "32052", "lat": 30.518897504093836, "long": -82.95075710516852}, {"house_number": "150", "road": "3rd Avenue Northwest", "city": "Jasper", "state": "Florida", "postcode": "32052", "lat": 30.518838008856218, "long": -82.94983960020204}, {"house_number": "406", "road": "Hatley Street", "city": "Jasper", "state": "Florida", "postcode": "32052", "lat": 30.518489144055536, "long": -82.95029203568915}, {"house_number": "406", "road": "Hatley Street", "city": "Jasper", "state": "Florida", "postcode": "32052", "lat": 30.518489144055536, "long": -82.95029203568915}, {"house_number": "151", "road": "12th Avenue Northwest", "city": "Jasper", "state": "Florida", "postcode": "32052", "lat": 30.518900499999987, "long": -82.95717199999999}, {"house_number": "1649", "road": "CR 141", "city": "Jennings", "state": "Florida", "postcode": "32053", "lat": 30.595201393019416, "long": -83.09804180470401}, {"house_number": "1201", "road": "Southern Street", "city": "Jennings", "state": "Florida", "postcode": "32053", "lat": 30.60458804634025, "long": -83.0989994438832}, {"house_number": "439", "road": "Martin Luther King Drive Northeast", "city": "Jasper", "state": "Florida", "postcode": "32052", "lat": 30.516922605237802, "long": -82.94435454532412}, {"house_number": "754", "road": "2nd Avenue Northwest", "city": "Jasper", "state": "Florida", "postcode": "32052", "lat": 30.5242734701452, "long": -82.9488670742319}, {"house_number": "355", "road": "Palmetto Avenue", "city": "Jasper", "state": "Florida", "postcode": "32052", "lat": 30.520318041173113, "long": -82.94397868438725}, {"house_number": "451", "road": "Palmetto Avenue", "city": "Jasper", "state": "Florida", "postcode": "32052", "lat": 30.521054559221948, "long": -82.94302065139115}, {"house_number": "451", "road": "Palmetto Avenue", "city": "Jasper", "state": "Florida", "postcode": "32052", "lat": 30.521054559221948, "long": -82.94302065139115}, {"house_number": "503", "road": "Palmetto Avenue", "city": "Jasper", "state": "Florida", "postcode": "32052", "lat": 30.521826306665083, "long": -82.94204096276756}, {"house_number": "503", "road": "Palmetto Avenue", "city": "Jasper", "state": "Florida", "postcode": "32052", "lat": 30.521826306665083, "long": -82.94204096276756}, {"house_number": "1766", "road": "Carl Street", "city": "Jasper", "state": "Florida", "postcode": "32052", "lat": 30.51914519739461, "long": -82.96499949332116}, {"house_number": "1767", "road": "Lynn Street", "city": "Jasper", "state": "Florida", "postcode": "32052", "lat": 30.519913094909274, "long": -82.96503449598485}, {"house_number": "348", "road": "Amerson Road", "city": "Jasper", "state": "Florida", "postcode": "32052", "lat": 30.521345321238943, "long": -82.94384976891477}, {"house_number": "201", "road": "Railroad Street Northeast", "city": "Jasper", "state": "Florida", "postcode": "32052", "lat": 30.521985059113216, "long": -82.94493128673021}, {"house_number": "201", "road": "Railroad Street Northeast", "city": "Jasper", "state": "Florida", "postcode": "32052", "lat": 30.521985059113216, "long": -82.94493128673021}, {"house_number": "650", "road": "8th Street Southwest", "city": "Jasper", "state": "Florida", "postcode": "32052", "lat": 30.512016695842824, "long": -82.95258798923031}, {"house_number": "848", "road": "Southwest 6th Street", "city": "Jasper", "state": "Florida", "postcode": "32052", "lat": 30.51326903692441, "long": -82.95465411268374}, {"house_number": "550", "road": "1st Avenue Northeast", "city": "Jasper", "state": "Florida", "postcode": "32052", "lat": 30.522212439178315, "long": -82.94606455345816}, {"house_number": "652", "road": "6th Avenue Northwest", "city": "Jasper", "state": "Florida", "postcode": "32052", "lat": 30.52329298650229, "long": -82.95249909869946}, {"house_number": "652", "road": "6th Avenue Northwest", "city": "Jasper", "state": "Florida", "postcode": "32052", "lat": 30.52329298650229, "long": -82.95249909869946}, {"house_number": "350", "road": "6th Street Northwest", "city": "Jasper", "state": "Florida", "postcode": "32052", "lat": 30.523616111891947, "long": -82.94943301038492}, {"house_number": "750", "road": "3rd Avenue Northwest", "city": "Jasper", "state": "Florida", "postcode": "32052", "lat": 30.524143510723505, "long": -82.94996010030337}, {"house_number": "251", "road": "7th Street Northwest", "city": "Jasper", "state": "Florida", "postcode": "32052", "lat": 30.52461099999999, "long": -82.94828649999998}, {"house_number": "250", "road": "4th Street Northwest", "city": "Jasper", "state": "Florida", "postcode": "32052", "lat": 30.52225269825435, "long": -82.94843849582836}, {"house_number": "611", "road": "Palmetto Avenue", "city": "Jasper", "state": "Florida", "postcode": "32052", "lat": 30.522207062006572, "long": -82.94155764735602}, {"house_number": "254", "road": "Barton Street", "city": "Jasper", "state": "Florida", "postcode": "32052", "lat": 30.52215207773503, "long": -82.94255035348496}, {"house_number": "1135", "road": "Suwannee Street", "city": "Jennings", "state": "Florida", "postcode": "32053", "lat": 30.60706339412925, "long": -83.1032172410647}, {"house_number": "705", "road": "3rd Street Northwest", "city": "Jasper", "state": "Florida", "postcode": "32052", "lat": 30.520853953295582, "long": -82.95290450030498}]