[{"house_number": "1148", "road": "Walker Avenue Southwest", "city": "Live Oak", "state": "Florida", "postcode": "32064", "lat": 30.286545, "long": -82.99618999999998}, {"house_number": "19345", "road": "CR 250", "city": "Dowling Park", "state": "Florida", "postcode": "32060", "lat": 30.246240424700424, "long": -83.14985150220043}, {"house_number": "248", "road": "Lafayette Avenue Southwest", "city": "Live Oak", "state": "Florida", "postcode": "32064", "lat": 30.299869999999995, "long": -82.997715}, {"house_number": "298", "road": "Taylor Avenue", "city": "Live Oak", "state": "Florida", "postcode": "32064", "lat": 30.299824999999988, "long": -82.99868999999998}, {"house_number": "1250", "road": "6th Street", "city": "Live Oak", "state": "Florida", "postcode": "32064", "lat": 30.299274999999984, "long": -82.99920999999998}, {"house_number": "256", "road": "Wood Avenue", "city": "Live Oak", "state": "Florida", "postcode": "32064", "lat": 30.29987499999999, "long": -82.99670499999998}, {"house_number": "1014", "road": "6th Street", "city": "Live Oak", "state": "Florida", "postcode": "32064", "lat": 30.29928999999999, "long": -82.99718999999999}, {"house_number": "1014", "road": "6th Street", "city": "Live Oak", "state": "Florida", "postcode": "32064", "lat": 30.29928999999999, "long": -82.99718999999999}, {"house_number": "350", "road": "Duval Street Northwest", "city": "Live Oak", "state": "Florida", "postcode": "32064", "lat": 30.299494999999997, "long": -82.98703499999999}, {"house_number": "303", "road": "Shelby Avenue", "city": "Live Oak", "state": "Florida", "postcode": "32064", "lat": 30.299749999999992, "long": -82.98619499999998}, {"house_number": "303", "road": "Shelby Avenue", "city": "Live Oak", "state": "Florida", "postcode": "32064", "lat": 30.299749999999992, "long": -82.98619499999998}, {"house_number": "347", "road": "Fir Street Northeast", "city": "Live Oak", "state": "Florida", "postcode": "32064", "lat": 30.299407781258967, "long": -82.97996870056897}, {"house_number": "653", "road": "Glass Street Northeast", "city": "Live Oak", "state": "Florida", "postcode": "32064", "lat": 30.299340909923973, "long": -82.97917506465195}, {"house_number": "750", "road": "Howard Street", "city": "Live Oak", "state": "Florida", "postcode": "32060", "lat": 30.29935016706226, "long": -82.99129991025843}, {"house_number": "150", "road": "Elm Street Northeast", "city": "Live Oak", "state": "Florida", "postcode": "32064", "lat": 30.299255141276802, "long": -82.98169494179866}, {"house_number": "849", "road": "8th Street", "city": "Live Oak", "state": "Florida", "postcode": "32064", "lat": 30.296507577160046, "long": -82.99503190149765}, {"house_number": "649", "road": "7th Street", "city": "Live Oak", "state": "Florida", "postcode": "32064", "lat": 30.296210295071667, "long": -82.99168487005875}, {"house_number": "749", "road": "Bryson Street Northeast", "city": "Live Oak", "state": "Florida", "postcode": "32064", "lat": 30.296119421386233, "long": -82.97647091739768}, {"house_number": "951", "road": "Bryson Street Northeast", "city": "Live Oak", "state": "Florida", "postcode": "32064", "lat": 30.295549999999984, "long": -82.97497999999999}, {"house_number": "451", "road": "Anna Avenue Northeast", "city": "Live Oak", "state": "Florida", "postcode": "32064", "lat": 30.29656511620428, "long": -82.97514383189134}, {"house_number": "526", "road": "Walker Avenue Southwest", "city": "Live Oak", "state": "Florida", "postcode": "32064", "lat": 30.295819602622103, "long": -82.99397420001615}, {"house_number": "549", "road": "7th Street", "city": "Live Oak", "state": "Florida", "postcode": "32064", "lat": 30.295734999999997, "long": -82.99058000000001}, {"house_number": "351", "road": "Mussey Avenue Northeast", "city": "Live Oak", "state": "Florida", "postcode": "32064", "lat": 30.295954999999985, "long": -82.97728499999998}, {"house_number": "347", "road": "Howard Street", "city": "Live Oak", "state": "Florida", "postcode": "32064", "lat": 30.295489999999987, "long": -82.98279}, {"house_number": "850", "road": "9th Street", "city": "Live Oak", "state": "Florida", "postcode": "32064", "lat": 30.29552546635721, "long": -82.99525186313932}, {"house_number": "568", "road": "Walker Avenue Southwest", "city": "Live Oak", "state": "Florida", "postcode": "32064", "lat": 30.295394999999996, "long": -82.994205}, {"house_number": "948", "road": "Darrow Avenue Southeast", "city": "Live Oak", "state": "Florida", "postcode": "32064", "lat": 30.288279996654172, "long": -82.98628459079683}, {"house_number": "149", "road": "Westmoreland Street Southeast", "city": "Live Oak", "state": "Florida", "postcode": "32064", "lat": 30.287814600024284, "long": -82.9870049965037}, {"house_number": "948", "road": "Bynum Avenue Southwest", "city": "Live Oak", "state": "Florida", "postcode": "32064", "lat": 30.288029995928206, "long": -82.99485458886878}, {"house_number": "449", "road": "Barclay Street Southwest", "city": "Live Oak", "state": "Florida", "postcode": "32064", "lat": 30.287613581402926, "long": -82.99263001587781}, {"house_number": "550", "road": "Barclay Street Southwest", "city": "Live Oak", "state": "Florida", "postcode": "32064", "lat": 30.287639999999993, "long": -82.994115}, {"house_number": "550", "road": "Barclay Street Southwest", "city": "Live Oak", "state": "Florida", "postcode": "32064", "lat": 30.287639999999993, "long": -82.994115}, {"house_number": "927,929", "road": "Ohio Avenue", "city": "Live Oak", "state": "Florida", "postcode": "32064", "lat": 30.2876749978368, "long": -82.9877100294694}, {"house_number": "927,929", "road": "Ohio Avenue", "city": "Live Oak", "state": "Florida", "postcode": "32064", "lat": 30.2876749978368, "long": -82.9877100294694}, {"house_number": "927,929", "road": "Ohio Avenue", "city": "Live Oak", "state": "Florida", "postcode": "32064", "lat": 30.2876749978368, "long": -82.9877100294694}, {"house_number": "1048", "road": "Darrow Avenue Southeast", "city": "Live Oak", "state": "Florida", "postcode": "32064", "lat": 30.287364999999987, "long": -82.98628}, {"house_number": "1093", "road": "White Avenue", "city": "Live Oak", "state": "Florida", "postcode": "32064", "lat": 30.287400017624904, "long": -82.9838892087268}, {"house_number": "649", "road": "Colonial Street Southeast", "city": "Live Oak", "state": "Florida", "postcode": "32064", "lat": 30.286989999999992, "long": -82.98025999999999}, {"house_number": "1049", "road": "Railroad Avenue", "city": "Live Oak", "state": "Florida", "postcode": "32064", "lat": 30.287449999901234, "long": -82.97920500888777}, {"house_number": "349", "road": "Colonial Street Southeast", "city": "Live Oak", "state": "Florida", "postcode": "32064", "lat": 30.286939999999994, "long": -82.98453500000001}, {"house_number": "249", "road": "Colonial Street Southeast", "city": "Live Oak", "state": "Florida", "postcode": "32064", "lat": 30.286919193332956, "long": -82.98572998509098}, {"house_number": "1049", "road": "Pearl Avenue Southeast", "city": "Live Oak", "state": "Florida", "postcode": "32064", "lat": 30.287405017573555, "long": -82.98290920038804}, {"house_number": "549", "road": "Colonial Street Southeast", "city": "Live Oak", "state": "Florida", "postcode": "32064", "lat": 30.28696460015602, "long": -82.98210999177539}, {"house_number": "1050", "road": "Walker Avenue Southwest", "city": "Live Oak", "state": "Florida", "postcode": "32060", "lat": 30.286939999999994, "long": -82.99618999999998}, {"house_number": "1048", "road": "Bynum Avenue Southwest", "city": "Live Oak", "state": "Florida", "postcode": "32064", "lat": 30.28721999999999, "long": -82.99486}, {"house_number": "649", "road": "Hawkins Street Southwest", "city": "Live Oak", "state": "Florida", "postcode": "32064", "lat": 30.286785, "long": -82.995525}, {"house_number": "550", "road": "Hawkins Street Southwest", "city": "Live Oak", "state": "Florida", "postcode": "32064", "lat": 30.286794999999994, "long": -82.99413499999999}, {"house_number": "1085", "road": "Barclay Street Southwest", "city": "Live Oak", "state": "Florida", "postcode": "32064", "lat": 30.286964999999995, "long": -82.99265499999998}, {"house_number": "962", "road": "Church Avenue Southwest", "city": "Live Oak", "state": "Florida", "postcode": "32064", "lat": 30.287364999999998, "long": -82.991895}, {"house_number": "962", "road": "Church Avenue Southwest", "city": "Live Oak", "state": "Florida", "postcode": "32064", "lat": 30.287364999999998, "long": -82.991895}, {"house_number": "15499", "road": "CR 250", "city": "Dowling Park", "state": "Florida", "postcode": "32060", "lat": 30.24653245640477, "long": -83.06991150774193}, {"house_number": "14451", "road": "CR 250", "city": "Dowling Park", "state": "Florida", "postcode": "32060", "lat": 30.246405245802585, "long": -83.05129400335747}, {"house_number": "250", "road": "Palm Street", "city": "Live Oak", "state": "Florida", "postcode": "32064", "lat": 30.30593828706179, "long": -82.97643224914401}, {"house_number": "251", "road": "Winderweedle Street NW", "city": "Live Oak", "state": "Florida", "postcode": "32064", "lat": 30.304929999999985, "long": -82.98164599999998}, {"house_number": "7435", "road": "CR 795", "city": "Live Oak", "state": "Florida", "postcode": "32060", "lat": 30.31345899999999, "long": -82.98359999999998}, {"house_number": "4645", "road": "Lowe Lake Road", "city": "Welborn", "state": "Florida", "postcode": "32094", "lat": 30.220939407590777, "long": -82.8416680886615}, {"house_number": "13833", "road": "CR 137", "city": "Welborn", "state": "Florida", "postcode": "32094", "lat": 30.199834999999993, "long": -82.83239499999999}, {"house_number": "14850", "road": "CR 137", "city": "Welborn", "state": "Florida", "postcode": "32094", "lat": 30.18096454251107, "long": -82.82620319069959}]