[{"house_number": "2687", "road": "South Century Boulevard", "city": "Deerfield Beach", "state": "Florida", "postcode": "33442", "lat": 26.30722685066266, "long": -80.13917795549546}, {"house_number": "3551", "road": "Washington Street", "city": "Hollywood", "state": "Florida", "postcode": "33021", "lat": 26.003121999999998, "long": -80.17755749999998}, {"house_number": "3352", "road": "Northwest 125th Lane", "city": "Sunrise", "state": "Florida", "postcode": "33323", "lat": 26.167872033706885, "long": -80.31658411419103}, {"house_number": "3350", "road": "Northwest 125th Way", "city": "Sunrise", "state": "Florida", "postcode": "33323", "lat": 26.167854573893916, "long": -80.3160182083824}, {"house_number": "12651", "road": "Northwest 33rd Place", "city": "Sunrise", "state": "Florida", "postcode": "33323", "lat": 26.167829900373675, "long": -80.31754849514918}, {"house_number": "3301", "road": "Northwest 126th Terrace", "city": "Sunrise", "state": "Florida", "postcode": "33323", "lat": 26.167615499999993, "long": -80.3171855}, {"house_number": "2750", "road": "North Pine Island Road", "city": "Sunrise", "state": "Florida", "postcode": "33322", "lat": 26.15948149999999, "long": -80.2691825}, {"house_number": "8599", "road": "Northwest 31st Court", "city": "Sunrise", "state": "Florida", "postcode": "33351", "lat": 26.165281778638388, "long": -80.26511127321595}, {"house_number": "1174", "road": "Hatteras Lane", "city": "Hollywood", "state": "Florida", "postcode": "33019", "lat": 26.00247609857463, "long": -80.12007596579099}, {"house_number": "802", "road": "Northwest 126th Avenue", "city": "Coral Springs", "state": "Florida", "postcode": "33071", "lat": 26.240030404268552, "long": -80.29492990446136}, {"house_number": "12682", "road": "Northwest 9th Court", "city": "Coral Springs", "state": "Florida", "postcode": "33071", "lat": 26.242461676863513, "long": -80.29586628522215}, {"house_number": "816", "road": "Northwest 126th Avenue", "city": "Coral Springs", "state": "Florida", "postcode": "33071", "lat": 26.2404288131611, "long": -80.29490249737988}, {"house_number": "19455", "road": "Southwest 58th Place", "city": "Pembroke Pines", "state": "Florida", "postcode": "33332", "lat": 26.046217915154276, "long": -80.40706018901143}, {"house_number": "11785", "road": "Johnson Street", "city": "Pembroke Pines", "state": "Florida", "postcode": "33026", "lat": 26.012973654514614, "long": -80.30430233242576}, {"house_number": "5082", "road": "SW 139th Terrace", "city": "Miramar", "state": "Florida", "postcode": "33027", "lat": 25.960696452483283, "long": -80.33108690568965}, {"house_number": "1809", "road": "Northwest 168th Avenue", "city": "Pembroke Pines", "state": "Florida", "postcode": "33028", "lat": 26.022141505226227, "long": -80.371056200718}, {"house_number": "5080", "road": "Southwest 152nd Terrace", "city": "Miramar", "state": "Florida", "postcode": "33027", "lat": 25.962524440686753, "long": -80.3490274136548}, {"house_number": "2700", "road": "South Park Road", "city": "Pembroke Park", "state": "Florida", "postcode": "33009", "lat": 25.986766999999986, "long": -80.17087499999998}, {"house_number": "2999", "road": "Northwest 36th Avenue", "city": "Lauderdale Lakes", "state": "Florida", "postcode": "33311", "lat": 26.16370249999999, "long": -80.19739999999999}, {"house_number": "3552", "road": "Northwest 30th Place", "city": "Lauderdale Lakes", "state": "Florida", "postcode": "33311", "lat": 26.164182978746283, "long": -80.19578051078044}, {"house_number": "1699", "road": "East Hillsboro Boulevard", "city": "Deerfield Beach", "state": "Florida", "postcode": "33441", "lat": 26.314482103003467, "long": -80.08287585439858}, {"house_number": "1706", "road": "Riverview Road", "city": "Deerfield Beach", "state": "Florida", "postcode": "33441", "lat": 26.31492257058757, "long": -80.08294803712141}, {"house_number": "7783", "road": "Hibiscus Lane", "city": "Coral Springs", "state": "Florida", "postcode": "33065", "lat": 26.273636392906752, "long": -80.22903792602989}, {"house_number": "3898", "road": "Southwest 164th Terrace", "city": "Miramar", "state": "Florida", "postcode": "33027", "lat": 25.97306304249125, "long": -80.36511279484296}, {"house_number": "831", "road": "Southwest 113th Avenue", "city": "Pembroke Pines", "state": "Florida", "postcode": "33025", "lat": 26.000489371088577, "long": -80.29658505188105}, {"house_number": "701", "road": "Northwest 99th Avenue", "city": "Pembroke Pines", "state": "Florida", "postcode": "33024", "lat": 26.014956277720756, "long": -80.27801270589191}, {"house_number": "15748", "road": "Southwest 21st Street", "city": "Miramar", "state": "Florida", "postcode": "33027", "lat": 25.989465566098712, "long": -80.35822350625348}, {"house_number": "1009", "road": "Northwest 125th Avenue", "city": "Sunrise", "state": "Florida", "postcode": "33323", "lat": 26.13210000192192, "long": -80.31569670699312}, {"house_number": "12301", "road": "Northwest 30th Street", "city": "Sunrise", "state": "Florida", "postcode": "33323", "lat": 26.163618894754855, "long": -80.31218168107229}, {"house_number": "10792", "road": "Northwest 42nd Court", "city": "Sunrise", "state": "Florida", "postcode": "33351", "lat": 26.17812135915427, "long": -80.29219309429656}, {"house_number": "12299", "road": "Northwest 30th Place", "city": "Sunrise", "state": "Florida", "postcode": "33323", "lat": 26.1643145479294, "long": -80.31213828661382}, {"house_number": "12299", "road": "Northwest 30th Place", "city": "Sunrise", "state": "Florida", "postcode": "33323", "lat": 26.1643145479294, "long": -80.31213828661382}, {"house_number": "3661", "road": "Northwest 90th Terrace", "city": "Sunrise", "state": "Florida", "postcode": "33351", "lat": 26.171126007865176, "long": -80.27068765517683}, {"house_number": "3661", "road": "Northwest 90th Terrace", "city": "Sunrise", "state": "Florida", "postcode": "33351", "lat": 26.171126007865176, "long": -80.27068765517683}, {"house_number": "10717", "road": "Northwest 43rd Court", "city": "Sunrise", "state": "Florida", "postcode": "33351", "lat": 26.178792774141165, "long": -80.29182804439121}, {"house_number": "5250", "road": "Northwest 108th Avenue", "city": "Sunrise", "state": "Florida", "postcode": "33351", "lat": 26.190184002119548, "long": -80.29254437308282}, {"house_number": "250", "road": "Northwest 17th Court", "city": "Pompano Beach", "state": "Florida", "postcode": "33060", "lat": 26.252633262649063, "long": -80.12637054135284}, {"house_number": "1104", "road": "Southwest 8th Street", "city": "Pompano Beach", "state": "Florida", "postcode": "33069", "lat": 26.218908645515214, "long": -80.13811523768504}, {"house_number": "2287", "road": "Oakland Hills Way", "city": "Coral Springs", "state": "Florida", "postcode": "33071", "lat": 26.258052240085327, "long": -80.2929882188852}, {"house_number": "598", "road": "Northwest 43rd Way", "city": "Deerfield Beach", "state": "Florida", "postcode": "33442", "lat": 26.3236819529073, "long": -80.16351159364321}, {"house_number": "777", "road": "Southeast 19th Avenue", "city": "Deerfield Beach", "state": "Florida", "postcode": "33441", "lat": 26.30907563511664, "long": -80.07855133911667}, {"house_number": "5021", "road": "Northwest 95th Drive", "city": "Coral Springs", "state": "Florida", "postcode": "33076", "lat": 26.291621931922716, "long": -80.25013662900294}, {"house_number": "3099", "road": "Northwest 43rd Avenue", "city": "Lauderdale Lakes", "state": "Florida", "postcode": "33313", "lat": 26.1646660093039, "long": -80.20588571350613}, {"house_number": "561", "road": "Southwest 18th Avenue", "city": "Fort Lauderdale", "state": "Florida", "postcode": "33312", "lat": 26.11494150579575, "long": -80.16562077660835}, {"house_number": "1125", "road": "Northeast 8th Avenue", "city": "Fort Lauderdale", "state": "Florida", "postcode": "33304", "lat": 26.139417481883143, "long": -80.13540873708328}, {"house_number": "5968", "road": "North Andrews Way", "city": "Fort Lauderdale", "state": "Florida", "postcode": "33309", "lat": 26.199135914957203, "long": -80.15003702162403}, {"house_number": "150", "road": "Northwest 3rd Avenue", "city": "Fort Lauderdale", "state": "Florida", "postcode": "33311", "lat": 26.12362159751925, "long": -80.14650875848979}, {"house_number": "6851", "road": "Northwest 27th Avenue", "city": "Fort Lauderdale", "state": "Florida", "postcode": "33309", "lat": 26.20836400129303, "long": -80.17962194763696}, {"house_number": "2398", "road": "Southwest 30th Court", "city": "Pembroke Park", "state": "Florida", "postcode": "33009", "lat": 25.990559640564676, "long": -80.16837601119364}, {"house_number": "3149", "road": "SouthWest 27th Street", "city": "Pembroke Park", "state": "Florida", "postcode": "33009", "lat": 25.986838768204496, "long": -80.17136800725936}, {"house_number": "5701", "road": "Farragut Street", "city": "Hollywood", "state": "Florida", "postcode": "33021", "lat": 26.034435343997732, "long": -80.20219701405841}, {"house_number": "3060", "road": "Bermwood Lane", "city": "Hollywood", "state": "Florida", "postcode": "33021", "lat": 26.045208949948154, "long": -80.17144898721646}, {"house_number": "2629", "road": "Coolidge Street", "city": "Hollywood", "state": "Florida", "postcode": "33020", "lat": 26.02866358069353, "long": -80.16064048641576}, {"house_number": "594", "road": "South 63rd Avenue", "city": "Hollywood", "state": "Florida", "postcode": "33023", "lat": 26.004520313051003, "long": -80.21384678510844}, {"house_number": "20298", "road": "Northwest 8th Street", "city": "Pembroke Pines", "state": "Florida", "postcode": "33029", "lat": 26.01381700910121, "long": -80.41802314115715}, {"house_number": "2050", "road": "Southwest 151st Avenue", "city": "Miramar", "state": "Florida", "postcode": "33027", "lat": 25.988749669208495, "long": -80.35137599700559}, {"house_number": "13031", "road": "Northwest 1st Street", "city": "Pembroke Pines", "state": "Florida", "postcode": "33028", "lat": 26.008331011527623, "long": -80.32381813467293}, {"house_number": "13781", "road": "Southwest 26th Street", "city": "Miramar", "state": "Florida", "postcode": "33027", "lat": 25.984646658703017, "long": -80.33016800547382}, {"house_number": "3850", "road": "Southwest 167th Terrace", "city": "Miramar", "state": "Florida", "postcode": "33027", "lat": 25.97338333436247, "long": -80.36999236507697}, {"house_number": "8533", "road": "Southwest 5th Street", "city": "Pembroke Pines", "state": "Florida", "postcode": "33025", "lat": 26.005500464917752, "long": -80.25784371385448}, {"house_number": "15949", "road": "21st Street", "city": "Pembroke Pines", "state": "Florida", "postcode": "33028", "lat": 26.02737000278583, "long": -80.36019355194601}, {"house_number": "9149", "road": "Northwest 38th Place", "city": "Sunrise", "state": "Florida", "postcode": "33351", "lat": 26.172317137959613, "long": -80.27273313360543}, {"house_number": "1248", "road": "Northwest 126th Avenue", "city": "Sunrise", "state": "Florida", "postcode": "33323", "lat": 26.138095172792944, "long": -80.31693523418261}, {"house_number": "1248", "road": "Northwest 126th Avenue", "city": "Sunrise", "state": "Florida", "postcode": "33323", "lat": 26.138095172792944, "long": -80.31693523418261}, {"house_number": "351", "road": "Northwest 2nd Street", "city": "Pompano Beach", "state": "Florida", "postcode": "33060", "lat": 26.23284669403215, "long": -80.12813521006939}, {"house_number": "751", "road": "Northeast 3rd Terrace", "city": "Pompano Beach", "state": "Florida", "postcode": "33060", "lat": 26.238384009797016, "long": -80.12012220279799}, {"house_number": "251", "road": "Southwest 1st Street", "city": "Pompano Beach", "state": "Florida", "postcode": "33060", "lat": 26.23115454904096, "long": -80.12752350018637}, {"house_number": "3830", "road": "Windmill Lake Road", "city": "Weston", "state": "Florida", "postcode": "33332", "lat": 26.071633780641896, "long": -80.39725845784744}, {"house_number": "16314", "road": "Malibu Drive", "city": "Weston", "state": "Florida", "postcode": "33326", "lat": 26.121532876513164, "long": -80.36725706904019}, {"house_number": "249", "road": "Northwest 38th Court", "city": "Deerfield Beach", "state": "Florida", "postcode": "33064", "lat": 26.277309154762456, "long": -80.12688448401677}, {"house_number": "11049", "road": "Northwest 46th Drive", "city": "Coral Springs", "state": "Florida", "postcode": "33076", "lat": 26.287602992835904, "long": -80.27304434926315}, {"house_number": "116", "road": "Kensington Road", "city": "Hollywood", "state": "Florida", "postcode": "33021", "lat": 26.035895972643722, "long": -80.1992302466006}, {"house_number": "116", "road": "Kensington Road", "city": "Hollywood", "state": "Florida", "postcode": "33021", "lat": 26.035895972643722, "long": -80.1992302466006}, {"house_number": "116", "road": "Kensington Road", "city": "Hollywood", "state": "Florida", "postcode": "33021", "lat": 26.035895972643722, "long": -80.1992302466006}, {"house_number": "116", "road": "Kensington Road", "city": "Hollywood", "state": "Florida", "postcode": "33021", "lat": 26.035895972643722, "long": -80.1992302466006}, {"house_number": "4225", "road": "Southwest 153rd Avenue", "city": "Miramar", "state": "Florida", "postcode": "33027", "lat": 25.969677909033532, "long": -80.3497195976656}, {"house_number": "10849", "road": "Northwest 17th Court", "city": "Pembroke Pines", "state": "Florida", "postcode": "33026", "lat": 26.021466783026863, "long": -80.29265050493254}, {"house_number": "10626", "road": "Southwest 20th Court", "city": "Miramar", "state": "Florida", "postcode": "33025", "lat": 25.99054211857289, "long": -80.28760345287925}, {"house_number": "10301", "road": "Oleander Court", "city": "Pembroke Pines", "state": "Florida", "postcode": "33026", "lat": 26.024531580219257, "long": -80.28198188982056}, {"house_number": "10301", "road": "Oleander Court", "city": "Pembroke Pines", "state": "Florida", "postcode": "33026", "lat": 26.024531580219257, "long": -80.28198188982056}, {"house_number": "1950", "road": "Cedarwoods Avenue", "city": "Pembroke Pines", "state": "Florida", "postcode": "33026", "lat": 26.02591459537184, "long": -80.28286978891042}, {"house_number": "346", "road": "Century Boulevard", "city": "Deerfield Beach", "state": "Florida", "postcode": "33442", "lat": 26.313122519007738, "long": -80.14231124943088}, {"house_number": "4149", "road": "North University Drive", "city": "Coral Springs", "state": "Florida", "postcode": "33067", "lat": 26.280608485432506, "long": -80.25017756851251}, {"house_number": "357", "road": "Palm Boulevard", "city": "Weston", "state": "Florida", "postcode": "33326", "lat": 26.11468805856499, "long": -80.39677071498522}, {"house_number": "357", "road": "Palm Boulevard", "city": "Weston", "state": "Florida", "postcode": "33326", "lat": 26.11468805856499, "long": -80.39677071498522}, {"house_number": "265", "road": "Alamanda Lane", "city": "Deerfield Beach", "state": "Florida", "postcode": "33442", "lat": 26.322688740296783, "long": -80.12321264646022}, {"house_number": "265", "road": "Alamanda Lane", "city": "Deerfield Beach", "state": "Florida", "postcode": "33442", "lat": 26.322688740296783, "long": -80.12321264646022}, {"house_number": "265", "road": "Alamanda Lane", "city": "Deerfield Beach", "state": "Florida", "postcode": "33442", "lat": 26.322688740296783, "long": -80.12321264646022}, {"house_number": "67", "road": "Southeast 5th Court", "city": "Deerfield Beach", "state": "Florida", "postcode": "33441", "lat": 26.310964083651914, "long": -80.10235551318573}]