[{"house_number": "2649", "road": "Northeast 154th Street", "city": "Starke", "state": "Florida", "postcode": "32091", "lat": 29.94213978439738, "long": -82.08880009415753}, {"house_number": "2649", "road": "Southeast 150th Street", "city": "Starke", "state": "Florida", "postcode": "32091", "lat": 29.937421861543022, "long": -82.08782974580024}, {"house_number": "977", "road": "Old Lawtey Road", "city": "Starke", "state": "Florida", "postcode": "32091", "lat": 29.953510014357466, "long": -82.09866367668867}, {"house_number": "5145", "road": "CR 229", "city": "Starke", "state": "Florida", "postcode": "32091", "lat": 29.955673440236936, "long": -82.12725607304633}, {"house_number": "5145", "road": "CR 229", "city": "Starke", "state": "Florida", "postcode": "32091", "lat": 29.955673440236936, "long": -82.12725607304633}, {"house_number": "14350", "road": "SE 44th Avenue", "city": "Starke", "state": "Florida", "postcode": "32091", "lat": 29.92145751862678, "long": -82.11913151260599}, {"house_number": "14350", "road": "SE 44th Avenue", "city": "Starke", "state": "Florida", "postcode": "32091", "lat": 29.92145751862678, "long": -82.11913151260599}, {"house_number": "14350", "road": "SE 44th Avenue", "city": "Starke", "state": "Florida", "postcode": "32091", "lat": 29.92145751862678, "long": -82.11913151260599}, {"house_number": "14350", "road": "SE 44th Avenue", "city": "Starke", "state": "Florida", "postcode": "32091", "lat": 29.92145751862678, "long": -82.11913151260599}, {"house_number": "551", "road": "West Washington Street", "city": "Starke", "state": "Florida", "postcode": "32091", "lat": 29.952785068730446, "long": -82.1154396190976}, {"house_number": "4449", "road": "Southeast 146th Terrace", "city": "Starke", "state": "Florida", "postcode": "32091", "lat": 29.928732564823733, "long": -82.11966145757101}, {"house_number": "10801", "road": "CR 229", "city": "Starke", "state": "Florida", "postcode": "32091", "lat": 30.014455501854833, "long": -82.19372655249437}, {"house_number": "1502", "road": "East Market Road", "city": "Starke", "state": "Florida", "postcode": "32091", "lat": 29.963720734555537, "long": -82.0934700485156}, {"house_number": "1502", "road": "East Market Road", "city": "Starke", "state": "Florida", "postcode": "32091", "lat": 29.963720734555537, "long": -82.0934700485156}, {"house_number": "1502", "road": "East Market Road", "city": "Starke", "state": "Florida", "postcode": "32091", "lat": 29.963720734555537, "long": -82.0934700485156}, {"house_number": "1349", "road": "Northeast 173 Street", "city": "Starke", "state": "Florida", "postcode": "32091", "lat": 29.967965889873497, "long": -82.06946750009423}, {"house_number": "1349", "road": "Northeast 173 Street", "city": "Starke", "state": "Florida", "postcode": "32091", "lat": 29.967965889873497, "long": -82.06946750009423}, {"house_number": "2051", "road": "Northeast 173 Street", "city": "Starke", "state": "Florida", "postcode": "32091", "lat": 29.967894800077953, "long": -82.07861512763105}, {"house_number": "2051", "road": "Northeast 173 Street", "city": "Starke", "state": "Florida", "postcode": "32091", "lat": 29.967894800077953, "long": -82.07861512763105}, {"house_number": "2403", "road": "Northeast 173 Street", "city": "Starke", "state": "Florida", "postcode": "32091", "lat": 29.967862027152464, "long": -82.0867769492994}, {"house_number": "2403", "road": "Northeast 173 Street", "city": "Starke", "state": "Florida", "postcode": "32091", "lat": 29.967862027152464, "long": -82.0867769492994}, {"house_number": "11553", "road": "CR 229", "city": "Starke", "state": "Florida", "postcode": "32091", "lat": 30.018689111614947, "long": -82.20240051346262}, {"house_number": "5288", "road": "CR 229", "city": "Starke", "state": "Florida", "postcode": "32091", "lat": 29.958115758104128, "long": -82.12945149996567}, {"house_number": "1061", "road": "West Pratt Street", "city": "Starke", "state": "Florida", "postcode": "32091", "lat": 29.947154702029263, "long": -82.12221999447806}, {"house_number": "122", "road": "Christian Street", "city": "Starke", "state": "Florida", "postcode": "32091", "lat": 29.946227511538904, "long": -82.11394659007735}, {"house_number": "249", "road": "Christian Street", "city": "Starke", "state": "Florida", "postcode": "32091", "lat": 29.946379993095874, "long": -82.11392491724197}, {"house_number": "207", "road": "North Broadway Street", "city": "Starke", "state": "Florida", "postcode": "32091", "lat": 29.94594092247188, "long": -82.11321182241679}, {"house_number": "263", "road": "North Broadway Street", "city": "Starke", "state": "Florida", "postcode": "32091", "lat": 29.946295060589577, "long": -82.11316143526973}, {"house_number": "1307", "road": "Madison Street", "city": "Starke", "state": "Florida", "postcode": "32091", "lat": 29.944664999999986, "long": -82.12519516554471}, {"house_number": "1307", "road": "Madison Street", "city": "Starke", "state": "Florida", "postcode": "32091", "lat": 29.944664999999986, "long": -82.12519516554471}, {"house_number": "1489", "road": "Geiger Road", "city": "Starke", "state": "Florida", "postcode": "32091", "lat": 29.931192846959586, "long": -82.09413002505853}, {"house_number": "1489", "road": "Geiger Road", "city": "Starke", "state": "Florida", "postcode": "32091", "lat": 29.931192846959586, "long": -82.09413002505853}]