[{"house_number": "2507", "road": "Chateau Drive", "city": "Lutz", "state": "Florida", "postcode": "33559", "lat": 28.159832947347827, "long": -82.42886069898996}, {"house_number": "19006", "road": "Sunlake Boulevard", "city": "Cheval", "state": "Florida", "postcode": "33549", "lat": 28.155952572356714, "long": -82.49332515560064}, {"house_number": "19014", "road": "Sunlake Boulevard", "city": "Cheval", "state": "Florida", "postcode": "33549", "lat": 28.15686749999999, "long": -82.4937255}, {"house_number": "826", "road": "Milano Circle", "city": "Brandon", "state": "Florida", "postcode": "33511", "lat": 27.9030341724215, "long": -82.29482876520562}, {"house_number": "1436", "road": "Hurley Pond Lane", "city": "Brandon", "state": "Florida", "postcode": "33594", "lat": 27.896823999999995, "long": -82.257851}, {"house_number": "5407", "road": "Providence Road", "city": "Brandon", "state": "Florida", "postcode": "33578", "lat": 27.89989449999999, "long": -82.31853949999999}, {"house_number": "1419", "road": "Hurley Pond Lane", "city": "Brandon", "state": "Florida", "postcode": "33594", "lat": 27.896104225618107, "long": -82.25873705515774}, {"house_number": "2651", "road": "West Morrison Avenue", "city": "Tampa", "state": "Florida", "postcode": "33629", "lat": 27.933791999999993, "long": -82.48836649999998}, {"house_number": "2617", "road": "West Morrison Avenue", "city": "Tampa", "state": "Florida", "postcode": "33629", "lat": 27.933793499999993, "long": -82.48915199999999}, {"house_number": "2551", "road": "West Morrison Avenue", "city": "Tampa", "state": "Florida", "postcode": "33629", "lat": 27.93378899999999, "long": -82.48667499999999}, {"house_number": "2350", "road": "Bottega Lane", "city": "Brandon", "state": "Florida", "postcode": "33511", "lat": 27.91169021252082, "long": -82.32435061994146}, {"house_number": "15650", "road": "Willowdale Road", "city": "Citrus Park", "state": "Florida", "postcode": "33625", "lat": 28.093039499896403, "long": -82.55057950762321}, {"house_number": "999", "road": "East Palm Avenue", "city": "Tampa", "state": "Florida", "postcode": "33602", "lat": 27.962305372305924, "long": -82.45080199476868}, {"house_number": "1399", "road": "Culbreath Isles Drive", "city": "Tampa", "state": "Florida", "postcode": "33629", "lat": 27.930606506872344, "long": -82.52499956939693}, {"house_number": "4369", "road": "North Hale Avenue", "city": "Tampa", "state": "Florida", "postcode": "33614", "lat": 27.981042727306722, "long": -82.51005230201993}, {"house_number": "14903", "road": "Barby Avenue", "city": "Citrus Park", "state": "Florida", "postcode": "33625", "lat": 28.08605200068749, "long": -82.56694573787671}, {"house_number": "11357", "road": "Grandville Drive", "city": "Temple Terrace", "state": "Florida", "postcode": "33617", "lat": 28.051361020007064, "long": -82.39076053426365}, {"house_number": "2845", "road": "Statelite Court", "city": "Tampa", "state": "Florida", "postcode": "33607", "lat": 27.965504014069523, "long": -82.47575516097349}, {"house_number": "18704", "road": "Hamilton Street", "city": "Lutz", "state": "Florida", "postcode": "33549", "lat": 28.14743749936704, "long": -82.45175316035485}, {"house_number": "11809", "road": "Lynmoor Drive", "city": "Riverview", "state": "Florida", "postcode": "33569", "lat": 27.804610850080664, "long": -82.30905661572527}, {"house_number": "12706", "road": "Bramfield Drive", "city": "Riverview", "state": "Florida", "postcode": "33579", "lat": 27.807273923945104, "long": -82.32425859236567}, {"house_number": "11557", "road": "Captiva Kay Drive", "city": "Riverview", "state": "Florida", "postcode": "33569", "lat": 27.832893728280418, "long": -82.32470626215535}, {"house_number": "17926", "road": "Quail Lane", "city": "Lutz", "state": "Florida", "postcode": "33548", "lat": 28.136278048685956, "long": -82.47772715825141}, {"house_number": "6447", "road": "Royal Hunt Drive", "city": "Citrus Park", "state": "Florida", "postcode": "33625", "lat": 28.060590213494592, "long": -82.550467141043}, {"house_number": "10130", "road": "Tarragon Drive", "city": "Riverview", "state": "Florida", "postcode": "33569", "lat": 27.85083549698151, "long": -82.28863601356336}, {"house_number": "950", "road": "East 14th Avenue", "city": "Tampa", "state": "Florida", "postcode": "33605", "lat": 27.965372029147563, "long": -82.45014253679933}, {"house_number": "5112", "road": "Par Court", "city": "Tampa", "state": "Florida", "postcode": "33619", "lat": 27.96139455918299, "long": -82.39858701572342}, {"house_number": "430", "road": "Maple Pointe Drive", "city": "Seffner", "state": "Florida", "postcode": "33584", "lat": 28.00365043225197, "long": -82.28414589329768}, {"house_number": "9251", "road": "Hamilton Hill Lane", "city": "Temple Terrace", "state": "Florida", "postcode": "33637", "lat": 28.03467162723517, "long": -82.36275813816057}, {"house_number": "7499", "road": "Temple Terrace Highway", "city": "Temple Terrace", "state": "Florida", "postcode": "33637", "lat": 28.03270958474481, "long": -82.37178149972026}, {"house_number": "2848", "road": "Bayshore Trails Drive", "city": "Tampa", "state": "Florida", "postcode": "33611", "lat": 27.86547951252671, "long": -82.49150772155963}, {"house_number": "851", "road": "East Robles Street", "city": "Tampa", "state": "Florida", "postcode": "33602", "lat": 27.96949694730334, "long": -82.45165287496762}, {"house_number": "568", "road": "Channelside Drive", "city": "Tampa", "state": "Florida", "postcode": "33602", "lat": 27.94353038878253, "long": -82.44936799938878}, {"house_number": "15911", "road": "Bridgewater Lane", "city": "Citrus Park", "state": "Florida", "postcode": "33624", "lat": 28.100048767960427, "long": -82.5414039027944}, {"house_number": "16116", "road": "Marshfield Drive", "city": "Citrus Park", "state": "Florida", "postcode": "33624", "lat": 28.103185263541054, "long": -82.53664858631723}, {"house_number": "4053", "road": "Lazy Lane", "city": "Egypt Lake-Leto", "state": "Florida", "postcode": "33614", "lat": 28.03702430186433, "long": -82.50929508457102}, {"house_number": "11257", "road": "McMullen Loop", "city": "Riverview", "state": "Florida", "postcode": "33569", "lat": 27.864392442725247, "long": -82.31515401872208}, {"house_number": "10351", "road": "Race Track Road", "city": "Oldsmar", "state": "Florida", "postcode": "33626", "lat": 28.045052999999996, "long": -82.64853999999998}, {"house_number": "9552", "road": "Tocobaga Place", "city": "Riverview", "state": "Florida", "postcode": "33578", "lat": 27.859460808584235, "long": -82.33144449780241}, {"house_number": "6903", "road": "Holly Heath Drive", "city": "Riverview", "state": "Florida", "postcode": "33578", "lat": 27.873489298316144, "long": -82.3590486868319}, {"house_number": "6624", "road": "Holly Heath Drive", "city": "Riverview", "state": "Florida", "postcode": "33578", "lat": 27.875041758276723, "long": -82.35571712819996}, {"house_number": "9620", "road": "Tocobaga Place", "city": "Riverview", "state": "Florida", "postcode": "33578", "lat": 27.85882183542378, "long": -82.3309440598787}, {"house_number": "9672", "road": "Tocobaga Place", "city": "Riverview", "state": "Florida", "postcode": "33578", "lat": 27.859912999999988, "long": -82.33087999999998}, {"house_number": "10422", "road": "Rivercrest Drive", "city": "Riverview", "state": "Florida", "postcode": "33578", "lat": 27.859745185866668, "long": -82.33038596342739}, {"house_number": "6999", "road": "Breezy Palm Drive", "city": "Riverview", "state": "Florida", "postcode": "33578", "lat": 27.881184666388858, "long": -82.35530552621783}, {"house_number": "9136", "road": "Moonlit Meadows Loop", "city": "Riverview", "state": "Florida", "postcode": "33578", "lat": 27.881560137027495, "long": -82.35237716215373}, {"house_number": "9153", "road": "Magnolia Park Boulevard", "city": "Riverview", "state": "Florida", "postcode": "33578", "lat": 27.8955672479693, "long": -82.35326352656665}, {"house_number": "9203, 9205, 9207, 9209, 9211, 9213", "road": "Stone River Place", "city": "Riverview", "state": "Florida", "postcode": "33568", "lat": 27.863170499999995, "long": -82.32973849999999}, {"house_number": "10508", "road": "Gibsonton Drive", "city": "Riverview", "state": "Florida", "postcode": "33569", "lat": 27.85716067082775, "long": -82.33032749707}, {"house_number": "10508", "road": "Gibsonton Drive", "city": "Riverview", "state": "Florida", "postcode": "33569", "lat": 27.85716067082775, "long": -82.33032749707}, {"house_number": "8558", "road": "Eagle Palm Drive", "city": "Riverview", "state": "Florida", "postcode": "33569", "lat": 27.883711705384314, "long": -82.35467602686307}, {"house_number": "10632", "road": "East Bay Road", "city": "Riverview", "state": "Florida", "postcode": "33578", "lat": 27.84771953413655, "long": -82.34992053770303}, {"house_number": "6833", "road": "Altier Estates Court", "city": "East Lake-Orient Park", "state": "Florida", "postcode": "33637", "lat": 28.009430989634186, "long": -82.36988661065877}, {"house_number": "6833", "road": "Altier Estates Court", "city": "East Lake-Orient Park", "state": "Florida", "postcode": "33637", "lat": 28.009430989634186, "long": -82.36988661065877}, {"house_number": "9325", "road": "Governors Run Drive", "city": "Seffner", "state": "Florida", "postcode": "33592", "lat": 28.026538871818804, "long": -82.32952414193674}, {"house_number": "8440", "road": "Alberata Vista Drive", "city": "Tampa", "state": "Florida", "postcode": "33645", "lat": 28.15738438626039, "long": -82.37072331708764}, {"house_number": "8532", "road": "Grand Alberato Road", "city": "Tampa", "state": "Florida", "postcode": "33645", "lat": 28.157848153264755, "long": -82.36736338503958}, {"house_number": "8559", "road": "Grand Alberato Road", "city": "Tampa", "state": "Florida", "postcode": "33645", "lat": 28.157203874542535, "long": -82.36413593695688}, {"house_number": "20125", "road": "Sorano Hill Place", "city": "Tampa", "state": "Florida", "postcode": "33645", "lat": 28.16068587557233, "long": -82.36360045170471}, {"house_number": "4049", "road": "Elrod Avenue", "city": "Tampa", "state": "Florida", "postcode": "33616", "lat": 27.874213051378916, "long": -82.51170956127746}, {"house_number": "2120", "road": "Kayvee Avenue", "city": "Tampa", "state": "Florida", "postcode": "33621", "lat": 27.84636148985926, "long": -82.4776640271192}, {"house_number": "2120", "road": "Kayvee Avenue", "city": "Tampa", "state": "Florida", "postcode": "33621", "lat": 27.84636148985926, "long": -82.4776640271192}]