[{"house_number": "173", "road": "Park Street", "city": "Mayo", "state": "Florida", "postcode": "32066", "lat": 30.052329999999994, "long": -83.17647}, {"house_number": "177", "road": "Park Street", "city": "Mayo", "state": "Florida", "postcode": "32066", "lat": 30.052352133480664, "long": -83.17411495748031}, {"house_number": "142", "road": "Southwest Alachua Avenue", "city": "Mayo", "state": "Florida", "postcode": "32066", "lat": 30.051979352589452, "long": -83.17970609061287}, {"house_number": "350", "road": "Laura Street", "city": "Mayo", "state": "Florida", "postcode": "32066", "lat": 30.051589999999997, "long": -83.17929499999998}, {"house_number": "350", "road": "Laura Street", "city": "Mayo", "state": "Florida", "postcode": "32066", "lat": 30.051589999999997, "long": -83.17929499999998}, {"house_number": "350", "road": "Laura Street", "city": "Mayo", "state": "Florida", "postcode": "32066", "lat": 30.051589999999997, "long": -83.17929499999998}, {"house_number": "246", "road": "Laura Street", "city": "Mayo", "state": "Florida", "postcode": "32066", "lat": 30.051598419013562, "long": -83.1782800472195}, {"house_number": "246", "road": "Laura Street", "city": "Mayo", "state": "Florida", "postcode": "32066", "lat": 30.051598419013562, "long": -83.1782800472195}, {"house_number": "153", "road": "Monroe Street", "city": "Mayo", "state": "Florida", "postcode": "32066", "lat": 30.052690028593645, "long": -83.17608279208659}, {"house_number": "456", "road": "Lafayette Street", "city": "Mayo", "state": "Florida", "postcode": "32066", "lat": 30.05819828673699, "long": -83.18032205580573}, {"house_number": "456", "road": "Lafayette Street", "city": "Mayo", "state": "Florida", "postcode": "32066", "lat": 30.05819828673699, "long": -83.18032205580573}, {"house_number": "220", "road": "Main Street", "city": "Mayo", "state": "Florida", "postcode": "32066", "lat": 30.05392960983455, "long": -83.18097894496124}, {"house_number": "298", "road": "Boxham Street", "city": "Mayo", "state": "Florida", "postcode": "32066", "lat": 30.052156984027203, "long": -83.1835779972372}, {"house_number": "298", "road": "Boxham Street", "city": "Mayo", "state": "Florida", "postcode": "32066", "lat": 30.052156984027203, "long": -83.1835779972372}, {"house_number": "298", "road": "Boxham Street", "city": "Mayo", "state": "Florida", "postcode": "32066", "lat": 30.052156984027203, "long": -83.1835779972372}, {"house_number": "268", "road": "Southwest Martin Luther King Boulevard", "city": "Mayo", "state": "Florida", "postcode": "32066", "lat": 30.046365107447286, "long": -83.17871996473214}, {"house_number": "268", "road": "Southwest Martin Luther King Boulevard", "city": "Mayo", "state": "Florida", "postcode": "32066", "lat": 30.046365107447286, "long": -83.17871996473214}, {"house_number": "499", "road": "Southeast Circle Drive", "city": "Mayo", "state": "Florida", "postcode": "32066", "lat": 30.048123379338723, "long": -83.16809216506245}, {"house_number": "360", "road": "Southeast Circle Drive", "city": "Mayo", "state": "Florida", "postcode": "32066", "lat": 30.047121004850506, "long": -83.16930048648828}, {"house_number": "749", "road": "Pine Street", "city": "Mayo", "state": "Florida", "postcode": "32066", "lat": 30.049411952643666, "long": -83.17187002049901}, {"house_number": "749", "road": "Pine Street", "city": "Mayo", "state": "Florida", "postcode": "32066", "lat": 30.049411952643666, "long": -83.17187002049901}, {"house_number": "211", "road": "Southeast Welsh Road", "city": "Mayo", "state": "Florida", "postcode": "32066", "lat": 30.048829598028526, "long": -83.16971693066124}, {"house_number": "148", "road": "Monroe Street", "city": "Mayo", "state": "Florida", "postcode": "32066", "lat": 30.051975000000002, "long": -83.17607}, {"house_number": "148", "road": "Monroe Street", "city": "Mayo", "state": "Florida", "postcode": "32066", "lat": 30.051975000000002, "long": -83.17607}, {"house_number": "142", "road": "Laura Street", "city": "Mayo", "state": "Florida", "postcode": "32066", "lat": 30.051614195803637, "long": -83.17646499009284}, {"house_number": "142", "road": "Laura Street", "city": "Mayo", "state": "Florida", "postcode": "32066", "lat": 30.051614195803637, "long": -83.17646499009284}, {"house_number": "149", "road": "South Fletcher Avenue", "city": "Mayo", "state": "Florida", "postcode": "32066", "lat": 30.051974999999995, "long": -83.17528999999999}, {"house_number": "122", "road": "Laura Street", "city": "Mayo", "state": "Florida", "postcode": "32066", "lat": 30.051622228397687, "long": -83.17489495986733}]