[{"house_number": "1420", "road": "West Royal Drive", "city": "Avon Park", "state": "Florida", "postcode": "33825", "lat": 27.612880488086386, "long": -81.5133658996654}, {"house_number": "18", "road": "West Palmetto Street", "city": "Avon Park", "state": "Florida", "postcode": "33825", "lat": 27.606512868530984, "long": -81.50324651361402}, {"house_number": "18", "road": "West Palmetto Street", "city": "Avon Park", "state": "Florida", "postcode": "33825", "lat": 27.606512868530984, "long": -81.50324651361402}, {"house_number": "1523", "road": "Rutledge Avenue", "city": "Lake Placid", "state": "Florida", "postcode": "33852", "lat": 27.33581963510588, "long": -81.32047792590969}, {"house_number": "1513", "road": "Prentice Street", "city": "Lake Placid", "state": "Florida", "postcode": "33852", "lat": 27.329456711523747, "long": -81.3201599968455}, {"house_number": "512", "road": "Lake Saddlebags Drive", "city": "Lake Placid", "state": "Florida", "postcode": "33852", "lat": 27.29280049999999, "long": -81.35540449999999}, {"house_number": "407", "road": "Hillside Drive", "city": "Lake Placid", "state": "Florida", "postcode": "33852", "lat": 27.300055499999996, "long": -81.35591649999999}, {"house_number": "425", "road": "Hillside Drive", "city": "Lake Placid", "state": "Florida", "postcode": "33852", "lat": 27.30118149999999, "long": -81.35594699999999}, {"house_number": "4330", "road": "Skipper Road", "city": "Sebring", "state": "Florida", "postcode": "33875", "lat": 27.412802499999994, "long": -81.423182}, {"house_number": "4348", "road": "Skipper Road", "city": "Sebring", "state": "Florida", "postcode": "33875", "lat": 27.412831828213868, "long": -81.42148404313568}, {"house_number": "4532", "road": "US 27;US 98", "city": "Sebring", "state": "Florida", "postcode": "33870", "lat": 27.457423499999994, "long": -81.42587449999999}, {"house_number": "4532", "road": "US 27;US 98", "city": "Sebring", "state": "Florida", "postcode": "33870", "lat": 27.457423499999994, "long": -81.42587449999999}, {"house_number": "4441", "road": "US 27;US 98", "city": "Sebring", "state": "Florida", "postcode": "33870", "lat": 27.458421999999988, "long": -81.42710949999999}, {"house_number": "4441", "road": "US 27;US 98", "city": "Sebring", "state": "Florida", "postcode": "33870", "lat": 27.458421999999988, "long": -81.42710949999999}, {"house_number": "107", "road": "Caladium Row", "city": "Sebring", "state": "Florida", "postcode": "33870", "lat": 27.459409083845404, "long": -81.42967291214396}, {"house_number": "162", "road": "Caladium Row", "city": "Sebring", "state": "Florida", "postcode": "33870", "lat": 27.458287499999997, "long": -81.42968099999999}, {"house_number": "1730", "road": "US 27;US 98", "city": "Avon Park", "state": "Florida", "postcode": "33825", "lat": 27.618951999999997, "long": -81.51443849999998}, {"house_number": "1730", "road": "US 27;US 98", "city": "Avon Park", "state": "Florida", "postcode": "33825", "lat": 27.618951999999997, "long": -81.51443849999998}, {"house_number": "1661", "road": "Lake Lotela Drive", "city": "Avon Park", "state": "Florida", "postcode": "33825", "lat": 27.57638089586377, "long": -81.470671608931}, {"house_number": "1673", "road": "Lake Lotela Drive", "city": "Avon Park", "state": "Florida", "postcode": "33825", "lat": 27.577000823468115, "long": -81.4706612902707}, {"house_number": "830", "road": "South Main Avenue", "city": "Lake Placid", "state": "Florida", "postcode": "33852", "lat": 27.288543999999995, "long": -81.36116249999998}, {"house_number": "3118", "road": "Golfview Road", "city": "Sebring", "state": "Florida", "postcode": "33875", "lat": 27.469597237160166, "long": -81.46945650309299}, {"house_number": "2551", "road": "Bayview Street", "city": "Sebring", "state": "Florida", "postcode": "33870", "lat": 27.508194999999994, "long": -81.491524}, {"house_number": "822", "road": "South Main Avenue", "city": "Lake Placid", "state": "Florida", "postcode": "33852", "lat": 27.28875049999999, "long": -81.36147799999999}, {"house_number": "822", "road": "South Main Avenue", "city": "Lake Placid", "state": "Florida", "postcode": "33852", "lat": 27.28875049999999, "long": -81.36147799999999}, {"house_number": "822", "road": "South Main Avenue", "city": "Lake Placid", "state": "Florida", "postcode": "33852", "lat": 27.28875049999999, "long": -81.36147799999999}, {"house_number": "822", "road": "South Main Avenue", "city": "Lake Placid", "state": "Florida", "postcode": "33852", "lat": 27.28875049999999, "long": -81.36147799999999}, {"house_number": "822", "road": "South Main Avenue", "city": "Lake Placid", "state": "Florida", "postcode": "33852", "lat": 27.28875049999999, "long": -81.36147799999999}, {"house_number": "822", "road": "South Main Avenue", "city": "Lake Placid", "state": "Florida", "postcode": "33852", "lat": 27.28875049999999, "long": -81.36147799999999}, {"house_number": "712", "road": "West Interlake Boulevard", "city": "Lake Placid", "state": "Florida", "postcode": "33852", "lat": 27.297192499999987, "long": -81.38153849999999}, {"house_number": "712", "road": "West Interlake Boulevard", "city": "Lake Placid", "state": "Florida", "postcode": "33852", "lat": 27.297192499999987, "long": -81.38153849999999}, {"house_number": "9354", "road": "US 27", "city": "Sebring", "state": "Florida", "postcode": "33876", "lat": 27.423851, "long": -81.417503}, {"house_number": "3293", "road": "US Highway 27 North", "city": "Sebring", "state": "Florida", "postcode": "33870", "lat": 27.512168499999994, "long": -81.49420299999998}, {"house_number": "3293", "road": "US Highway 27 North", "city": "Sebring", "state": "Florida", "postcode": "33870", "lat": 27.512168499999994, "long": -81.49420299999998}, {"house_number": "1421", "road": "Vicki Drive", "city": "Sebring", "state": "Florida", "postcode": "33870", "lat": 27.49023172199636, "long": -81.47991848323777}, {"house_number": "1100", "road": "North Verona Avenue", "city": "Avon Park", "state": "Florida", "postcode": "33825", "lat": 27.607840499812344, "long": -81.50006285400697}, {"house_number": "6", "road": "Horizon View", "city": "Sebring", "state": "Florida", "postcode": "33870", "lat": 27.475369487432772, "long": -81.47471803821232}, {"house_number": "6", "road": "Horizon View", "city": "Sebring", "state": "Florida", "postcode": "33870", "lat": 27.475369487432772, "long": -81.47471803821232}, {"house_number": "6", "road": "Horizon View", "city": "Sebring", "state": "Florida", "postcode": "33870", "lat": 27.475369487432772, "long": -81.47471803821232}, {"house_number": "6", "road": "Horizon View", "city": "Sebring", "state": "Florida", "postcode": "33870", "lat": 27.475369487432772, "long": -81.47471803821232}, {"house_number": "3703", "road": "Westminster Road", "city": "Sebring", "state": "Florida", "postcode": "33875", "lat": 27.465696172380817, "long": -81.47715007165782}, {"house_number": "3325", "road": "Golfview Road", "city": "Sebring", "state": "Florida", "postcode": "33875", "lat": 27.46353134433259, "long": -81.47404004157507}, {"house_number": "3238", "road": "Arbuckle Creek Road", "city": "Sebring", "state": "Florida", "postcode": "33870", "lat": 27.519817499999995, "long": -81.45372549999999}, {"house_number": "1309", "road": "Arbuckle Creek Road", "city": "Sebring", "state": "Florida", "postcode": "33870", "lat": 27.52033444678629, "long": -81.45321663330505}, {"house_number": "2639", "road": "Virginia Street", "city": "Sebring", "state": "Florida", "postcode": "33870", "lat": 27.520764999999997, "long": -81.49842199999998}, {"house_number": "1128", "road": "CR 17", "city": "Lake Placid", "state": "Florida", "postcode": "33852", "lat": 27.310161499999992, "long": -81.36540449999998}, {"house_number": "1124", "road": "CR 17", "city": "Lake Placid", "state": "Florida", "postcode": "33852", "lat": 27.310226271161056, "long": -81.36567119526747}, {"house_number": "1202", "road": "CR 17", "city": "Lake Placid", "state": "Florida", "postcode": "33852", "lat": 27.310788545497644, "long": -81.36523655502839}, {"house_number": "1201", "road": "CR 17", "city": "Lake Placid", "state": "Florida", "postcode": "33852", "lat": 27.31125258642883, "long": -81.36484910364184}, {"house_number": "525", "road": "Lake Blue Drive", "city": "Lake Placid", "state": "Florida", "postcode": "33852", "lat": 27.312395999999993, "long": -81.35726399999999}, {"house_number": "1340", "road": "CR 17", "city": "Lake Placid", "state": "Florida", "postcode": "33852", "lat": 27.314477289651503, "long": -81.36150091179475}, {"house_number": "1340", "road": "CR 17", "city": "Lake Placid", "state": "Florida", "postcode": "33852", "lat": 27.314477289651503, "long": -81.36150091179475}, {"house_number": "1400", "road": "CR 17", "city": "Lake Placid", "state": "Florida", "postcode": "33852", "lat": 27.315074136209706, "long": -81.36129180374012}, {"house_number": "520", "road": "Lake Blue Drive", "city": "Lake Placid", "state": "Florida", "postcode": "33852", "lat": 27.31242131827758, "long": -81.35756259138792}, {"house_number": "516", "road": "Lake Blue Drive", "city": "Lake Placid", "state": "Florida", "postcode": "33852", "lat": 27.312505499999993, "long": -81.357801}, {"house_number": "411", "road": "Kent Avenue", "city": "Lake Placid", "state": "Florida", "postcode": "33852", "lat": 27.30032499999999, "long": -81.35508349999999}, {"house_number": "617", "road": "South Lakeview Road", "city": "Lake Placid", "state": "Florida", "postcode": "33852", "lat": 27.31090599999999, "long": -81.35600149999999}, {"house_number": "419", "road": "Hillside Drive", "city": "Lake Placid", "state": "Florida", "postcode": "33852", "lat": 27.300712499999992, "long": -81.35593399999999}, {"house_number": "415", "road": "Kent Avenue", "city": "Lake Placid", "state": "Florida", "postcode": "33852", "lat": 27.300876747087223, "long": -81.35509747699457}, {"house_number": "425", "road": "Hillside Drive", "city": "Lake Placid", "state": "Florida", "postcode": "33852", "lat": 27.30091849674112, "long": -81.35593963035605}, {"house_number": "507", "road": "Reba Drive", "city": "Lake Placid", "state": "Florida", "postcode": "33852", "lat": 27.293290999999993, "long": -81.35635349999998}, {"house_number": "512", "road": "Reba Drive", "city": "Lake Placid", "state": "Florida", "postcode": "33852", "lat": 27.292912499999993, "long": -81.356337}, {"house_number": "514", "road": "Reba Drive", "city": "Lake Placid", "state": "Florida", "postcode": "33852", "lat": 27.292697999999994, "long": -81.35632799999999}, {"house_number": "3305", "road": "Thunderbird Road", "city": "Sebring", "state": "Florida", "postcode": "33872", "lat": 27.50004799999999, "long": -81.49792699999999}, {"house_number": "3305", "road": "Thunderbird Road", "city": "Sebring", "state": "Florida", "postcode": "33872", "lat": 27.50004799999999, "long": -81.49856299999999}, {"house_number": "514", "road": "Plaza Avenue", "city": "Lake Placid", "state": "Florida", "postcode": "33852", "lat": 27.30196399999999, "long": -81.35684499999999}, {"house_number": "603", "road": "Summit Street", "city": "Lake Placid", "state": "Florida", "postcode": "33852", "lat": 27.301326499999995, "long": -81.35660899999999}, {"house_number": "501", "road": "Summit Street", "city": "Lake Placid", "state": "Florida", "postcode": "33852", "lat": 27.301336, "long": -81.3561655}, {"house_number": "401", "road": "Tower Street", "city": "Lake Placid", "state": "Florida", "postcode": "33852", "lat": 27.299913499999988, "long": -81.35658699999999}, {"house_number": "401", "road": "Tower Street", "city": "Lake Placid", "state": "Florida", "postcode": "33852", "lat": 27.299910999999994, "long": -81.356134}, {"house_number": "265", "road": "McCoy Road", "city": "Sebring", "state": "Florida", "postcode": "33875", "lat": 27.363062619864344, "long": -81.47812845983309}, {"house_number": "80", "road": "Walker Lane", "city": "Lake Placid", "state": "Florida", "postcode": "33852", "lat": 27.36308411887533, "long": -81.47303902420516}, {"house_number": "3740", "road": "Sparta Road", "city": "Sebring", "state": "Florida", "postcode": "33870", "lat": 27.464002499999996, "long": -81.45003999999999}, {"house_number": "3736", "road": "Sparta Road", "city": "Sebring", "state": "Florida", "postcode": "33870", "lat": 27.464790999999995, "long": -81.45002599999998}, {"house_number": "3708", "road": "Sparta Road", "city": "Sebring", "state": "Florida", "postcode": "33870", "lat": 27.465273482701967, "long": -81.44952466536105}, {"house_number": "3708", "road": "Sparta Road", "city": "Sebring", "state": "Florida", "postcode": "33870", "lat": 27.465273482701967, "long": -81.44952466536105}, {"house_number": "3321", "road": "Desoto City Road", "city": "Sebring", "state": "Florida", "postcode": "33870", "lat": 27.4690115, "long": -81.41727299999998}, {"house_number": "3307", "road": "Desoto City Road", "city": "Sebring", "state": "Florida", "postcode": "33870", "lat": 27.469420999999993, "long": -81.41727449999999}, {"house_number": "3507", "road": "Desoto City Road", "city": "Sebring", "state": "Florida", "postcode": "33870", "lat": 27.467840999999993, "long": -81.41727899999998}, {"house_number": "5640", "road": "Mike Kahn Road", "city": "Sebring", "state": "Florida", "postcode": "33876", "lat": 27.464023499999996, "long": -81.40833849999999}, {"house_number": "5640", "road": "Mike Kahn Road", "city": "Sebring", "state": "Florida", "postcode": "33876", "lat": 27.464023499999996, "long": -81.40833849999999}, {"house_number": "10710", "road": "Payne Road", "city": "Sebring", "state": "Florida", "postcode": "33875", "lat": 27.382400045338002, "long": -81.48218185652378}, {"house_number": "1166", "road": "Henscratch Road", "city": "Lake Placid", "state": "Florida", "postcode": "33852", "lat": 27.378431999999993, "long": -81.46578599999998}, {"house_number": "728", "road": "Juneberry Street", "city": "Avon Park", "state": "Florida", "postcode": "33825", "lat": 27.605324499999995, "long": -81.5067565}, {"house_number": "716", "road": "Juneberry Street", "city": "Avon Park", "state": "Florida", "postcode": "33825", "lat": 27.604635184397733, "long": -81.5068040942031}, {"house_number": "353", "road": "Raisin Court", "city": "Avon Park", "state": "Florida", "postcode": "33825", "lat": 27.604992999999993, "long": -81.50697449999998}, {"house_number": "2141", "road": "Scenic Highway", "city": "Sebring", "state": "Florida", "postcode": "33870", "lat": 27.520639996181377, "long": -81.47361992097706}, {"house_number": "1351", "road": "Hammock Road", "city": "Sebring", "state": "Florida", "postcode": "33870", "lat": 27.473122999999994, "long": -81.47803749999999}, {"house_number": "1284", "road": "Hammock Road", "city": "Sebring", "state": "Florida", "postcode": "33872", "lat": 27.473337814604154, "long": -81.477659396702}, {"house_number": "7626", "road": "South George Boulevard", "city": "Sebring", "state": "Florida", "postcode": "33875", "lat": 27.433616, "long": -81.42357899999999}, {"house_number": "1400", "road": "Prospect Drive", "city": "Sebring", "state": "Florida", "postcode": "33870", "lat": 27.492088962108927, "long": -81.48026973723461}, {"house_number": "525", "road": "Castile Court", "city": "Sebring", "state": "Florida", "postcode": "33876", "lat": 27.44178526916027, "long": -81.35120306815962}, {"house_number": "5334", "road": "Shelton St", "city": "Sebring", "state": "Florida", "postcode": "33876", "lat": 27.450797475933545, "long": -81.4011974684946}, {"house_number": "1610", "road": "Southeast Lakeview Drive", "city": "Sebring", "state": "Florida", "postcode": "33870", "lat": 27.486797459634065, "long": -81.44081030984317}, {"house_number": "8955", "road": "US 98", "city": "Sebring", "state": "Florida", "postcode": "33876", "lat": 27.434265583571428, "long": -81.35913946985357}, {"house_number": "8955", "road": "US 98", "city": "Sebring", "state": "Florida", "postcode": "33876", "lat": 27.434265583571428, "long": -81.35913946985357}, {"house_number": "1844", "road": "Sandra Boulevard", "city": "Sebring", "state": "Florida", "postcode": "33870", "lat": 27.514637, "long": -81.48090249999998}, {"house_number": "1720", "road": "Martin Luther King Junior Boulevard", "city": "Sebring", "state": "Florida", "postcode": "33870", "lat": 27.512654001844393, "long": -81.43328286361958}, {"house_number": "1232", "road": "Southeast Lakeview Drive", "city": "Sebring", "state": "Florida", "postcode": "33870", "lat": 27.477604, "long": -81.44163499999998}, {"house_number": "7517", "road": "Valencia Road", "city": "Sebring", "state": "Florida", "postcode": "33876", "lat": 27.434862936396176, "long": -81.33888400908951}, {"house_number": "1301", "road": "South Self Avenue", "city": "Avon Park", "state": "Florida", "postcode": "33825", "lat": 27.5947295, "long": -81.51857399999999}, {"house_number": "3600", "road": "South Highlands Avenue", "city": "Sebring", "state": "Florida", "postcode": "33870", "lat": 27.467626999999997, "long": -81.433719}, {"house_number": "5205", "road": "Oak Road", "city": "Sebring", "state": "Florida", "postcode": "33875", "lat": 27.446283, "long": -81.487785}, {"house_number": "2000", "road": "Flower Terrace", "city": "Sebring", "state": "Florida", "postcode": "33875", "lat": 27.445315447261855, "long": -81.49070196351697}, {"house_number": "325", "road": "Farrell Drive Northeast", "city": "Lake Placid", "state": "Florida", "postcode": "33852", "lat": 27.264739, "long": -81.3916775}, {"house_number": "337", "road": "Farrell Drive Northeast", "city": "Lake Placid", "state": "Florida", "postcode": "33852", "lat": 27.264736999999997, "long": -81.38981899999999}, {"house_number": "623", "road": "Grissom Road Northwest", "city": "Lake Placid", "state": "Florida", "postcode": "33852", "lat": 27.264740044732076, "long": -81.40403140427833}, {"house_number": "557", "road": "Farrell Drive Northeast", "city": "Lake Placid", "state": "Florida", "postcode": "33852", "lat": 27.264553104406282, "long": -81.38797846951603}, {"house_number": "350", "road": "Humphrey Avenue Northeast", "city": "Lake Placid", "state": "Florida", "postcode": "33852", "lat": 27.26468599999999, "long": -81.38682599999999}, {"house_number": "350", "road": "Humphrey Avenue Northeast", "city": "Lake Placid", "state": "Florida", "postcode": "33852", "lat": 27.26468599999999, "long": -81.38682599999999}, {"house_number": "350", "road": "Humphrey Avenue Northeast", "city": "Lake Placid", "state": "Florida", "postcode": "33852", "lat": 27.26468599999999, "long": -81.38682599999999}, {"house_number": "1979", "road": "Placid Lakes Boulevard", "city": "Lake Placid", "state": "Florida", "postcode": "33852", "lat": 27.265130999999997, "long": -81.39893799999999}, {"house_number": "120", "road": "Van Allen Avenue Northwest", "city": "Lake Placid", "state": "Florida", "postcode": "33852", "lat": 27.26550914899137, "long": -81.40617064433712}, {"house_number": "631", "road": "Grissom Road Northwest", "city": "Lake Placid", "state": "Florida", "postcode": "33852", "lat": 27.264228363525444, "long": -81.40541096081789}, {"house_number": "297", "road": "Washington Boulevard Northeast", "city": "Lake Placid", "state": "Florida", "postcode": "33852", "lat": 27.26415348242777, "long": -81.39690953394653}, {"house_number": "355", "road": "Washington Boulevard Northeast", "city": "Lake Placid", "state": "Florida", "postcode": "33852", "lat": 27.263851739793946, "long": -81.39516390095292}, {"house_number": "493", "road": "Washington Boulevard Northeast", "city": "Lake Placid", "state": "Florida", "postcode": "33852", "lat": 27.2638385, "long": -81.39384899999999}, {"house_number": "511", "road": "Washington Boulevard Northeast", "city": "Lake Placid", "state": "Florida", "postcode": "33852", "lat": 27.26383549999999, "long": -81.392381}, {"house_number": "478", "road": "Humphrey Avenue Northeast", "city": "Lake Placid", "state": "Florida", "postcode": "33852", "lat": 27.263545431598857, "long": -81.38655821736495}, {"house_number": "478", "road": "Humphrey Avenue Northeast", "city": "Lake Placid", "state": "Florida", "postcode": "33852", "lat": 27.263545431598857, "long": -81.38655821736495}, {"house_number": "805", "road": "Washington Boulevard Northeast", "city": "Lake Placid", "state": "Florida", "postcode": "33852", "lat": 27.26360744004856, "long": -81.38810053051535}, {"house_number": "817", "road": "Washington Boulevard Northeast", "city": "Lake Placid", "state": "Florida", "postcode": "33852", "lat": 27.262957999999998, "long": -81.38663799999998}, {"house_number": "124", "road": "Enos Avenue Northwest", "city": "Lake Placid", "state": "Florida", "postcode": "33852", "lat": 27.26514919669192, "long": -81.40707358908816}, {"house_number": "845", "road": "Grissom Road Northwest", "city": "Lake Placid", "state": "Florida", "postcode": "33852", "lat": 27.263431005560115, "long": -81.40634114087797}, {"house_number": "334", "road": "Tulsa Road", "city": "Lake Placid", "state": "Florida", "postcode": "33852", "lat": 27.26266809341209, "long": -81.38791162464784}, {"house_number": "1144", "road": "Washington Boulevard Northeast", "city": "Lake Placid", "state": "Florida", "postcode": "33852", "lat": 27.262119, "long": -81.385944}, {"house_number": "109", "road": "Cleveland Avenue Northeast", "city": "Lake Placid", "state": "Florida", "postcode": "33852", "lat": 27.262180287660932, "long": -81.39173601668979}, {"house_number": "109", "road": "Cleveland Avenue Northeast", "city": "Lake Placid", "state": "Florida", "postcode": "33852", "lat": 27.262180287660932, "long": -81.39173601668979}, {"house_number": "212", "road": "Roosevelt Avenue Northeast", "city": "Lake Placid", "state": "Florida", "postcode": "33852", "lat": 27.262001671502308, "long": -81.39255265889466}, {"house_number": "1144", "road": "Washington Boulevard Northeast", "city": "Lake Placid", "state": "Florida", "postcode": "33852", "lat": 27.261466, "long": -81.3855005}, {"house_number": "2225", "road": "Placid Lakes Boulevard", "city": "Lake Placid", "state": "Florida", "postcode": "33852", "lat": 27.261669499999996, "long": -81.3988435}, {"house_number": "218", "road": "Coolidge Avenue Northeast", "city": "Lake Placid", "state": "Florida", "postcode": "33852", "lat": 27.261065488292097, "long": -81.39322731777288}, {"house_number": "324", "road": "Roosevelt Avenue Northeast", "city": "Lake Placid", "state": "Florida", "postcode": "33852", "lat": 27.26074536944258, "long": -81.39177160709473}, {"house_number": "101", "road": "Roosevelt Lane Northeast", "city": "Lake Placid", "state": "Florida", "postcode": "33852", "lat": 27.259890499999997, "long": -81.39122649999999}, {"house_number": "102", "road": "Hoover Avenue Northeast", "city": "Lake Placid", "state": "Florida", "postcode": "33852", "lat": 27.260373581255077, "long": -81.39346398814006}, {"house_number": "152", "road": "Jamison Avenue", "city": "Lake Placid", "state": "Florida", "postcode": "33852", "lat": 27.260616869039886, "long": -81.37553349217576}, {"house_number": "152", "road": "Jamison Avenue", "city": "Lake Placid", "state": "Florida", "postcode": "33852", "lat": 27.260616869039886, "long": -81.37553349217576}, {"house_number": "120", "road": "Park Road", "city": "Lake Placid", "state": "Florida", "postcode": "33852", "lat": 27.2597925, "long": -81.37709799999999}, {"house_number": "120", "road": "Park Road", "city": "Lake Placid", "state": "Florida", "postcode": "33852", "lat": 27.2597925, "long": -81.37709799999999}, {"house_number": "592", "road": "Flamingo Road Northeast", "city": "Lake Placid", "state": "Florida", "postcode": "33852", "lat": 27.259689652095357, "long": -81.3981095920749}, {"house_number": "115", "road": "Thurman Avenue", "city": "Lake Placid", "state": "Florida", "postcode": "33852", "lat": 27.260286627644724, "long": -81.39525447942147}, {"house_number": "115", "road": "Thurman Avenue", "city": "Lake Placid", "state": "Florida", "postcode": "33852", "lat": 27.260286627644724, "long": -81.39525447942147}, {"house_number": "213", "road": "Hoover Avenue Northeast", "city": "Lake Placid", "state": "Florida", "postcode": "33852", "lat": 27.25971007285782, "long": -81.39432812915157}, {"house_number": "108", "road": "Truman Avenue Northeast", "city": "Lake Placid", "state": "Florida", "postcode": "33852", "lat": 27.260117001745463, "long": -81.385602620597}, {"house_number": "335", "road": "Johnson Avenue Northeast", "city": "Lake Placid", "state": "Florida", "postcode": "33852", "lat": 27.260615203991406, "long": -81.38946322124272}, {"house_number": "114", "road": "Mc Kinley Avenue Northeast", "city": "Lake Placid", "state": "Florida", "postcode": "33852", "lat": 27.260942140026405, "long": -81.38864810177819}, {"house_number": "485", "road": "Johnson Avenue Northeast", "city": "Lake Placid", "state": "Florida", "postcode": "33852", "lat": 27.26045563790112, "long": -81.3877911362076}, {"house_number": "511", "road": "Taft Lane Northeast", "city": "Lake Placid", "state": "Florida", "postcode": "33852", "lat": 27.26046130351109, "long": -81.38646372855361}, {"house_number": "511", "road": "Taft Lane Northeast", "city": "Lake Placid", "state": "Florida", "postcode": "33852", "lat": 27.26046130351109, "long": -81.38646372855361}, {"house_number": "328", "road": "Hoover Avenue Northeast", "city": "Lake Placid", "state": "Florida", "postcode": "33852", "lat": 27.259004109704286, "long": -81.39561896759177}, {"house_number": "822", "road": "E.O. Douglas Avenue", "city": "Sebring", "state": "Florida", "postcode": "33870", "lat": 27.500293492030647, "long": -81.43305695609197}, {"house_number": "822", "road": "E.O. Douglas Avenue", "city": "Sebring", "state": "Florida", "postcode": "33870", "lat": 27.500293492030647, "long": -81.43305695609197}, {"house_number": "1132", "road": "E.O. Douglas Avenue", "city": "Sebring", "state": "Florida", "postcode": "33870", "lat": 27.500350499999996, "long": -81.42914349999998}, {"house_number": "1132", "road": "E.O. Douglas Avenue", "city": "Sebring", "state": "Florida", "postcode": "33870", "lat": 27.500350499999996, "long": -81.42914349999998}, {"house_number": "1724", "road": "Amber Lane", "city": "Lake Placid", "state": "Florida", "postcode": "33852", "lat": 27.312188817427025, "long": -81.34012090368537}, {"house_number": "1724", "road": "Amber Lane", "city": "Lake Placid", "state": "Florida", "postcode": "33852", "lat": 27.312188817427025, "long": -81.34012090368537}, {"house_number": "1709", "road": "Amber Lane", "city": "Lake Placid", "state": "Florida", "postcode": "33852", "lat": 27.313747605691514, "long": -81.34079798092984}, {"house_number": "1037", "road": "Sebring Parkway", "city": "Sebring", "state": "Florida", "postcode": "33870", "lat": 27.486011499999993, "long": -81.43355549999998}, {"house_number": "4800", "road": "Thunderbird Road", "city": "Sebring", "state": "Florida", "postcode": "33872", "lat": 27.50008549999999, "long": -81.5132825}, {"house_number": "4800", "road": "Thunderbird Road", "city": "Sebring", "state": "Florida", "postcode": "33872", "lat": 27.50008549999999, "long": -81.5132825}]