[{"house_number": "8452", "road": "Northeast 69 Place", "city": "East Bronson", "state": "Florida", "postcode": "32621", "lat": 29.434406216843445, "long": -82.60914224654533}, {"house_number": "595", "road": "Northeast 4TH STREET", "city": "Chiefland", "state": "Florida", "postcode": "32626", "lat": 29.48429185464586, "long": -82.8559436690691}, {"house_number": "50", "road": "Southeast 8th Street", "city": "Williston", "state": "Florida", "postcode": "32696", "lat": 29.387892047186423, "long": -82.43736865480001}, {"house_number": "50", "road": "Southeast 9th Street", "city": "Williston", "state": "Florida", "postcode": "32696", "lat": 29.387905724693024, "long": -82.43641355992446}, {"house_number": "948", "road": "Southeast 1st Avenue", "city": "Williston", "state": "Florida", "postcode": "32696", "lat": 29.387165, "long": -82.43603500000002}, {"house_number": "45", "road": "Southeast 9th Terrace", "city": "Williston", "state": "Florida", "postcode": "32696", "lat": 29.387659936715963, "long": -82.43547450372664}, {"house_number": "51", "road": "West Noble Avenue", "city": "Williston", "state": "Florida", "postcode": "32696", "lat": 29.387219999999985, "long": -82.44817499999999}, {"house_number": "148", "road": "West Noble Avenue", "city": "Williston", "state": "Florida", "postcode": "32696", "lat": 29.38705960975204, "long": -82.44917993782873}, {"house_number": "113", "road": "Southeast 4th Street", "city": "Williston", "state": "Florida", "postcode": "32696", "lat": 29.386939999546698, "long": -82.44334501903681}, {"house_number": "348", "road": "Southeast 1st Avenue", "city": "Williston", "state": "Florida", "postcode": "32696", "lat": 29.386669155091223, "long": -82.44367985033834}, {"house_number": "249", "road": "Southeast 1st Avenue", "city": "Williston", "state": "Florida", "postcode": "32696", "lat": 29.386529610755577, "long": -82.4445049347922}, {"house_number": "150", "road": "Southeast 1st Avenue", "city": "Williston", "state": "Florida", "postcode": "32696", "lat": 29.386374999999994, "long": -82.44547999999999}, {"house_number": "50", "road": "Northwest 7th Street", "city": "Williston", "state": "Florida", "postcode": "32696", "lat": 29.386670010511914, "long": -82.45585334330951}, {"house_number": "950", "road": "Southeast 2nd Avenue", "city": "Williston", "state": "Florida", "postcode": "32696", "lat": 29.38609919261216, "long": -82.43620498338913}, {"house_number": "144", "road": "Southeast 9th Terrace", "city": "Williston", "state": "Florida", "postcode": "32696", "lat": 29.386634999999984, "long": -82.43562999999997}, {"house_number": "158", "road": "Southeast 10th Street", "city": "Williston", "state": "Florida", "postcode": "32696", "lat": 29.386167508689898, "long": -82.43510010007556}, {"house_number": "50", "road": "Southwest 1st Street", "city": "Williston", "state": "Florida", "postcode": "32696", "lat": 29.386509999999998, "long": -82.44854500000001}, {"house_number": "163", "road": "Southeast 4th Street", "city": "Williston", "state": "Florida", "postcode": "32696", "lat": 29.386100000000003, "long": -82.44332499999999}, {"house_number": "448", "road": "Southeast 2nd Avenue", "city": "Williston", "state": "Florida", "postcode": "32696", "lat": 29.385696187821523, "long": -82.44241499569634}, {"house_number": "251", "road": "Southwest 1st Avenue", "city": "Williston", "state": "Florida", "postcode": "32696", "lat": 29.385654154401006, "long": -82.44980484291598}, {"house_number": "49", "road": "Southwest 3rd Street", "city": "Williston", "state": "Florida", "postcode": "32696", "lat": 29.38621, "long": -82.45036499999998}, {"house_number": "149", "road": "Southeast 2nd Street", "city": "Williston", "state": "Florida", "postcode": "32696", "lat": 29.38601218356498, "long": -82.44490240501966}, {"house_number": "150", "road": "Southeast 2nd Avenue", "city": "Williston", "state": "Florida", "postcode": "32696", "lat": 29.385504999999988, "long": -82.44529}, {"house_number": "150", "road": "Southeast 1st Street", "city": "Williston", "state": "Florida", "postcode": "32696", "lat": 29.385864999999992, "long": -82.44587999999999}, {"house_number": "50", "road": "Southeast 2nd Avenue", "city": "Williston", "state": "Florida", "postcode": "32696", "lat": 29.385344610965024, "long": -82.44629993420796}, {"house_number": "250", "road": "Southeast 2nd Street", "city": "Williston", "state": "Florida", "postcode": "32696", "lat": 29.385312234992796, "long": -82.44471544546121}, {"house_number": "250", "road": "Southeast 4th Street", "city": "Williston", "state": "Florida", "postcode": "32696", "lat": 29.38535995818136, "long": -82.44331132229944}]