[{"house_number": "197", "road": "Gamble Road", "city": "Wacissa", "state": "Florida", "postcode": "32344", "lat": 30.38766312529808, "long": -84.00664776045848}, {"house_number": "549", "road": "Horsehead", "city": "Wacissa", "state": "Florida", "postcode": "32344", "lat": 30.34221647887694, "long": -83.99832556913309}, {"house_number": "549", "road": "Horsehead", "city": "Wacissa", "state": "Florida", "postcode": "32344", "lat": 30.34221647887694, "long": -83.99832556913309}, {"house_number": "290", "road": "Wacissa Springs Road", "city": "Wacissa", "state": "Florida", "postcode": "32344", "lat": 30.342684335272672, "long": -83.99444277506156}, {"house_number": "290", "road": "Wacissa Springs Road", "city": "Wacissa", "state": "Florida", "postcode": "32344", "lat": 30.342684335272672, "long": -83.99444277506156}, {"house_number": "290", "road": "Wacissa Springs Road", "city": "Wacissa", "state": "Florida", "postcode": "32344", "lat": 30.342684335272672, "long": -83.99444277506156}, {"house_number": "290", "road": "Wacissa Springs Road", "city": "Wacissa", "state": "Florida", "postcode": "32344", "lat": 30.342684335272672, "long": -83.99444277506156}, {"house_number": "290", "road": "Wacissa Springs Road", "city": "Wacissa", "state": "Florida", "postcode": "32344", "lat": 30.342684335272672, "long": -83.99444277506156}, {"house_number": "290", "road": "Wacissa Springs Road", "city": "Wacissa", "state": "Florida", "postcode": "32344", "lat": 30.342684335272672, "long": -83.99444277506156}, {"house_number": "408", "road": "Melrose Drive", "city": "Monticello", "state": "Florida", "postcode": "32344", "lat": 30.530467744320376, "long": -83.86668283649209}, {"house_number": "408", "road": "Melrose Drive", "city": "Monticello", "state": "Florida", "postcode": "32344", "lat": 30.530467744320376, "long": -83.86668283649209}, {"house_number": "408", "road": "Melrose Drive", "city": "Monticello", "state": "Florida", "postcode": "32344", "lat": 30.530467744320376, "long": -83.86668283649209}, {"house_number": "408", "road": "Melrose Drive", "city": "Monticello", "state": "Florida", "postcode": "32344", "lat": 30.530467744320376, "long": -83.86668283649209}, {"house_number": "318", "road": "Willow Street", "city": "Monticello", "state": "Florida", "postcode": "32344", "lat": 30.543304257396294, "long": -83.8839456332963}, {"house_number": "1205", "road": "West Washington Street", "city": "Monticello", "state": "Florida", "postcode": "32345", "lat": 30.54498449999999, "long": -83.88177499999999}, {"house_number": "1352", "road": "Waukeenah Street", "city": "Monticello", "state": "Florida", "postcode": "32344", "lat": 30.525919776100288, "long": -83.86977338270701}, {"house_number": "247", "road": "Crooked Creek Lane", "city": "Monticello", "state": "Florida", "postcode": "32344", "lat": 30.544025041138692, "long": -83.88997891415761}, {"house_number": "750", "road": "4th Street", "city": "Monticello", "state": "Florida", "postcode": "32344", "lat": 30.53765699999999, "long": -83.8637215}, {"house_number": "848", "road": "4th Street", "city": "Monticello", "state": "Florida", "postcode": "32344", "lat": 30.537691074886766, "long": -83.86281454730974}, {"house_number": "748", "road": "Emerald Lane", "city": "Monticello", "state": "Florida", "postcode": "32344", "lat": 30.537214986266797, "long": -83.86354310058468}, {"house_number": "748", "road": "Emerald Lane", "city": "Monticello", "state": "Florida", "postcode": "32344", "lat": 30.537214986266797, "long": -83.86354310058468}, {"house_number": "748", "road": "Emerald Lane", "city": "Monticello", "state": "Florida", "postcode": "32344", "lat": 30.537214986266797, "long": -83.86354310058468}, {"house_number": "748", "road": "Emerald Lane", "city": "Monticello", "state": "Florida", "postcode": "32344", "lat": 30.537214986266797, "long": -83.86354310058468}, {"house_number": "450", "road": "Elliot Drive", "city": "Monticello", "state": "Florida", "postcode": "32344", "lat": 30.531142999999993, "long": -83.86683799999999}, {"house_number": "1148", "road": "Sage Street", "city": "Monticello", "state": "Florida", "postcode": "32344", "lat": 30.541959192677997, "long": -83.85895498411024}, {"house_number": "1148", "road": "Sage Street", "city": "Monticello", "state": "Florida", "postcode": "32344", "lat": 30.541959192677997, "long": -83.85895498411024}, {"house_number": "1148", "road": "Sage Street", "city": "Monticello", "state": "Florida", "postcode": "32344", "lat": 30.541959192677997, "long": -83.85895498411024}, {"house_number": "445", "road": "South Waukeenah Street", "city": "Monticello", "state": "Florida", "postcode": "32344", "lat": 30.542291418160882, "long": -83.86847492970578}, {"house_number": "445", "road": "South Waukeenah Street", "city": "Monticello", "state": "Florida", "postcode": "32344", "lat": 30.542291418160882, "long": -83.86847492970578}, {"house_number": "350", "road": "East Holly Street", "city": "Monticello", "state": "Florida", "postcode": "32344", "lat": 30.54186106976783, "long": -83.86790046391475}, {"house_number": "465", "road": "Hill Street", "city": "Monticello", "state": "Florida", "postcode": "32344", "lat": 30.54232499999999, "long": -83.86731999999999}, {"house_number": "784", "road": "East Poplar Street", "city": "Monticello", "state": "Florida", "postcode": "32344", "lat": 30.541399593905503, "long": -83.86648751423098}, {"house_number": "784", "road": "East Poplar Street", "city": "Monticello", "state": "Florida", "postcode": "32344", "lat": 30.541399593905503, "long": -83.86648751423098}, {"house_number": "668", "road": "Railroad Street", "city": "Monticello", "state": "Florida", "postcode": "32344", "lat": 30.541894999999993, "long": -83.86420999999999}, {"house_number": "580", "road": "South Water Street", "city": "Monticello", "state": "Florida", "postcode": "32344", "lat": 30.541688908287036, "long": -83.87277684882842}, {"house_number": "550", "road": "Park Avenue", "city": "Monticello", "state": "Florida", "postcode": "32344", "lat": 30.541650317234705, "long": -83.85792106079049}, {"house_number": "551", "road": "Key Street", "city": "Monticello", "state": "Florida", "postcode": "32344", "lat": 30.541595869878485, "long": -83.86001483964917}, {"house_number": "1150", "road": "King Street", "city": "Monticello", "state": "Florida", "postcode": "32344", "lat": 30.541286936104168, "long": -83.8589700865394}, {"house_number": "549", "road": "Martin Luther King Jr Avenue", "city": "Monticello", "state": "Florida", "postcode": "32344", "lat": 30.541769934655235, "long": -83.86348120887784}, {"house_number": "649", "road": "King Street", "city": "Monticello", "state": "Florida", "postcode": "32344", "lat": 30.541173803937067, "long": -83.86384508878518}, {"house_number": "798", "road": "King Street", "city": "Monticello", "state": "Florida", "postcode": "32344", "lat": 30.54117637677541, "long": -83.86308992898367}, {"house_number": "348", "road": "East Dixie Street", "city": "Monticello", "state": "Florida", "postcode": "32344", "lat": 30.540690099908346, "long": -83.86790949907383}, {"house_number": "637", "road": "South Waukeenah Street", "city": "Monticello", "state": "Florida", "postcode": "32344", "lat": 30.541030316904756, "long": -83.86845314194896}, {"house_number": "950", "road": "East York Street", "city": "Monticello", "state": "Florida", "postcode": "32344", "lat": 30.547969193669815, "long": -83.86155848580336}, {"house_number": "238", "road": "Scott Drive", "city": "Monticello", "state": "Florida", "postcode": "32344", "lat": 30.556089999999998, "long": -83.8718275}, {"house_number": "238", "road": "Scott Drive", "city": "Monticello", "state": "Florida", "postcode": "32344", "lat": 30.556089999999998, "long": -83.8718275}, {"house_number": "1353", "road": "Susanna Street", "city": "Monticello", "state": "Florida", "postcode": "32344", "lat": 30.556253992864377, "long": -83.87142924536828}, {"house_number": "295", "road": "Scott Drive", "city": "Monticello", "state": "Florida", "postcode": "32344", "lat": 30.556089999999994, "long": -83.872409}, {"house_number": "1351", "road": "Louisiana", "city": "Monticello", "state": "Florida", "postcode": "32344", "lat": 30.55625388662858, "long": -83.87224169387133}, {"house_number": "201", "road": "Granger Hightower Lane", "city": "Wacissa", "state": "Florida", "postcode": "32361", "lat": 30.35608044353608, "long": -83.98728265563177}, {"house_number": "201", "road": "Granger Hightower Lane", "city": "Wacissa", "state": "Florida", "postcode": "32361", "lat": 30.35608044353608, "long": -83.98728265563177}, {"house_number": "54", "road": "Waukeenah Highway", "city": "Wacissa", "state": "Florida", "postcode": "32361", "lat": 30.357335002170696, "long": -83.98015872706831}, {"house_number": "844", "road": "Willow Road", "city": "Monticello", "state": "Florida", "postcode": "32344", "lat": 30.54095370093642, "long": -83.88426843976684}, {"house_number": "898", "road": "Georgia Street", "city": "Monticello", "state": "Florida", "postcode": "32344", "lat": 30.553727656678817, "long": -83.87223964008685}, {"house_number": "551", "road": "North Olive Street", "city": "Monticello", "state": "Florida", "postcode": "32344", "lat": 30.548379494257265, "long": -83.87187054995881}, {"house_number": "849", "road": "East Pearl Street", "city": "Monticello", "state": "Florida", "postcode": "32344", "lat": 30.54656999999999, "long": -83.86338799999999}, {"house_number": "8649", "road": "Gamble Road", "city": "Wacissa", "state": "Florida", "postcode": "32344", "lat": 30.400082999999995, "long": -84.01808649999998}, {"house_number": "9348", "road": "Gamble Road", "city": "Wacissa", "state": "Florida", "postcode": "32344", "lat": 30.390711999999994, "long": -84.01209899999999}, {"house_number": "9249", "road": "Gamble Road", "city": "Wacissa", "state": "Florida", "postcode": "32344", "lat": 30.391629999999996, "long": -84.0126895}, {"house_number": "200", "road": "Gamble Road", "city": "Wacissa", "state": "Florida", "postcode": "32344", "lat": 30.39230605721888, "long": -84.00974857266795}, {"house_number": "9478", "road": "Gamble Road", "city": "Wacissa", "state": "Florida", "postcode": "32344", "lat": 30.388614999999994, "long": -84.010738}, {"house_number": "9478", "road": "Gamble Road", "city": "Wacissa", "state": "Florida", "postcode": "32344", "lat": 30.388614999999994, "long": -84.010738}, {"house_number": "200", "road": "Gamble Road", "city": "Wacissa", "state": "Florida", "postcode": "32344", "lat": 30.388232906509764, "long": -84.00840103839677}, {"house_number": "51", "road": "Tin Top Road", "city": "Wacissa", "state": "Florida", "postcode": "32344", "lat": 30.352981468702616, "long": -83.97104170823498}, {"house_number": "450", "road": "South Poinsetta Avenue", "city": "Monticello", "state": "Florida", "postcode": "32344", "lat": 30.54051109285122, "long": -83.88107748156052}]