[{"house_number": "3193", "road": "Northeast Turner Avenue", "city": "Arcadia", "state": "Florida", "postcode": "34266", "lat": 27.24028949703834, "long": -81.84060992108449}, {"house_number": "3143", "road": "Brevard Avenue", "city": "Arcadia", "state": "Florida", "postcode": "34266", "lat": 27.240977999999995, "long": -81.85085049999999}, {"house_number": "84", "road": "North 15th Avenue", "city": "Arcadia", "state": "Florida", "postcode": "34266", "lat": 27.211577499999997, "long": -81.84281949999999}, {"house_number": "951", "road": "North Arcadia Avenue", "city": "Arcadia", "state": "Florida", "postcode": "34266", "lat": 27.2277350251836, "long": -81.85917721644292}, {"house_number": "150", "road": "West Palmetto Street", "city": "Arcadia", "state": "Florida", "postcode": "34266", "lat": 27.211034653776974, "long": -81.86425013492855}, {"house_number": "147", "road": "Asbury Street", "city": "Arcadia", "state": "Florida", "postcode": "34266", "lat": 27.230158652045862, "long": -81.85790997054991}, {"house_number": "651", "road": "West Oak Street", "city": "Arcadia", "state": "Florida", "postcode": "34266", "lat": 27.217799956729444, "long": -81.86710345322156}, {"house_number": "1349", "road": "North Arcadia Avenue", "city": "Arcadia", "state": "Florida", "postcode": "34266", "lat": 27.23260500783566, "long": -81.85915479597166}, {"house_number": "1859", "road": "Northeast Fiveash Street", "city": "Arcadia", "state": "Florida", "postcode": "34266", "lat": 27.231400499431526, "long": -81.84572998372091}]